<?xml version='1.0' encoding='utf-8'?>
<osm version="0.6" generator="tile_fbx_generator.py">
  <node id="-1" lat="48.7656239" lon="11.4668749" visible="true" />
  <node id="-2" lat="48.7655373" lon="11.4669622" visible="true" />
  <node id="-3" lat="48.7654353" lon="11.4667292" visible="true" />
  <node id="-4" lat="48.7655219" lon="11.4666420" visible="true" />
  <node id="-5" lat="48.7634758" lon="11.4715738" visible="true" />
  <node id="-6" lat="48.7633329" lon="11.4716953" visible="true" />
  <node id="-7" lat="48.7632810" lon="11.4715548" visible="true" />
  <node id="-8" lat="48.7634238" lon="11.4714333" visible="true" />
  <node id="-9" lat="48.7633682" lon="11.4712468" visible="true" />
  <node id="-10" lat="48.7633143" lon="11.4712907" visible="true" />
  <node id="-11" lat="48.7632381" lon="11.4710755" visible="true" />
  <node id="-12" lat="48.7632919" lon="11.4710317" visible="true" />
  <node id="-13" lat="48.7686037" lon="11.4614662" visible="true" />
  <node id="-14" lat="48.7683850" lon="11.4614420" visible="true" />
  <node id="-15" lat="48.7683480" lon="11.4615561" visible="true" />
  <node id="-16" lat="48.7683454" lon="11.4616105" visible="true" />
  <node id="-17" lat="48.7683099" lon="11.4616066" visible="true" />
  <node id="-18" lat="48.7683029" lon="11.4617530" visible="true" />
  <node id="-19" lat="48.7686701" lon="11.4617938" visible="true" />
  <node id="-20" lat="48.7686787" lon="11.4616169" visible="true" />
  <node id="-21" lat="48.7686871" lon="11.4614421" visible="true" />
  <node id="-22" lat="48.7686053" lon="11.4614330" visible="true" />
  <node id="-23" lat="48.7686559" lon="11.4619269" visible="true" />
  <node id="-24" lat="48.7684401" lon="11.4619314" visible="true" />
  <node id="-25" lat="48.7684414" lon="11.4620842" visible="true" />
  <node id="-26" lat="48.7686573" lon="11.4620797" visible="true" />
  <node id="-27" lat="48.7683901" lon="11.4624380" visible="true" />
  <node id="-28" lat="48.7682779" lon="11.4624417" visible="true" />
  <node id="-29" lat="48.7682792" lon="11.4625352" visible="true" />
  <node id="-30" lat="48.7682045" lon="11.4625380" visible="true" />
  <node id="-31" lat="48.7682077" lon="11.4627313" visible="true" />
  <node id="-32" lat="48.7682824" lon="11.4627285" visible="true" />
  <node id="-33" lat="48.7682807" lon="11.4626260" visible="true" />
  <node id="-34" lat="48.7683927" lon="11.4626223" visible="true" />
  <node id="-35" lat="48.7686881" lon="11.4623805" visible="true" />
  <node id="-36" lat="48.7686059" lon="11.4623865" visible="true" />
  <node id="-37" lat="48.7686105" lon="11.4625299" visible="true" />
  <node id="-38" lat="48.7685304" lon="11.4625362" visible="true" />
  <node id="-39" lat="48.7685314" lon="11.4625771" visible="true" />
  <node id="-40" lat="48.7686119" lon="11.4625745" visible="true" />
  <node id="-41" lat="48.7686940" lon="11.4625685" visible="true" />
  <node id="-42" lat="48.7687326" lon="11.4626825" visible="true" />
  <node id="-43" lat="48.7686328" lon="11.4626853" visible="true" />
  <node id="-44" lat="48.7686348" lon="11.4628512" visible="true" />
  <node id="-45" lat="48.7687346" lon="11.4628484" visible="true" />
  <node id="-46" lat="48.7687472" lon="11.4629333" visible="true" />
  <node id="-47" lat="48.7686183" lon="11.4629342" visible="true" />
  <node id="-48" lat="48.7686187" lon="11.4630616" visible="true" />
  <node id="-49" lat="48.7687476" lon="11.4630606" visible="true" />
  <node id="-50" lat="48.7687433" lon="11.4631877" visible="true" />
  <node id="-51" lat="48.7686579" lon="11.4631972" visible="true" />
  <node id="-52" lat="48.7686635" lon="11.4633128" visible="true" />
  <node id="-53" lat="48.7687489" lon="11.4633033" visible="true" />
  <node id="-54" lat="48.7688042" lon="11.4637707" visible="true" />
  <node id="-55" lat="48.7686604" lon="11.4637780" visible="true" />
  <node id="-56" lat="48.7686635" lon="11.4639190" visible="true" />
  <node id="-57" lat="48.7688073" lon="11.4639118" visible="true" />
  <node id="-58" lat="48.7682125" lon="11.4628602" visible="true" />
  <node id="-59" lat="48.7681230" lon="11.4628597" visible="true" />
  <node id="-60" lat="48.7681227" lon="11.4629560" visible="true" />
  <node id="-61" lat="48.7682122" lon="11.4629565" visible="true" />
  <node id="-62" lat="48.7682838" lon="11.4630491" visible="true" />
  <node id="-63" lat="48.7681945" lon="11.4630530" visible="true" />
  <node id="-64" lat="48.7681980" lon="11.4632390" visible="true" />
  <node id="-65" lat="48.7682873" lon="11.4632351" visible="true" />
  <node id="-66" lat="48.7683611" lon="11.4633158" visible="true" />
  <node id="-67" lat="48.7682027" lon="11.4633236" visible="true" />
  <node id="-68" lat="48.7682052" lon="11.4634409" visible="true" />
  <node id="-69" lat="48.7683636" lon="11.4634331" visible="true" />
  <node id="-70" lat="48.7683611" lon="11.4635776" visible="true" />
  <node id="-71" lat="48.7682185" lon="11.4635786" visible="true" />
  <node id="-72" lat="48.7682189" lon="11.4637130" visible="true" />
  <node id="-73" lat="48.7683616" lon="11.4637119" visible="true" />
  <node id="-74" lat="48.7683691" lon="11.4638387" visible="true" />
  <node id="-75" lat="48.7682501" lon="11.4638378" visible="true" />
  <node id="-76" lat="48.7682495" lon="11.4640096" visible="true" />
  <node id="-77" lat="48.7683686" lon="11.4640105" visible="true" />
  <node id="-78" lat="48.7683683" lon="11.4618360" visible="true" />
  <node id="-79" lat="48.7682876" lon="11.4618031" visible="true" />
  <node id="-80" lat="48.7682394" lon="11.4620750" visible="true" />
  <node id="-81" lat="48.7683201" lon="11.4621080" visible="true" />
  <node id="-82" lat="48.7685466" lon="11.4628403" visible="true" />
  <node id="-83" lat="48.7684805" lon="11.4628426" visible="true" />
  <node id="-84" lat="48.7684840" lon="11.4630725" visible="true" />
  <node id="-85" lat="48.7685501" lon="11.4630702" visible="true" />
  <node id="-86" lat="48.7688193" lon="11.4639578" visible="true" />
  <node id="-87" lat="48.7687048" lon="11.4639586" visible="true" />
  <node id="-88" lat="48.7687058" lon="11.4640899" visible="true" />
  <node id="-89" lat="48.7688202" lon="11.4640891" visible="true" />
  <node id="-90" lat="48.7684585" lon="11.4634559" visible="true" />
  <node id="-91" lat="48.7682650" lon="11.4634579" visible="true" />
  <node id="-92" lat="48.7682654" lon="11.4635622" visible="true" />
  <node id="-93" lat="48.7684589" lon="11.4635602" visible="true" />
  <node id="-94" lat="48.7682056" lon="11.4635750" visible="true" />
  <node id="-95" lat="48.7681335" lon="11.4635768" visible="true" />
  <node id="-96" lat="48.7681327" lon="11.4635006" visible="true" />
  <node id="-97" lat="48.7682048" lon="11.4634989" visible="true" />
  <node id="-98" lat="48.7681550" lon="11.4633260" visible="true" />
  <node id="-99" lat="48.7681101" lon="11.4633272" visible="true" />
  <node id="-100" lat="48.7681094" lon="11.4632716" visible="true" />
  <node id="-101" lat="48.7681544" lon="11.4632704" visible="true" />
  <node id="-102" lat="48.7679248" lon="11.4632551" visible="true" />
  <node id="-103" lat="48.7678276" lon="11.4631303" visible="true" />
  <node id="-104" lat="48.7676818" lon="11.4633917" visible="true" />
  <node id="-105" lat="48.7677790" lon="11.4635165" visible="true" />
  <node id="-106" lat="48.7679600" lon="11.4635725" visible="true" />
  <node id="-107" lat="48.7678275" lon="11.4636652" visible="true" />
  <node id="-108" lat="48.7678828" lon="11.4638472" visible="true" />
  <node id="-109" lat="48.7680153" lon="11.4637545" visible="true" />
  <node id="-110" lat="48.7676630" lon="11.4638192" visible="true" />
  <node id="-111" lat="48.7675567" lon="11.4639034" visible="true" />
  <node id="-112" lat="48.7676506" lon="11.4641760" visible="true" />
  <node id="-113" lat="48.7676754" lon="11.4641564" visible="true" />
  <node id="-114" lat="48.7677227" lon="11.4642965" visible="true" />
  <node id="-115" lat="48.7677792" lon="11.4642525" visible="true" />
  <node id="-116" lat="48.7677317" lon="11.4641118" visible="true" />
  <node id="-117" lat="48.7677569" lon="11.4640918" visible="true" />
  <node id="-118" lat="48.7676446" lon="11.4637094" visible="true" />
  <node id="-119" lat="48.7675251" lon="11.4637927" visible="true" />
  <node id="-120" lat="48.7674712" lon="11.4636150" visible="true" />
  <node id="-121" lat="48.7675907" lon="11.4635317" visible="true" />
  <node id="-122" lat="48.7679799" lon="11.4639638" visible="true" />
  <node id="-123" lat="48.7678586" lon="11.4640814" visible="true" />
  <node id="-124" lat="48.7678977" lon="11.4641742" visible="true" />
  <node id="-125" lat="48.7680190" lon="11.4640566" visible="true" />
  <node id="-126" lat="48.7674555" lon="11.4641025" visible="true" />
  <node id="-127" lat="48.7673337" lon="11.4642276" visible="true" />
  <node id="-128" lat="48.7673111" lon="11.4641769" visible="true" />
  <node id="-129" lat="48.7674329" lon="11.4640518" visible="true" />
  <node id="-130" lat="48.7672716" lon="11.4639530" visible="true" />
  <node id="-131" lat="48.7671981" lon="11.4640377" visible="true" />
  <node id="-132" lat="48.7672627" lon="11.4641664" visible="true" />
  <node id="-133" lat="48.7673361" lon="11.4640816" visible="true" />
  <node id="-134" lat="48.7671544" lon="11.4642149" visible="true" />
  <node id="-135" lat="48.7670870" lon="11.4643073" visible="true" />
  <node id="-136" lat="48.7669844" lon="11.4641348" visible="true" />
  <node id="-137" lat="48.7670518" lon="11.4640424" visible="true" />
  <node id="-138" lat="48.7670446" lon="11.4644388" visible="true" />
  <node id="-139" lat="48.7669857" lon="11.4643442" visible="true" />
  <node id="-140" lat="48.7669021" lon="11.4644641" visible="true" />
  <node id="-141" lat="48.7669610" lon="11.4645587" visible="true" />
  <node id="-142" lat="48.7668285" lon="11.4646991" visible="true" />
  <node id="-143" lat="48.7668044" lon="11.4646566" visible="true" />
  <node id="-144" lat="48.7668513" lon="11.4645965" visible="true" />
  <node id="-145" lat="48.7668748" lon="11.4646391" visible="true" />
  <node id="-146" lat="48.7670174" lon="11.4647705" visible="true" />
  <node id="-147" lat="48.7670989" lon="11.4649163" visible="true" />
  <node id="-148" lat="48.7670414" lon="11.4649902" visible="true" />
  <node id="-149" lat="48.7669599" lon="11.4648444" visible="true" />
  <node id="-150" lat="48.7670756" lon="11.4647289" visible="true" />
  <node id="-151" lat="48.7671378" lon="11.4646520" visible="true" />
  <node id="-152" lat="48.7672138" lon="11.4647937" visible="true" />
  <node id="-153" lat="48.7671516" lon="11.4648706" visible="true" />
  <node id="-154" lat="48.7671889" lon="11.4645858" visible="true" />
  <node id="-155" lat="48.7672430" lon="11.4645284" visible="true" />
  <node id="-156" lat="48.7673163" lon="11.4646873" visible="true" />
  <node id="-157" lat="48.7672622" lon="11.4647447" visible="true" />
  <node id="-158" lat="48.7673992" lon="11.4645855" visible="true" />
  <node id="-159" lat="48.7673142" lon="11.4644115" visible="true" />
  <node id="-160" lat="48.7673699" lon="11.4643489" visible="true" />
  <node id="-161" lat="48.7674549" lon="11.4645229" visible="true" />
  <node id="-162" lat="48.7685404" lon="11.4644122" visible="true" />
  <node id="-163" lat="48.7684818" lon="11.4644163" visible="true" />
  <node id="-164" lat="48.7684854" lon="11.4645340" visible="true" />
  <node id="-165" lat="48.7685440" lon="11.4645299" visible="true" />
  <node id="-166" lat="48.7676093" lon="11.4645569" visible="true" />
  <node id="-167" lat="48.7676675" lon="11.4647029" visible="true" />
  <node id="-168" lat="48.7676180" lon="11.4647484" visible="true" />
  <node id="-169" lat="48.7675598" lon="11.4646024" visible="true" />
  <node id="-170" lat="48.7673520" lon="11.4648050" visible="true" />
  <node id="-171" lat="48.7672864" lon="11.4648629" visible="true" />
  <node id="-172" lat="48.7673520" lon="11.4650342" visible="true" />
  <node id="-173" lat="48.7674176" lon="11.4649763" visible="true" />
  <node id="-174" lat="48.7674309" lon="11.4652874" visible="true" />
  <node id="-175" lat="48.7673348" lon="11.4653650" visible="true" />
  <node id="-176" lat="48.7672923" lon="11.4652439" visible="true" />
  <node id="-177" lat="48.7673884" lon="11.4651663" visible="true" />
  <node id="-178" lat="48.7675960" lon="11.4651372" visible="true" />
  <node id="-179" lat="48.7674896" lon="11.4652167" visible="true" />
  <node id="-180" lat="48.7674424" lon="11.4650712" visible="true" />
  <node id="-181" lat="48.7675488" lon="11.4649917" visible="true" />
  <node id="-182" lat="48.7674791" lon="11.4656914" visible="true" />
  <node id="-183" lat="48.7675596" lon="11.4656076" visible="true" />
  <node id="-184" lat="48.7674802" lon="11.4654319" visible="true" />
  <node id="-185" lat="48.7673997" lon="11.4655158" visible="true" />
  <node id="-186" lat="48.7673487" lon="11.4655639" visible="true" />
  <node id="-187" lat="48.7672777" lon="11.4656224" visible="true" />
  <node id="-188" lat="48.7673464" lon="11.4658143" visible="true" />
  <node id="-189" lat="48.7674174" lon="11.4657558" visible="true" />
  <node id="-190" lat="48.7671229" lon="11.4650367" visible="true" />
  <node id="-191" lat="48.7670573" lon="11.4650946" visible="true" />
  <node id="-192" lat="48.7671229" lon="11.4652658" visible="true" />
  <node id="-193" lat="48.7671885" lon="11.4652079" visible="true" />
  <node id="-194" lat="48.7672330" lon="11.4649261" visible="true" />
  <node id="-195" lat="48.7671674" lon="11.4649840" visible="true" />
  <node id="-196" lat="48.7672330" lon="11.4651552" visible="true" />
  <node id="-197" lat="48.7672986" lon="11.4650973" visible="true" />
  <node id="-198" lat="48.7674816" lon="11.4646768" visible="true" />
  <node id="-199" lat="48.7674160" lon="11.4647347" visible="true" />
  <node id="-200" lat="48.7674817" lon="11.4649059" visible="true" />
  <node id="-201" lat="48.7675472" lon="11.4648480" visible="true" />
  <node id="-202" lat="48.7676987" lon="11.4650232" visible="true" />
  <node id="-203" lat="48.7676652" lon="11.4650434" visible="true" />
  <node id="-204" lat="48.7676485" lon="11.4649713" visible="true" />
  <node id="-205" lat="48.7676793" lon="11.4649548" visible="true" />
  <node id="-206" lat="48.7672195" lon="11.4654553" visible="true" />
  <node id="-207" lat="48.7672062" lon="11.4654245" visible="true" />
  <node id="-208" lat="48.7672611" lon="11.4653699" visible="true" />
  <node id="-209" lat="48.7672744" lon="11.4654004" visible="true" />
  <node id="-210" lat="48.7676002" lon="11.4655683" visible="true" />
  <node id="-211" lat="48.7676806" lon="11.4654845" visible="true" />
  <node id="-212" lat="48.7676024" lon="11.4653088" visible="true" />
  <node id="-213" lat="48.7675220" lon="11.4653927" visible="true" />
  <node id="-214" lat="48.7677922" lon="11.4652916" visible="true" />
  <node id="-215" lat="48.7677402" lon="11.4651747" visible="true" />
  <node id="-216" lat="48.7676579" lon="11.4652590" visible="true" />
  <node id="-217" lat="48.7677099" lon="11.4653760" visible="true" />
  <node id="-218" lat="48.7677246" lon="11.4653610" visible="true" />
  <node id="-219" lat="48.7677765" lon="11.4654778" visible="true" />
  <node id="-220" lat="48.7678588" lon="11.4653937" visible="true" />
  <node id="-221" lat="48.7678068" lon="11.4652766" visible="true" />
  <node id="-222" lat="48.7689252" lon="11.4642011" visible="true" />
  <node id="-223" lat="48.7687379" lon="11.4642032" visible="true" />
  <node id="-224" lat="48.7687394" lon="11.4643411" visible="true" />
  <node id="-225" lat="48.7689267" lon="11.4643391" visible="true" />
  <node id="-226" lat="48.7688075" lon="11.4648469" visible="true" />
  <node id="-227" lat="48.7686272" lon="11.4648523" visible="true" />
  <node id="-228" lat="48.7686289" lon="11.4649878" visible="true" />
  <node id="-229" lat="48.7688093" lon="11.4649824" visible="true" />
  <node id="-230" lat="48.7681812" lon="11.4652286" visible="true" />
  <node id="-231" lat="48.7681065" lon="11.4652409" visible="true" />
  <node id="-232" lat="48.7681154" lon="11.4653646" visible="true" />
  <node id="-233" lat="48.7679900" lon="11.4653856" visible="true" />
  <node id="-234" lat="48.7679996" lon="11.4655170" visible="true" />
  <node id="-235" lat="48.7682029" lon="11.4654830" visible="true" />
  <node id="-236" lat="48.7683855" lon="11.4652112" visible="true" />
  <node id="-237" lat="48.7682726" lon="11.4652129" visible="true" />
  <node id="-238" lat="48.7682744" lon="11.4654155" visible="true" />
  <node id="-239" lat="48.7683861" lon="11.4654132" visible="true" />
  <node id="-240" lat="48.7685355" lon="11.4648571" visible="true" />
  <node id="-241" lat="48.7684031" lon="11.4648565" visible="true" />
  <node id="-242" lat="48.7684087" lon="11.4650399" visible="true" />
  <node id="-243" lat="48.7685411" lon="11.4650404" visible="true" />
  <node id="-244" lat="48.7687525" lon="11.4651592" visible="true" />
  <node id="-245" lat="48.7686305" lon="11.4651725" visible="true" />
  <node id="-246" lat="48.7686420" lon="11.4654159" visible="true" />
  <node id="-247" lat="48.7687640" lon="11.4654026" visible="true" />
  <node id="-248" lat="48.7687767" lon="11.4644553" visible="true" />
  <node id="-249" lat="48.7686473" lon="11.4644569" visible="true" />
  <node id="-250" lat="48.7686469" lon="11.4643908" visible="true" />
  <node id="-251" lat="48.7687763" lon="11.4643893" visible="true" />
  <node id="-252" lat="48.7687202" lon="11.4642166" visible="true" />
  <node id="-253" lat="48.7687209" lon="11.4641461" visible="true" />
  <node id="-254" lat="48.7686314" lon="11.4641440" visible="true" />
  <node id="-255" lat="48.7686306" lon="11.4642145" visible="true" />
  <node id="-256" lat="48.7684989" lon="11.4651979" visible="true" />
  <node id="-257" lat="48.7684279" lon="11.4651992" visible="true" />
  <node id="-258" lat="48.7684293" lon="11.4653714" visible="true" />
  <node id="-259" lat="48.7685003" lon="11.4653700" visible="true" />
  <node id="-260" lat="48.7683789" lon="11.4640985" visible="true" />
  <node id="-261" lat="48.7682598" lon="11.4640977" visible="true" />
  <node id="-262" lat="48.7682593" lon="11.4642696" visible="true" />
  <node id="-263" lat="48.7683784" lon="11.4642704" visible="true" />
  <node id="-264" lat="48.7683910" lon="11.4643765" visible="true" />
  <node id="-265" lat="48.7682720" lon="11.4643757" visible="true" />
  <node id="-266" lat="48.7682715" lon="11.4645476" visible="true" />
  <node id="-267" lat="48.7683905" lon="11.4645484" visible="true" />
  <node id="-268" lat="48.7684043" lon="11.4646469" visible="true" />
  <node id="-269" lat="48.7682852" lon="11.4646460" visible="true" />
  <node id="-270" lat="48.7682847" lon="11.4648178" visible="true" />
  <node id="-271" lat="48.7684037" lon="11.4648187" visible="true" />
  <node id="-272" lat="48.7685549" lon="11.4646717" visible="true" />
  <node id="-273" lat="48.7684962" lon="11.4646757" visible="true" />
  <node id="-274" lat="48.7684997" lon="11.4647934" visible="true" />
  <node id="-275" lat="48.7685584" lon="11.4647894" visible="true" />
  <node id="-276" lat="48.7681088" lon="11.4648558" visible="true" />
  <node id="-277" lat="48.7679599" lon="11.4648672" visible="true" />
  <node id="-278" lat="48.7679492" lon="11.4647439" visible="true" />
  <node id="-279" lat="48.7680221" lon="11.4647419" visible="true" />
  <node id="-280" lat="48.7680154" lon="11.4646742" visible="true" />
  <node id="-281" lat="48.7680891" lon="11.4646573" visible="true" />
  <node id="-282" lat="48.7691675" lon="11.4612728" visible="true" />
  <node id="-283" lat="48.7690302" lon="11.4612882" visible="true" />
  <node id="-284" lat="48.7690232" lon="11.4611373" visible="true" />
  <node id="-285" lat="48.7691605" lon="11.4611219" visible="true" />
  <node id="-286" lat="48.7691777" lon="11.4614029" visible="true" />
  <node id="-287" lat="48.7690718" lon="11.4614107" visible="true" />
  <node id="-288" lat="48.7690775" lon="11.4615892" visible="true" />
  <node id="-289" lat="48.7691834" lon="11.4615814" visible="true" />
  <node id="-290" lat="48.7690765" lon="11.4610517" visible="true" />
  <node id="-291" lat="48.7689787" lon="11.4610565" visible="true" />
  <node id="-292" lat="48.7689802" lon="11.4611295" visible="true" />
  <node id="-293" lat="48.7690780" lon="11.4611247" visible="true" />
  <node id="-294" lat="48.7672022" lon="11.4663546" visible="true" />
  <node id="-295" lat="48.7672947" lon="11.4662871" visible="true" />
  <node id="-296" lat="48.7673320" lon="11.4664050" visible="true" />
  <node id="-297" lat="48.7672395" lon="11.4664724" visible="true" />
  <node id="-298" lat="48.7674437" lon="11.4666944" visible="true" />
  <node id="-299" lat="48.7673800" lon="11.4665169" visible="true" />
  <node id="-300" lat="48.7672756" lon="11.4666032" visible="true" />
  <node id="-301" lat="48.7673392" lon="11.4667807" visible="true" />
  <node id="-302" lat="48.7675475" lon="11.4669465" visible="true" />
  <node id="-303" lat="48.7675044" lon="11.4668254" visible="true" />
  <node id="-304" lat="48.7674119" lon="11.4669011" visible="true" />
  <node id="-305" lat="48.7674550" lon="11.4670223" visible="true" />
  <node id="-306" lat="48.7674460" lon="11.4660304" visible="true" />
  <node id="-307" lat="48.7673633" lon="11.4661062" visible="true" />
  <node id="-308" lat="48.7674213" lon="11.4662517" visible="true" />
  <node id="-309" lat="48.7675040" lon="11.4661759" visible="true" />
  <node id="-310" lat="48.7675995" lon="11.4660478" visible="true" />
  <node id="-311" lat="48.7675103" lon="11.4661146" visible="true" />
  <node id="-312" lat="48.7675583" lon="11.4662620" visible="true" />
  <node id="-313" lat="48.7676475" lon="11.4661952" visible="true" />
  <node id="-314" lat="48.7676843" lon="11.4657977" visible="true" />
  <node id="-315" lat="48.7675871" lon="11.4658686" visible="true" />
  <node id="-316" lat="48.7676300" lon="11.4660041" visible="true" />
  <node id="-317" lat="48.7677272" lon="11.4659332" visible="true" />
  <node id="-318" lat="48.7678613" lon="11.4656569" visible="true" />
  <node id="-319" lat="48.7677742" lon="11.4657110" visible="true" />
  <node id="-320" lat="48.7678197" lon="11.4658799" visible="true" />
  <node id="-321" lat="48.7679068" lon="11.4658258" visible="true" />
  <node id="-322" lat="48.7678413" lon="11.4665606" visible="true" />
  <node id="-323" lat="48.7677985" lon="11.4664425" visible="true" />
  <node id="-324" lat="48.7676059" lon="11.4666030" visible="true" />
  <node id="-325" lat="48.7676486" lon="11.4667211" visible="true" />
  <node id="-326" lat="48.7680275" lon="11.4668676" visible="true" />
  <node id="-327" lat="48.7678410" lon="11.4670066" visible="true" />
  <node id="-328" lat="48.7678805" lon="11.4671288" visible="true" />
  <node id="-329" lat="48.7680671" lon="11.4669897" visible="true" />
  <node id="-330" lat="48.7675242" lon="11.4671055" visible="true" />
  <node id="-331" lat="48.7674758" lon="11.4671500" visible="true" />
  <node id="-332" lat="48.7674528" lon="11.4670925" visible="true" />
  <node id="-333" lat="48.7675012" lon="11.4670480" visible="true" />
  <node id="-334" lat="48.7676440" lon="11.4672242" visible="true" />
  <node id="-335" lat="48.7675572" lon="11.4672930" visible="true" />
  <node id="-336" lat="48.7675159" lon="11.4671730" visible="true" />
  <node id="-337" lat="48.7676027" lon="11.4671042" visible="true" />
  <node id="-338" lat="48.7676998" lon="11.4672973" visible="true" />
  <node id="-339" lat="48.7676199" lon="11.4673575" visible="true" />
  <node id="-340" lat="48.7676569" lon="11.4674703" visible="true" />
  <node id="-341" lat="48.7677368" lon="11.4674101" visible="true" />
  <node id="-342" lat="48.7678031" lon="11.4675202" visible="true" />
  <node id="-343" lat="48.7677133" lon="11.4675677" visible="true" />
  <node id="-344" lat="48.7677494" lon="11.4677248" visible="true" />
  <node id="-345" lat="48.7678392" lon="11.4676773" visible="true" />
  <node id="-346" lat="48.7680757" lon="11.4672048" visible="true" />
  <node id="-347" lat="48.7679283" lon="11.4672817" visible="true" />
  <node id="-348" lat="48.7679589" lon="11.4674170" visible="true" />
  <node id="-349" lat="48.7681063" lon="11.4673401" visible="true" />
  <node id="-350" lat="48.7678368" lon="11.4677863" visible="true" />
  <node id="-351" lat="48.7677479" lon="11.4678094" visible="true" />
  <node id="-352" lat="48.7677620" lon="11.4679352" visible="true" />
  <node id="-353" lat="48.7678510" lon="11.4679121" visible="true" />
  <node id="-354" lat="48.7678631" lon="11.4680161" visible="true" />
  <node id="-355" lat="48.7677456" lon="11.4680601" visible="true" />
  <node id="-356" lat="48.7677773" lon="11.4682555" visible="true" />
  <node id="-357" lat="48.7678948" lon="11.4682115" visible="true" />
  <node id="-358" lat="48.7682219" lon="11.4678728" visible="true" />
  <node id="-359" lat="48.7680785" lon="11.4679377" visible="true" />
  <node id="-360" lat="48.7680516" lon="11.4678009" visible="true" />
  <node id="-361" lat="48.7681950" lon="11.4677360" visible="true" />
  <node id="-362" lat="48.7682374" lon="11.4683762" visible="true" />
  <node id="-363" lat="48.7681047" lon="11.4683806" visible="true" />
  <node id="-364" lat="48.7681069" lon="11.4685340" visible="true" />
  <node id="-365" lat="48.7682396" lon="11.4685296" visible="true" />
  <node id="-366" lat="48.7679386" lon="11.4683731" visible="true" />
  <node id="-367" lat="48.7678139" lon="11.4683722" visible="true" />
  <node id="-368" lat="48.7678134" lon="11.4685116" visible="true" />
  <node id="-369" lat="48.7679381" lon="11.4685126" visible="true" />
  <node id="-370" lat="48.7679653" lon="11.4686471" visible="true" />
  <node id="-371" lat="48.7678110" lon="11.4686512" visible="true" />
  <node id="-372" lat="48.7678125" lon="11.4687874" visible="true" />
  <node id="-373" lat="48.7679669" lon="11.4687833" visible="true" />
  <node id="-374" lat="48.7679720" lon="11.4688659" visible="true" />
  <node id="-375" lat="48.7678217" lon="11.4688432" visible="true" />
  <node id="-376" lat="48.7678133" lon="11.4689730" visible="true" />
  <node id="-377" lat="48.7679636" lon="11.4689957" visible="true" />
  <node id="-378" lat="48.7675028" lon="11.4659437" visible="true" />
  <node id="-379" lat="48.7674690" lon="11.4659764" visible="true" />
  <node id="-380" lat="48.7674916" lon="11.4660301" visible="true" />
  <node id="-381" lat="48.7675254" lon="11.4659974" visible="true" />
  <node id="-382" lat="48.7677444" lon="11.4660436" visible="true" />
  <node id="-383" lat="48.7676854" lon="11.4660864" visible="true" />
  <node id="-384" lat="48.7676541" lon="11.4659870" visible="true" />
  <node id="-385" lat="48.7677131" lon="11.4659442" visible="true" />
  <node id="-386" lat="48.7677205" lon="11.4657271" visible="true" />
  <node id="-387" lat="48.7676840" lon="11.4657513" visible="true" />
  <node id="-388" lat="48.7677075" lon="11.4658327" visible="true" />
  <node id="-389" lat="48.7677439" lon="11.4658085" visible="true" />
  <node id="-390" lat="48.7679260" lon="11.4659046" visible="true" />
  <node id="-391" lat="48.7679540" lon="11.4660112" visible="true" />
  <node id="-392" lat="48.7678789" lon="11.4660566" visible="true" />
  <node id="-393" lat="48.7678509" lon="11.4659500" visible="true" />
  <node id="-394" lat="48.7678960" lon="11.4658341" visible="true" />
  <node id="-395" lat="48.7679162" lon="11.4659087" visible="true" />
  <node id="-396" lat="48.7678549" lon="11.4659468" visible="true" />
  <node id="-397" lat="48.7678348" lon="11.4658722" visible="true" />
  <node id="-398" lat="48.7679639" lon="11.4660058" visible="true" />
  <node id="-399" lat="48.7680177" lon="11.4662112" visible="true" />
  <node id="-400" lat="48.7679304" lon="11.4662638" visible="true" />
  <node id="-401" lat="48.7678766" lon="11.4660584" visible="true" />
  <node id="-402" lat="48.7680378" lon="11.4663898" visible="true" />
  <node id="-403" lat="48.7679604" lon="11.4664379" visible="true" />
  <node id="-404" lat="48.7679955" lon="11.4665679" visible="true" />
  <node id="-405" lat="48.7680729" lon="11.4665198" visible="true" />
  <node id="-406" lat="48.7681327" lon="11.4666821" visible="true" />
  <node id="-407" lat="48.7680252" lon="11.4667523" visible="true" />
  <node id="-408" lat="48.7680543" lon="11.4668552" visible="true" />
  <node id="-409" lat="48.7681619" lon="11.4667850" visible="true" />
  <node id="-410" lat="48.7681945" lon="11.4668675" visible="true" />
  <node id="-411" lat="48.7681098" lon="11.4669171" visible="true" />
  <node id="-412" lat="48.7680933" lon="11.4668523" visible="true" />
  <node id="-413" lat="48.7681780" lon="11.4668027" visible="true" />
  <node id="-414" lat="48.7682650" lon="11.4669424" visible="true" />
  <node id="-415" lat="48.7681573" lon="11.4670272" visible="true" />
  <node id="-416" lat="48.7682292" lon="11.4672377" visible="true" />
  <node id="-417" lat="48.7683370" lon="11.4671529" visible="true" />
  <node id="-418" lat="48.7683663" lon="11.4674204" visible="true" />
  <node id="-419" lat="48.7683425" lon="11.4673192" visible="true" />
  <node id="-420" lat="48.7682389" lon="11.4673753" visible="true" />
  <node id="-421" lat="48.7682627" lon="11.4674765" visible="true" />
  <node id="-422" lat="48.7684029" lon="11.4675109" visible="true" />
  <node id="-423" lat="48.7682980" lon="11.4675482" visible="true" />
  <node id="-424" lat="48.7683132" lon="11.4676462" visible="true" />
  <node id="-425" lat="48.7684180" lon="11.4676089" visible="true" />
  <node id="-426" lat="48.7684347" lon="11.4672006" visible="true" />
  <node id="-427" lat="48.7683589" lon="11.4672496" visible="true" />
  <node id="-428" lat="48.7683980" lon="11.4673887" visible="true" />
  <node id="-429" lat="48.7684737" lon="11.4673397" visible="true" />
  <node id="-430" lat="48.7682621" lon="11.4669108" visible="true" />
  <node id="-431" lat="48.7681193" lon="11.4669945" visible="true" />
  <node id="-432" lat="48.7681059" lon="11.4669419" visible="true" />
  <node id="-433" lat="48.7682487" lon="11.4668582" visible="true" />
  <node id="-434" lat="48.7683449" lon="11.4672137" visible="true" />
  <node id="-435" lat="48.7683537" lon="11.4672489" visible="true" />
  <node id="-436" lat="48.7682856" lon="11.4672881" visible="true" />
  <node id="-437" lat="48.7682768" lon="11.4672529" visible="true" />
  <node id="-438" lat="48.7678923" lon="11.4667129" visible="true" />
  <node id="-439" lat="48.7677406" lon="11.4668240" visible="true" />
  <node id="-440" lat="48.7677825" lon="11.4669554" visible="true" />
  <node id="-441" lat="48.7679341" lon="11.4668443" visible="true" />
  <node id="-442" lat="48.7678199" lon="11.4670165" visible="true" />
  <node id="-443" lat="48.7677844" lon="11.4670353" visible="true" />
  <node id="-444" lat="48.7677741" lon="11.4669906" visible="true" />
  <node id="-445" lat="48.7678096" lon="11.4669718" visible="true" />
  <node id="-446" lat="48.7678757" lon="11.4671498" visible="true" />
  <node id="-447" lat="48.7678408" lon="11.4671701" visible="true" />
  <node id="-448" lat="48.7678295" lon="11.4671255" visible="true" />
  <node id="-449" lat="48.7678645" lon="11.4671052" visible="true" />
  <node id="-450" lat="48.7679196" lon="11.4672500" visible="true" />
  <node id="-451" lat="48.7678657" lon="11.4672794" visible="true" />
  <node id="-452" lat="48.7678520" lon="11.4672215" visible="true" />
  <node id="-453" lat="48.7679058" lon="11.4671921" visible="true" />
  <node id="-454" lat="48.7680717" lon="11.4679253" visible="true" />
  <node id="-455" lat="48.7680354" lon="11.4679422" visible="true" />
  <node id="-456" lat="48.7680263" lon="11.4678974" visible="true" />
  <node id="-457" lat="48.7680626" lon="11.4678805" visible="true" />
  <node id="-458" lat="48.7680356" lon="11.4677835" visible="true" />
  <node id="-459" lat="48.7680006" lon="11.4678038" visible="true" />
  <node id="-460" lat="48.7679894" lon="11.4677592" visible="true" />
  <node id="-461" lat="48.7680243" lon="11.4677389" visible="true" />
  <node id="-462" lat="48.7685634" lon="11.4677502" visible="true" />
  <node id="-463" lat="48.7683770" lon="11.4677698" visible="true" />
  <node id="-464" lat="48.7683824" lon="11.4678890" visible="true" />
  <node id="-465" lat="48.7685688" lon="11.4678694" visible="true" />
  <node id="-466" lat="48.7684308" lon="11.4679394" visible="true" />
  <node id="-467" lat="48.7682935" lon="11.4679495" visible="true" />
  <node id="-468" lat="48.7683000" lon="11.4680210" visible="true" />
  <node id="-469" lat="48.7683608" lon="11.4680276" visible="true" />
  <node id="-470" lat="48.7683662" lon="11.4681213" visible="true" />
  <node id="-471" lat="48.7684364" lon="11.4681161" visible="true" />
  <node id="-472" lat="48.7683512" lon="11.4677642" visible="true" />
  <node id="-473" lat="48.7682728" lon="11.4677729" visible="true" />
  <node id="-474" lat="48.7682779" lon="11.4678796" visible="true" />
  <node id="-475" lat="48.7683563" lon="11.4678709" visible="true" />
  <node id="-476" lat="48.7682781" lon="11.4689536" visible="true" />
  <node id="-477" lat="48.7682855" lon="11.4688141" visible="true" />
  <node id="-478" lat="48.7681672" lon="11.4687996" visible="true" />
  <node id="-479" lat="48.7681598" lon="11.4689392" visible="true" />
  <node id="-480" lat="48.7681932" lon="11.4689433" visible="true" />
  <node id="-481" lat="48.7682567" lon="11.4689510" visible="true" />
  <node id="-482" lat="48.7685766" lon="11.4657538" visible="true" />
  <node id="-483" lat="48.7684826" lon="11.4657611" visible="true" />
  <node id="-484" lat="48.7684771" lon="11.4655957" visible="true" />
  <node id="-485" lat="48.7685710" lon="11.4655884" visible="true" />
  <node id="-486" lat="48.7683853" lon="11.4656413" visible="true" />
  <node id="-487" lat="48.7683021" lon="11.4656443" visible="true" />
  <node id="-488" lat="48.7683038" lon="11.4657575" visible="true" />
  <node id="-489" lat="48.7683870" lon="11.4657545" visible="true" />
  <node id="-490" lat="48.7681796" lon="11.4657178" visible="true" />
  <node id="-491" lat="48.7680700" lon="11.4657307" visible="true" />
  <node id="-492" lat="48.7680810" lon="11.4659439" visible="true" />
  <node id="-493" lat="48.7681906" lon="11.4659310" visible="true" />
  <node id="-494" lat="48.7684155" lon="11.4658038" visible="true" />
  <node id="-495" lat="48.7683707" lon="11.4658049" visible="true" />
  <node id="-496" lat="48.7683713" lon="11.4658623" visible="true" />
  <node id="-497" lat="48.7684161" lon="11.4658613" visible="true" />
  <node id="-498" lat="48.7681765" lon="11.4659703" visible="true" />
  <node id="-499" lat="48.7680955" lon="11.4659782" visible="true" />
  <node id="-500" lat="48.7680979" lon="11.4660343" visible="true" />
  <node id="-501" lat="48.7681789" lon="11.4660264" visible="true" />
  <node id="-502" lat="48.7686109" lon="11.4660541" visible="true" />
  <node id="-503" lat="48.7685629" lon="11.4660548" visible="true" />
  <node id="-504" lat="48.7685621" lon="11.4659514" visible="true" />
  <node id="-505" lat="48.7683945" lon="11.4659542" visible="true" />
  <node id="-506" lat="48.7683957" lon="11.4661205" visible="true" />
  <node id="-507" lat="48.7685335" lon="11.4661182" visible="true" />
  <node id="-508" lat="48.7685337" lon="11.4661539" visible="true" />
  <node id="-509" lat="48.7686116" lon="11.4661527" visible="true" />
  <node id="-510" lat="48.7683452" lon="11.4663294" visible="true" />
  <node id="-511" lat="48.7682511" lon="11.4663239" visible="true" />
  <node id="-512" lat="48.7682513" lon="11.4662374" visible="true" />
  <node id="-513" lat="48.7683454" lon="11.4662429" visible="true" />
  <node id="-514" lat="48.7684361" lon="11.4664889" visible="true" />
  <node id="-515" lat="48.7683273" lon="11.4664954" visible="true" />
  <node id="-516" lat="48.7683271" lon="11.4665857" visible="true" />
  <node id="-517" lat="48.7684359" lon="11.4665792" visible="true" />
  <node id="-518" lat="48.7685864" lon="11.4666612" visible="true" />
  <node id="-519" lat="48.7683997" lon="11.4666601" visible="true" />
  <node id="-520" lat="48.7683994" lon="11.4667816" visible="true" />
  <node id="-521" lat="48.7685861" lon="11.4667828" visible="true" />
  <node id="-522" lat="48.7684219" lon="11.4662433" visible="true" />
  <node id="-523" lat="48.7683457" lon="11.4662429" visible="true" />
  <node id="-524" lat="48.7683455" lon="11.4662935" visible="true" />
  <node id="-525" lat="48.7684217" lon="11.4662939" visible="true" />
  <node id="-526" lat="48.7685126" lon="11.4664889" visible="true" />
  <node id="-527" lat="48.7684364" lon="11.4664890" visible="true" />
  <node id="-528" lat="48.7684364" lon="11.4665396" visible="true" />
  <node id="-529" lat="48.7685127" lon="11.4665395" visible="true" />
  <node id="-530" lat="48.7685053" lon="11.4663314" visible="true" />
  <node id="-531" lat="48.7684286" lon="11.4663301" visible="true" />
  <node id="-532" lat="48.7684280" lon="11.4663994" visible="true" />
  <node id="-533" lat="48.7685047" lon="11.4664006" visible="true" />
  <node id="-534" lat="48.7685762" lon="11.4671427" visible="true" />
  <node id="-535" lat="48.7685000" lon="11.4671459" visible="true" />
  <node id="-536" lat="48.7685009" lon="11.4671965" visible="true" />
  <node id="-537" lat="48.7685771" lon="11.4671933" visible="true" />
  <node id="-538" lat="48.7685701" lon="11.4665670" visible="true" />
  <node id="-539" lat="48.7684934" lon="11.4665677" visible="true" />
  <node id="-540" lat="48.7684936" lon="11.4666369" visible="true" />
  <node id="-541" lat="48.7685703" lon="11.4666362" visible="true" />
  <node id="-542" lat="48.7682473" lon="11.4693792" visible="true" />
  <node id="-543" lat="48.7682461" lon="11.4692734" visible="true" />
  <node id="-544" lat="48.7681697" lon="11.4692752" visible="true" />
  <node id="-545" lat="48.7681691" lon="11.4692158" visible="true" />
  <node id="-546" lat="48.7680568" lon="11.4692185" visible="true" />
  <node id="-547" lat="48.7680586" lon="11.4693838" visible="true" />
  <node id="-548" lat="48.7682333" lon="11.4701831" visible="true" />
  <node id="-549" lat="48.7680845" lon="11.4700945" visible="true" />
  <node id="-550" lat="48.7680088" lon="11.4703870" visible="true" />
  <node id="-551" lat="48.7681576" lon="11.4704756" visible="true" />
  <node id="-552" lat="48.7681350" lon="11.4704653" visible="true" />
  <node id="-553" lat="48.7680325" lon="11.4704042" visible="true" />
  <node id="-554" lat="48.7679947" lon="11.4705504" visible="true" />
  <node id="-555" lat="48.7680971" lon="11.4706115" visible="true" />
  <node id="-556" lat="48.7678616" lon="11.4705114" visible="true" />
  <node id="-557" lat="48.7677417" lon="11.4704995" visible="true" />
  <node id="-558" lat="48.7677457" lon="11.4704124" visible="true" />
  <node id="-559" lat="48.7677503" lon="11.4703007" visible="true" />
  <node id="-560" lat="48.7678701" lon="11.4703125" visible="true" />
  <node id="-561" lat="48.7681513" lon="11.4699327" visible="true" />
  <node id="-562" lat="48.7680581" lon="11.4699225" visible="true" />
  <node id="-563" lat="48.7680643" lon="11.4697920" visible="true" />
  <node id="-564" lat="48.7681575" lon="11.4698022" visible="true" />
  <node id="-565" lat="48.7679685" lon="11.4692714" visible="true" />
  <node id="-566" lat="48.7678419" lon="11.4692691" visible="true" />
  <node id="-567" lat="48.7678429" lon="11.4691435" visible="true" />
  <node id="-568" lat="48.7679695" lon="11.4691458" visible="true" />
  <node id="-569" lat="48.7679204" lon="11.4694326" visible="true" />
  <node id="-570" lat="48.7677987" lon="11.4694300" visible="true" />
  <node id="-571" lat="48.7677969" lon="11.4696196" visible="true" />
  <node id="-572" lat="48.7679186" lon="11.4696221" visible="true" />
  <node id="-573" lat="48.7679598" lon="11.4699323" visible="true" />
  <node id="-574" lat="48.7679174" lon="11.4699334" visible="true" />
  <node id="-575" lat="48.7679167" lon="11.4698710" visible="true" />
  <node id="-576" lat="48.7679591" lon="11.4698700" visible="true" />
  <node id="-577" lat="48.7680778" lon="11.4700280" visible="true" />
  <node id="-578" lat="48.7677988" lon="11.4699619" visible="true" />
  <node id="-579" lat="48.7677848" lon="11.4700979" visible="true" />
  <node id="-580" lat="48.7680638" lon="11.4701640" visible="true" />
  <node id="-581" lat="48.7676467" lon="11.4698034" visible="true" />
  <node id="-582" lat="48.7675023" lon="11.4698035" visible="true" />
  <node id="-583" lat="48.7675015" lon="11.4699496" visible="true" />
  <node id="-584" lat="48.7676459" lon="11.4699495" visible="true" />
  <node id="-585" lat="48.7676297" lon="11.4703341" visible="true" />
  <node id="-586" lat="48.7675099" lon="11.4703340" visible="true" />
  <node id="-587" lat="48.7675098" lon="11.4704172" visible="true" />
  <node id="-588" lat="48.7674860" lon="11.4704172" visible="true" />
  <node id="-589" lat="48.7674859" lon="11.4705071" visible="true" />
  <node id="-590" lat="48.7675299" lon="11.4705071" visible="true" />
  <node id="-591" lat="48.7675299" lon="11.4705779" visible="true" />
  <node id="-592" lat="48.7676297" lon="11.4705780" visible="true" />
  <node id="-593" lat="48.7682276" lon="11.4697279" visible="true" />
  <node id="-594" lat="48.7681616" lon="11.4697211" visible="true" />
  <node id="-595" lat="48.7681585" lon="11.4697891" visible="true" />
  <node id="-596" lat="48.7682245" lon="11.4697959" visible="true" />
  <node id="-597" lat="48.7683648" lon="11.4692046" visible="true" />
  <node id="-598" lat="48.7682878" lon="11.4691880" visible="true" />
  <node id="-599" lat="48.7682804" lon="11.4692667" visible="true" />
  <node id="-600" lat="48.7683574" lon="11.4692834" visible="true" />
  <node id="-601" lat="48.7678531" lon="11.4692797" visible="true" />
  <node id="-602" lat="48.7677940" lon="11.4692803" visible="true" />
  <node id="-603" lat="48.7677942" lon="11.4693326" visible="true" />
  <node id="-604" lat="48.7678533" lon="11.4693320" visible="true" />
  <node id="-605" lat="48.7679071" lon="11.4697014" visible="true" />
  <node id="-606" lat="48.7677855" lon="11.4696940" visible="true" />
  <node id="-607" lat="48.7677804" lon="11.4698836" visible="true" />
  <node id="-608" lat="48.7679020" lon="11.4698910" visible="true" />
  <node id="-609" lat="48.7678981" lon="11.4696989" visible="true" />
  <node id="-610" lat="48.7678540" lon="11.4696970" visible="true" />
  <node id="-611" lat="48.7678551" lon="11.4696374" visible="true" />
  <node id="-612" lat="48.7678992" lon="11.4696392" visible="true" />
  <node id="-613" lat="48.7679074" lon="11.4694299" visible="true" />
  <node id="-614" lat="48.7678632" lon="11.4694280" visible="true" />
  <node id="-615" lat="48.7678644" lon="11.4693682" visible="true" />
  <node id="-616" lat="48.7679086" lon="11.4693701" visible="true" />
  <node id="-617" lat="48.7676427" lon="11.4700606" visible="true" />
  <node id="-618" lat="48.7674983" lon="11.4700607" visible="true" />
  <node id="-619" lat="48.7674975" lon="11.4702067" visible="true" />
  <node id="-620" lat="48.7676419" lon="11.4702066" visible="true" />
  <node id="-621" lat="48.7677986" lon="11.4706085" visible="true" />
  <node id="-622" lat="48.7677973" lon="11.4706508" visible="true" />
  <node id="-623" lat="48.7677350" lon="11.4706465" visible="true" />
  <node id="-624" lat="48.7677363" lon="11.4706042" visible="true" />
  <node id="-625" lat="48.7676137" lon="11.4702144" visible="true" />
  <node id="-626" lat="48.7676140" lon="11.4702567" visible="true" />
  <node id="-627" lat="48.7675517" lon="11.4702580" visible="true" />
  <node id="-628" lat="48.7675513" lon="11.4702157" visible="true" />
  <node id="-629" lat="48.7672157" lon="11.4705571" visible="true" />
  <node id="-630" lat="48.7673642" lon="11.4705214" visible="true" />
  <node id="-631" lat="48.7673400" lon="11.4702905" visible="true" />
  <node id="-632" lat="48.7672499" lon="11.4703122" visible="true" />
  <node id="-633" lat="48.7672582" lon="11.4703921" visible="true" />
  <node id="-634" lat="48.7671999" lon="11.4704061" visible="true" />
  <node id="-635" lat="48.7677622" lon="11.4702120" visible="true" />
  <node id="-636" lat="48.7678437" lon="11.4702329" visible="true" />
  <node id="-637" lat="48.7678561" lon="11.4701217" visible="true" />
  <node id="-638" lat="48.7677746" lon="11.4701008" visible="true" />
  <node id="-639" lat="48.7672704" lon="11.4719440" visible="true" />
  <node id="-640" lat="48.7671007" lon="11.4718590" visible="true" />
  <node id="-641" lat="48.7670373" lon="11.4721505" visible="true" />
  <node id="-642" lat="48.7672070" lon="11.4722355" visible="true" />
  <node id="-643" lat="48.7674507" lon="11.4721081" visible="true" />
  <node id="-644" lat="48.7673166" lon="11.4720393" visible="true" />
  <node id="-645" lat="48.7672771" lon="11.4722168" visible="true" />
  <node id="-646" lat="48.7674112" lon="11.4722855" visible="true" />
  <node id="-647" lat="48.7676299" lon="11.4723256" visible="true" />
  <node id="-648" lat="48.7676093" lon="11.4723166" visible="true" />
  <node id="-649" lat="48.7676375" lon="11.4721683" visible="true" />
  <node id="-650" lat="48.7675148" lon="11.4721144" visible="true" />
  <node id="-651" lat="48.7674786" lon="11.4723044" visible="true" />
  <node id="-652" lat="48.7675414" lon="11.4723319" visible="true" />
  <node id="-653" lat="48.7675314" lon="11.4723847" visible="true" />
  <node id="-654" lat="48.7676119" lon="11.4724200" visible="true" />
  <node id="-655" lat="48.7678282" lon="11.4721723" visible="true" />
  <node id="-656" lat="48.7677011" lon="11.4721290" visible="true" />
  <node id="-657" lat="48.7676775" lon="11.4722884" visible="true" />
  <node id="-658" lat="48.7678046" lon="11.4723317" visible="true" />
  <node id="-659" lat="48.7679582" lon="11.4716674" visible="true" />
  <node id="-660" lat="48.7678527" lon="11.4716570" visible="true" />
  <node id="-661" lat="48.7678442" lon="11.4718556" visible="true" />
  <node id="-662" lat="48.7679497" lon="11.4718660" visible="true" />
  <node id="-663" lat="48.7674865" lon="11.4716778" visible="true" />
  <node id="-664" lat="48.7674287" lon="11.4716652" visible="true" />
  <node id="-665" lat="48.7674341" lon="11.4716097" visible="true" />
  <node id="-666" lat="48.7673468" lon="11.4715905" visible="true" />
  <node id="-667" lat="48.7673404" lon="11.4716567" visible="true" />
  <node id="-668" lat="48.7673628" lon="11.4716616" visible="true" />
  <node id="-669" lat="48.7673480" lon="11.4718153" visible="true" />
  <node id="-670" lat="48.7674707" lon="11.4718423" visible="true" />
  <node id="-671" lat="48.7673149" lon="11.4716441" visible="true" />
  <node id="-672" lat="48.7671841" lon="11.4715730" visible="true" />
  <node id="-673" lat="48.7671534" lon="11.4717029" visible="true" />
  <node id="-674" lat="48.7672842" lon="11.4717740" visible="true" />
  <node id="-675" lat="48.7675391" lon="11.4713596" visible="true" />
  <node id="-676" lat="48.7674055" lon="11.4713253" visible="true" />
  <node id="-677" lat="48.7673803" lon="11.4715508" visible="true" />
  <node id="-678" lat="48.7675139" lon="11.4715852" visible="true" />
  <node id="-679" lat="48.7675168" lon="11.4712772" visible="true" />
  <node id="-680" lat="48.7673988" lon="11.4712580" visible="true" />
  <node id="-681" lat="48.7674124" lon="11.4710655" visible="true" />
  <node id="-682" lat="48.7675304" lon="11.4710847" visible="true" />
  <node id="-683" lat="48.7676636" lon="11.4710730" visible="true" />
  <node id="-684" lat="48.7675568" lon="11.4710625" visible="true" />
  <node id="-685" lat="48.7675515" lon="11.4711859" visible="true" />
  <node id="-686" lat="48.7676583" lon="11.4711963" visible="true" />
  <node id="-687" lat="48.7675914" lon="11.4708427" visible="true" />
  <node id="-688" lat="48.7674681" lon="11.4708385" visible="true" />
  <node id="-689" lat="48.7674663" lon="11.4709610" visible="true" />
  <node id="-690" lat="48.7675896" lon="11.4709652" visible="true" />
  <node id="-691" lat="48.7678064" lon="11.4708370" visible="true" />
  <node id="-692" lat="48.7676624" lon="11.4708293" visible="true" />
  <node id="-693" lat="48.7676575" lon="11.4710430" visible="true" />
  <node id="-694" lat="48.7677274" lon="11.4710467" visible="true" />
  <node id="-695" lat="48.7677850" lon="11.4710497" visible="true" />
  <node id="-696" lat="48.7678015" lon="11.4710506" visible="true" />
  <node id="-697" lat="48.7675091" lon="11.4719876" visible="true" />
  <node id="-698" lat="48.7674576" lon="11.4719661" visible="true" />
  <node id="-699" lat="48.7674417" lon="11.4720537" visible="true" />
  <node id="-700" lat="48.7674931" lon="11.4720752" visible="true" />
  <node id="-701" lat="48.7677066" lon="11.4720253" visible="true" />
  <node id="-702" lat="48.7675343" lon="11.4719347" visible="true" />
  <node id="-703" lat="48.7675190" lon="11.4720013" visible="true" />
  <node id="-704" lat="48.7676913" lon="11.4720919" visible="true" />
  <node id="-705" lat="48.7678457" lon="11.4721025" visible="true" />
  <node id="-706" lat="48.7677336" lon="11.4720510" visible="true" />
  <node id="-707" lat="48.7677222" lon="11.4721082" visible="true" />
  <node id="-708" lat="48.7678343" lon="11.4721597" visible="true" />
  <node id="-709" lat="48.7673784" lon="11.4710104" visible="true" />
  <node id="-710" lat="48.7673276" lon="11.4710017" visible="true" />
  <node id="-711" lat="48.7673235" lon="11.4710570" visible="true" />
  <node id="-712" lat="48.7673743" lon="11.4710657" visible="true" />
  <node id="-713" lat="48.7677834" lon="11.4711194" visible="true" />
  <node id="-714" lat="48.7677258" lon="11.4711163" visible="true" />
  <node id="-715" lat="48.7674772" lon="11.4715989" visible="true" />
  <node id="-716" lat="48.7674777" lon="11.4716618" visible="true" />
  <node id="-717" lat="48.7675368" lon="11.4716608" visible="true" />
  <node id="-718" lat="48.7675363" lon="11.4715979" visible="true" />
  <node id="-719" lat="48.7678962" lon="11.4713386" visible="true" />
  <node id="-720" lat="48.7678379" lon="11.4713357" visible="true" />
  <node id="-721" lat="48.7678389" lon="11.4712874" visible="true" />
  <node id="-722" lat="48.7678972" lon="11.4712902" visible="true" />
  <node id="-723" lat="48.7672054" lon="11.4655756" visible="true" />
  <node id="-724" lat="48.7671734" lon="11.4655037" visible="true" />
  <node id="-725" lat="48.7673063" lon="11.4654724" visible="true" />
  <node id="-726" lat="48.7669563" lon="11.4646381" visible="true" />
  <node id="-727" lat="48.7668597" lon="11.4647573" visible="true" />
  <node id="-728" lat="48.7669250" lon="11.4645799" visible="true" />
  <node id="-729" lat="48.7684285" lon="11.4653906" visible="true" />
  <node id="-730" lat="48.7683865" lon="11.4653911" visible="true" />
  <node id="-731" lat="48.7684276" lon="11.4652106" visible="true" />
  <node id="-732" lat="48.7677214" lon="11.4648451" visible="true" />
  <node id="-733" lat="48.7676606" lon="11.4648854" visible="true" />
  <node id="-734" lat="48.7677627" lon="11.4649886" visible="true" />
  <node id="-735" lat="48.7679975" lon="11.4709079" visible="true" />
  <node id="-736" lat="48.7679789" lon="11.4711450" visible="true" />
  <node id="-737" lat="48.7678611" lon="11.4711237" visible="true" />
  <node id="-738" lat="48.7678797" lon="11.4708866" visible="true" />
  <node id="-739" lat="48.7680399" lon="11.4651344" visible="true" />
  <node id="-740" lat="48.7680044" lon="11.4651423" visible="true" />
  <node id="-741" lat="48.7679915" lon="11.4650074" visible="true" />
  <node id="-742" lat="48.7680303" lon="11.4649988" visible="true" />
  <node id="-743" lat="48.7680239" lon="11.4649076" visible="true" />
  <node id="-744" lat="48.7681193" lon="11.4648921" visible="true" />
  <node id="-745" lat="48.7681360" lon="11.4651282" visible="true" />
  <node id="-746" lat="48.7680405" lon="11.4651437" visible="true" />
  <node id="-747" lat="48.7685924" lon="11.4657907" visible="true" />
  <node id="-748" lat="48.7686609" lon="11.4657897" visible="true" />
  <node id="-749" lat="48.7686617" lon="11.4659256" visible="true" />
  <node id="-750" lat="48.7685932" lon="11.4659265" visible="true" />
  <node id="-751" lat="48.7684746" lon="11.4668602" visible="true" />
  <node id="-752" lat="48.7685863" lon="11.4668559" visible="true" />
  <node id="-753" lat="48.7685875" lon="11.4669337" visible="true" />
  <node id="-754" lat="48.7684759" lon="11.4669379" visible="true" />
  <node id="-755" lat="48.7684933" lon="11.4674397" visible="true" />
  <node id="-756" lat="48.7685033" lon="11.4675017" visible="true" />
  <node id="-757" lat="48.7684509" lon="11.4675213" visible="true" />
  <node id="-758" lat="48.7684408" lon="11.4674593" visible="true" />
  <node id="-759" lat="48.7687657" lon="11.4634106" visible="true" />
  <node id="-760" lat="48.7687683" lon="11.4635573" visible="true" />
  <node id="-761" lat="48.7686034" lon="11.4635638" visible="true" />
  <node id="-762" lat="48.7686009" lon="11.4634171" visible="true" />
  <node id="-763" lat="48.7668808" lon="11.4644274" visible="true" />
  <node id="-764" lat="48.7667799" lon="11.4645272" visible="true" />
  <node id="-765" lat="48.7667191" lon="11.4643856" visible="true" />
  <node id="-766" lat="48.7668200" lon="11.4642859" visible="true" />
  <node id="-767" lat="48.7675737" lon="11.4643276" visible="true" />
  <node id="-768" lat="48.7676019" lon="11.4643897" visible="true" />
  <node id="-769" lat="48.7674841" lon="11.4645126" visible="true" />
  <node id="-770" lat="48.7674560" lon="11.4644506" visible="true" />
  <node id="-771" lat="48.7682825" lon="11.4659478" visible="true" />
  <node id="-772" lat="48.7682810" lon="11.4660661" visible="true" />
  <node id="-773" lat="48.7681847" lon="11.4660633" visible="true" />
  <node id="-774" lat="48.7681863" lon="11.4659449" visible="true" />
  <node id="-775" lat="48.7680011" lon="11.4642942" visible="true" />
  <node id="-776" lat="48.7680055" lon="11.4644485" visible="true" />
  <node id="-777" lat="48.7678826" lon="11.4644564" visible="true" />
  <node id="-778" lat="48.7678782" lon="11.4643021" visible="true" />
  <node id="-779" lat="48.7672617" lon="11.4642557" visible="true" />
  <node id="-780" lat="48.7672954" lon="11.4643346" visible="true" />
  <node id="-781" lat="48.7672402" lon="11.4643888" visible="true" />
  <node id="-782" lat="48.7672065" lon="11.4643099" visible="true" />
  <node id="-783" lat="48.7675370" lon="11.4642371" visible="true" />
  <node id="-784" lat="48.7674300" lon="11.4643555" visible="true" />
  <node id="-785" lat="48.7673974" lon="11.4642878" visible="true" />
  <node id="-786" lat="48.7675045" lon="11.4641694" visible="true" />
  <node id="-787" lat="48.7680682" lon="11.4642187" visible="true" />
  <node id="-788" lat="48.7680747" lon="11.4643861" visible="true" />
  <node id="-789" lat="48.7680104" lon="11.4643918" visible="true" />
  <node id="-790" lat="48.7680039" lon="11.4642245" visible="true" />
  <node id="-791" lat="48.7681867" lon="11.4694877" visible="true" />
  <node id="-792" lat="48.7681977" lon="11.4693986" visible="true" />
  <node id="-793" lat="48.7682614" lon="11.4694168" visible="true" />
  <node id="-794" lat="48.7682485" lon="11.4695218" visible="true" />
  <node id="-795" lat="48.7682112" lon="11.4695112" visible="true" />
  <node id="-796" lat="48.7682009" lon="11.4696301" visible="true" />
  <node id="-797" lat="48.7680862" lon="11.4696071" visible="true" />
  <node id="-798" lat="48.7680982" lon="11.4694699" visible="true" />
  <node id="-799" lat="48.7671452" lon="11.4656472" visible="true" />
  <node id="-800" lat="48.7672317" lon="11.4658319" visible="true" />
  <node id="-801" lat="48.7671370" lon="11.4659335" visible="true" />
  <node id="-802" lat="48.7670504" lon="11.4657488" visible="true" />
  <node id="-803" lat="48.7673737" lon="11.4700793" visible="true" />
  <node id="-804" lat="48.7674753" lon="11.4700793" visible="true" />
  <node id="-805" lat="48.7674753" lon="11.4702375" visible="true" />
  <node id="-806" lat="48.7673737" lon="11.4702375" visible="true" />
  <node id="-807" lat="48.7681891" lon="11.4690191" visible="true" />
  <node id="-808" lat="48.7682527" lon="11.4690269" visible="true" />
  <node id="-809" lat="48.7682929" lon="11.4686745" visible="true" />
  <node id="-810" lat="48.7681746" lon="11.4686601" visible="true" />
  <node id="-811" lat="48.7690687" lon="11.4616948" visible="true" />
  <node id="-812" lat="48.7690714" lon="11.4618146" visible="true" />
  <node id="-813" lat="48.7690114" lon="11.4618176" visible="true" />
  <node id="-814" lat="48.7690087" lon="11.4616978" visible="true" />
  <node id="-815" lat="48.7681427" lon="11.4673936" visible="true" />
  <node id="-816" lat="48.7681839" lon="11.4675519" visible="true" />
  <node id="-817" lat="48.7680441" lon="11.4676357" visible="true" />
  <node id="-818" lat="48.7680029" lon="11.4674774" visible="true" />
  <node id="-819" lat="48.7673626" lon="11.4713092" visible="true" />
  <node id="-820" lat="48.7673343" lon="11.4715045" visible="true" />
  <node id="-821" lat="48.7672581" lon="11.4714790" visible="true" />
  <node id="-822" lat="48.7672864" lon="11.4712837" visible="true" />
  <way id="-1000000000" visible="true">
    <nd ref="-1" />
    <nd ref="-2" />
    <nd ref="-3" />
    <nd ref="-4" />
    <nd ref="-1" />
    <tag k="addr:city" v="Ingolstadt" />
    <tag k="addr:postcode" v="85055" />
    <tag k="addr:street" v="Am Roding" />
    <tag k="building" v="civic" />
    <tag k="club" v="yes" />
    <tag k="name" v="Verein für Schäferhunde Ortsgruppe Ingolstadt-Mailing e.V." />
    <tag k="note" v="OG-Nummer: 1778/ LG 15" />
  </way>
  <way id="-1000000001" visible="true">
    <nd ref="-5" />
    <nd ref="-6" />
    <nd ref="-7" />
    <nd ref="-8" />
    <nd ref="-5" />
    <tag k="building" v="yes" />
  </way>
  <way id="-1000000002" visible="true">
    <nd ref="-9" />
    <nd ref="-10" />
    <nd ref="-11" />
    <nd ref="-12" />
    <nd ref="-9" />
    <tag k="building" v="yes" />
  </way>
  <way id="-1000000003" visible="true">
    <nd ref="-13" />
    <nd ref="-14" />
    <nd ref="-15" />
    <nd ref="-16" />
    <nd ref="-17" />
    <nd ref="-18" />
    <nd ref="-19" />
    <nd ref="-20" />
    <nd ref="-21" />
    <nd ref="-22" />
    <nd ref="-13" />
    <tag k="addr:city" v="Ingolstadt" />
    <tag k="addr:country" v="DE" />
    <tag k="addr:housenumber" v="142" />
    <tag k="addr:postcode" v="85055" />
    <tag k="addr:street" v="Regensburger Straße" />
    <tag k="brand" v="Penny" />
    <tag k="brand:wikidata" v="Q284688" />
    <tag k="building" v="retail" />
    <tag k="building:levels" v="1" />
    <tag k="name" v="Penny Ingolstadt Mailing" />
    <tag k="opening_hours" v="Mo-Sa 07:00-20:00; Su,PH closed" />
    <tag k="phone" v="+49 221 20199959" />
    <tag k="roof:levels" v="0" />
    <tag k="roof:shape" v="gabled" />
    <tag k="shop" v="supermarket" />
  </way>
  <way id="-1000000004" visible="true">
    <nd ref="-23" />
    <nd ref="-24" />
    <nd ref="-25" />
    <nd ref="-26" />
    <nd ref="-23" />
    <tag k="building" v="apartments" />
    <tag k="building:levels" v="3" />
    <tag k="roof:shape" v="gabled" />
  </way>
  <way id="-1000000005" visible="true">
    <nd ref="-27" />
    <nd ref="-28" />
    <nd ref="-29" />
    <nd ref="-30" />
    <nd ref="-31" />
    <nd ref="-32" />
    <nd ref="-33" />
    <nd ref="-34" />
    <nd ref="-27" />
    <tag k="building" v="yes" />
  </way>
  <way id="-1000000006" visible="true">
    <nd ref="-35" />
    <nd ref="-36" />
    <nd ref="-37" />
    <nd ref="-38" />
    <nd ref="-39" />
    <nd ref="-40" />
    <nd ref="-41" />
    <nd ref="-35" />
    <tag k="building" v="yes" />
  </way>
  <way id="-1000000007" visible="true">
    <nd ref="-42" />
    <nd ref="-43" />
    <nd ref="-44" />
    <nd ref="-45" />
    <nd ref="-42" />
    <tag k="building" v="yes" />
  </way>
  <way id="-1000000008" visible="true">
    <nd ref="-46" />
    <nd ref="-47" />
    <nd ref="-48" />
    <nd ref="-49" />
    <nd ref="-46" />
    <tag k="building" v="yes" />
  </way>
  <way id="-1000000009" visible="true">
    <nd ref="-50" />
    <nd ref="-51" />
    <nd ref="-52" />
    <nd ref="-53" />
    <nd ref="-50" />
    <tag k="building" v="yes" />
  </way>
  <way id="-1000000010" visible="true">
    <nd ref="-54" />
    <nd ref="-55" />
    <nd ref="-56" />
    <nd ref="-57" />
    <nd ref="-54" />
    <tag k="building" v="yes" />
  </way>
  <way id="-1000000011" visible="true">
    <nd ref="-58" />
    <nd ref="-59" />
    <nd ref="-60" />
    <nd ref="-61" />
    <nd ref="-58" />
    <tag k="building" v="yes" />
  </way>
  <way id="-1000000012" visible="true">
    <nd ref="-62" />
    <nd ref="-63" />
    <nd ref="-64" />
    <nd ref="-65" />
    <nd ref="-62" />
    <tag k="building" v="yes" />
  </way>
  <way id="-1000000013" visible="true">
    <nd ref="-66" />
    <nd ref="-67" />
    <nd ref="-68" />
    <nd ref="-69" />
    <nd ref="-66" />
    <tag k="building" v="yes" />
  </way>
  <way id="-1000000014" visible="true">
    <nd ref="-70" />
    <nd ref="-71" />
    <nd ref="-72" />
    <nd ref="-73" />
    <nd ref="-70" />
    <tag k="building" v="yes" />
  </way>
  <way id="-1000000015" visible="true">
    <nd ref="-74" />
    <nd ref="-75" />
    <nd ref="-76" />
    <nd ref="-77" />
    <nd ref="-74" />
    <tag k="building" v="yes" />
  </way>
  <way id="-1000000016" visible="true">
    <nd ref="-78" />
    <nd ref="-79" />
    <nd ref="-80" />
    <nd ref="-81" />
    <nd ref="-78" />
    <tag k="building" v="garage" />
  </way>
  <way id="-1000000017" visible="true">
    <nd ref="-82" />
    <nd ref="-83" />
    <nd ref="-84" />
    <nd ref="-85" />
    <nd ref="-82" />
    <tag k="building" v="garage" />
  </way>
  <way id="-1000000018" visible="true">
    <nd ref="-86" />
    <nd ref="-87" />
    <nd ref="-88" />
    <nd ref="-89" />
    <nd ref="-86" />
    <tag k="building" v="yes" />
  </way>
  <way id="-1000000019" visible="true">
    <nd ref="-90" />
    <nd ref="-91" />
    <nd ref="-92" />
    <nd ref="-93" />
    <nd ref="-90" />
    <tag k="building" v="yes" />
  </way>
  <way id="-1000000020" visible="true">
    <nd ref="-94" />
    <nd ref="-95" />
    <nd ref="-96" />
    <nd ref="-97" />
    <nd ref="-94" />
    <tag k="building" v="yes" />
  </way>
  <way id="-1000000021" visible="true">
    <nd ref="-98" />
    <nd ref="-99" />
    <nd ref="-100" />
    <nd ref="-101" />
    <nd ref="-98" />
    <tag k="building" v="yes" />
  </way>
  <way id="-1000000022" visible="true">
    <nd ref="-102" />
    <nd ref="-103" />
    <nd ref="-104" />
    <nd ref="-105" />
    <nd ref="-102" />
    <tag k="building" v="yes" />
  </way>
  <way id="-1000000023" visible="true">
    <nd ref="-106" />
    <nd ref="-107" />
    <nd ref="-108" />
    <nd ref="-109" />
    <nd ref="-106" />
    <tag k="building" v="yes" />
  </way>
  <way id="-1000000024" visible="true">
    <nd ref="-110" />
    <nd ref="-111" />
    <nd ref="-112" />
    <nd ref="-113" />
    <nd ref="-114" />
    <nd ref="-115" />
    <nd ref="-116" />
    <nd ref="-117" />
    <nd ref="-110" />
    <tag k="building" v="yes" />
  </way>
  <way id="-1000000025" visible="true">
    <nd ref="-118" />
    <nd ref="-119" />
    <nd ref="-120" />
    <nd ref="-121" />
    <nd ref="-118" />
    <tag k="building" v="yes" />
  </way>
  <way id="-1000000026" visible="true">
    <nd ref="-122" />
    <nd ref="-123" />
    <nd ref="-124" />
    <nd ref="-125" />
    <nd ref="-122" />
    <tag k="building" v="yes" />
  </way>
  <way id="-1000000027" visible="true">
    <nd ref="-126" />
    <nd ref="-127" />
    <nd ref="-128" />
    <nd ref="-129" />
    <nd ref="-126" />
    <tag k="building" v="yes" />
  </way>
  <way id="-1000000028" visible="true">
    <nd ref="-130" />
    <nd ref="-131" />
    <nd ref="-132" />
    <nd ref="-133" />
    <nd ref="-130" />
    <tag k="building" v="yes" />
  </way>
  <way id="-1000000029" visible="true">
    <nd ref="-134" />
    <nd ref="-135" />
    <nd ref="-136" />
    <nd ref="-137" />
    <nd ref="-134" />
    <tag k="building" v="yes" />
  </way>
  <way id="-1000000030" visible="true">
    <nd ref="-138" />
    <nd ref="-139" />
    <nd ref="-140" />
    <nd ref="-141" />
    <nd ref="-138" />
    <tag k="building" v="yes" />
  </way>
  <way id="-1000000031" visible="true">
    <nd ref="-142" />
    <nd ref="-143" />
    <nd ref="-144" />
    <nd ref="-145" />
    <nd ref="-142" />
    <tag k="building" v="yes" />
  </way>
  <way id="-1000000032" visible="true">
    <nd ref="-146" />
    <nd ref="-147" />
    <nd ref="-148" />
    <nd ref="-149" />
    <nd ref="-146" />
    <tag k="building" v="yes" />
  </way>
  <way id="-1000000033" visible="true">
    <nd ref="-150" />
    <nd ref="-151" />
    <nd ref="-152" />
    <nd ref="-153" />
    <nd ref="-150" />
    <tag k="building" v="yes" />
  </way>
  <way id="-1000000034" visible="true">
    <nd ref="-154" />
    <nd ref="-155" />
    <nd ref="-156" />
    <nd ref="-157" />
    <nd ref="-154" />
    <tag k="building" v="yes" />
  </way>
  <way id="-1000000035" visible="true">
    <nd ref="-158" />
    <nd ref="-159" />
    <nd ref="-160" />
    <nd ref="-161" />
    <nd ref="-158" />
    <tag k="building" v="yes" />
  </way>
  <way id="-1000000036" visible="true">
    <nd ref="-162" />
    <nd ref="-163" />
    <nd ref="-164" />
    <nd ref="-165" />
    <nd ref="-162" />
    <tag k="building" v="yes" />
  </way>
  <way id="-1000000037" visible="true">
    <nd ref="-166" />
    <nd ref="-167" />
    <nd ref="-168" />
    <nd ref="-169" />
    <nd ref="-166" />
    <tag k="building" v="yes" />
  </way>
  <way id="-1000000038" visible="true">
    <nd ref="-170" />
    <nd ref="-171" />
    <nd ref="-172" />
    <nd ref="-173" />
    <nd ref="-170" />
    <tag k="building" v="yes" />
  </way>
  <way id="-1000000039" visible="true">
    <nd ref="-174" />
    <nd ref="-175" />
    <nd ref="-176" />
    <nd ref="-177" />
    <nd ref="-174" />
    <tag k="building" v="yes" />
  </way>
  <way id="-1000000040" visible="true">
    <nd ref="-178" />
    <nd ref="-179" />
    <nd ref="-180" />
    <nd ref="-181" />
    <nd ref="-178" />
    <tag k="building" v="yes" />
  </way>
  <way id="-1000000041" visible="true">
    <nd ref="-182" />
    <nd ref="-183" />
    <nd ref="-184" />
    <nd ref="-185" />
    <nd ref="-182" />
    <tag k="building" v="yes" />
  </way>
  <way id="-1000000042" visible="true">
    <nd ref="-186" />
    <nd ref="-187" />
    <nd ref="-188" />
    <nd ref="-189" />
    <nd ref="-186" />
    <tag k="building" v="yes" />
  </way>
  <way id="-1000000043" visible="true">
    <nd ref="-190" />
    <nd ref="-191" />
    <nd ref="-192" />
    <nd ref="-193" />
    <nd ref="-190" />
    <tag k="building" v="yes" />
  </way>
  <way id="-1000000044" visible="true">
    <nd ref="-194" />
    <nd ref="-195" />
    <nd ref="-196" />
    <nd ref="-197" />
    <nd ref="-194" />
    <tag k="building" v="yes" />
  </way>
  <way id="-1000000045" visible="true">
    <nd ref="-198" />
    <nd ref="-199" />
    <nd ref="-200" />
    <nd ref="-201" />
    <nd ref="-198" />
    <tag k="building" v="yes" />
  </way>
  <way id="-1000000046" visible="true">
    <nd ref="-202" />
    <nd ref="-203" />
    <nd ref="-204" />
    <nd ref="-205" />
    <nd ref="-202" />
    <tag k="building" v="yes" />
  </way>
  <way id="-1000000047" visible="true">
    <nd ref="-206" />
    <nd ref="-207" />
    <nd ref="-208" />
    <nd ref="-209" />
    <nd ref="-206" />
    <tag k="building" v="yes" />
  </way>
  <way id="-1000000048" visible="true">
    <nd ref="-210" />
    <nd ref="-211" />
    <nd ref="-212" />
    <nd ref="-213" />
    <nd ref="-210" />
    <tag k="building" v="yes" />
  </way>
  <way id="-1000000049" visible="true">
    <nd ref="-214" />
    <nd ref="-215" />
    <nd ref="-216" />
    <nd ref="-217" />
    <nd ref="-218" />
    <nd ref="-219" />
    <nd ref="-220" />
    <nd ref="-221" />
    <nd ref="-214" />
    <tag k="building" v="yes" />
  </way>
  <way id="-1000000050" visible="true">
    <nd ref="-222" />
    <nd ref="-223" />
    <nd ref="-224" />
    <nd ref="-225" />
    <nd ref="-222" />
    <tag k="building" v="yes" />
  </way>
  <way id="-1000000051" visible="true">
    <nd ref="-226" />
    <nd ref="-227" />
    <nd ref="-228" />
    <nd ref="-229" />
    <nd ref="-226" />
    <tag k="building" v="yes" />
  </way>
  <way id="-1000000052" visible="true">
    <nd ref="-230" />
    <nd ref="-231" />
    <nd ref="-232" />
    <nd ref="-233" />
    <nd ref="-234" />
    <nd ref="-235" />
    <nd ref="-230" />
    <tag k="building" v="yes" />
  </way>
  <way id="-1000000053" visible="true">
    <nd ref="-236" />
    <nd ref="-237" />
    <nd ref="-238" />
    <nd ref="-239" />
    <nd ref="-236" />
    <tag k="building" v="yes" />
  </way>
  <way id="-1000000054" visible="true">
    <nd ref="-240" />
    <nd ref="-241" />
    <nd ref="-242" />
    <nd ref="-243" />
    <nd ref="-240" />
    <tag k="building" v="yes" />
  </way>
  <way id="-1000000055" visible="true">
    <nd ref="-244" />
    <nd ref="-245" />
    <nd ref="-246" />
    <nd ref="-247" />
    <nd ref="-244" />
    <tag k="building" v="yes" />
  </way>
  <way id="-1000000056" visible="true">
    <nd ref="-248" />
    <nd ref="-249" />
    <nd ref="-250" />
    <nd ref="-251" />
    <nd ref="-248" />
    <tag k="building" v="garage" />
  </way>
  <way id="-1000000057" visible="true">
    <nd ref="-252" />
    <nd ref="-253" />
    <nd ref="-254" />
    <nd ref="-255" />
    <nd ref="-252" />
    <tag k="building" v="garage" />
  </way>
  <way id="-1000000058" visible="true">
    <nd ref="-256" />
    <nd ref="-257" />
    <nd ref="-258" />
    <nd ref="-259" />
    <nd ref="-256" />
    <tag k="building" v="yes" />
  </way>
  <way id="-1000000059" visible="true">
    <nd ref="-260" />
    <nd ref="-261" />
    <nd ref="-262" />
    <nd ref="-263" />
    <nd ref="-260" />
    <tag k="building" v="yes" />
  </way>
  <way id="-1000000060" visible="true">
    <nd ref="-264" />
    <nd ref="-265" />
    <nd ref="-266" />
    <nd ref="-267" />
    <nd ref="-264" />
    <tag k="building" v="yes" />
  </way>
  <way id="-1000000061" visible="true">
    <nd ref="-268" />
    <nd ref="-269" />
    <nd ref="-270" />
    <nd ref="-271" />
    <nd ref="-268" />
    <tag k="building" v="yes" />
  </way>
  <way id="-1000000062" visible="true">
    <nd ref="-272" />
    <nd ref="-273" />
    <nd ref="-274" />
    <nd ref="-275" />
    <nd ref="-272" />
    <tag k="building" v="yes" />
  </way>
  <way id="-1000000063" visible="true">
    <nd ref="-276" />
    <nd ref="-277" />
    <nd ref="-278" />
    <nd ref="-279" />
    <nd ref="-280" />
    <nd ref="-281" />
    <nd ref="-276" />
    <tag k="building" v="yes" />
  </way>
  <way id="-1000000064" visible="true">
    <nd ref="-282" />
    <nd ref="-283" />
    <nd ref="-284" />
    <nd ref="-285" />
    <nd ref="-282" />
    <tag k="building" v="yes" />
  </way>
  <way id="-1000000065" visible="true">
    <nd ref="-286" />
    <nd ref="-287" />
    <nd ref="-288" />
    <nd ref="-289" />
    <nd ref="-286" />
    <tag k="building" v="yes" />
  </way>
  <way id="-1000000066" visible="true">
    <nd ref="-290" />
    <nd ref="-291" />
    <nd ref="-292" />
    <nd ref="-293" />
    <nd ref="-290" />
    <tag k="building" v="yes" />
  </way>
  <way id="-1000000067" visible="true">
    <nd ref="-294" />
    <nd ref="-295" />
    <nd ref="-296" />
    <nd ref="-297" />
    <nd ref="-294" />
    <tag k="building" v="yes" />
  </way>
  <way id="-1000000068" visible="true">
    <nd ref="-298" />
    <nd ref="-299" />
    <nd ref="-300" />
    <nd ref="-301" />
    <nd ref="-298" />
    <tag k="building" v="yes" />
  </way>
  <way id="-1000000069" visible="true">
    <nd ref="-302" />
    <nd ref="-303" />
    <nd ref="-304" />
    <nd ref="-305" />
    <nd ref="-302" />
    <tag k="building" v="yes" />
  </way>
  <way id="-1000000070" visible="true">
    <nd ref="-306" />
    <nd ref="-307" />
    <nd ref="-308" />
    <nd ref="-309" />
    <nd ref="-306" />
    <tag k="building" v="yes" />
  </way>
  <way id="-1000000071" visible="true">
    <nd ref="-310" />
    <nd ref="-311" />
    <nd ref="-312" />
    <nd ref="-313" />
    <nd ref="-310" />
    <tag k="building" v="yes" />
  </way>
  <way id="-1000000072" visible="true">
    <nd ref="-314" />
    <nd ref="-315" />
    <nd ref="-316" />
    <nd ref="-317" />
    <nd ref="-314" />
    <tag k="building" v="yes" />
  </way>
  <way id="-1000000073" visible="true">
    <nd ref="-318" />
    <nd ref="-319" />
    <nd ref="-320" />
    <nd ref="-321" />
    <nd ref="-318" />
    <tag k="building" v="yes" />
  </way>
  <way id="-1000000074" visible="true">
    <nd ref="-322" />
    <nd ref="-323" />
    <nd ref="-324" />
    <nd ref="-325" />
    <nd ref="-322" />
    <tag k="building" v="yes" />
  </way>
  <way id="-1000000075" visible="true">
    <nd ref="-326" />
    <nd ref="-327" />
    <nd ref="-328" />
    <nd ref="-329" />
    <nd ref="-326" />
    <tag k="building" v="yes" />
  </way>
  <way id="-1000000076" visible="true">
    <nd ref="-330" />
    <nd ref="-331" />
    <nd ref="-332" />
    <nd ref="-333" />
    <nd ref="-330" />
    <tag k="building" v="yes" />
  </way>
  <way id="-1000000077" visible="true">
    <nd ref="-334" />
    <nd ref="-335" />
    <nd ref="-336" />
    <nd ref="-337" />
    <nd ref="-334" />
    <tag k="building" v="yes" />
  </way>
  <way id="-1000000078" visible="true">
    <nd ref="-338" />
    <nd ref="-339" />
    <nd ref="-340" />
    <nd ref="-341" />
    <nd ref="-338" />
    <tag k="building" v="yes" />
  </way>
  <way id="-1000000079" visible="true">
    <nd ref="-342" />
    <nd ref="-343" />
    <nd ref="-344" />
    <nd ref="-345" />
    <nd ref="-342" />
    <tag k="building" v="yes" />
  </way>
  <way id="-1000000080" visible="true">
    <nd ref="-346" />
    <nd ref="-347" />
    <nd ref="-348" />
    <nd ref="-349" />
    <nd ref="-346" />
    <tag k="building" v="yes" />
  </way>
  <way id="-1000000081" visible="true">
    <nd ref="-350" />
    <nd ref="-351" />
    <nd ref="-352" />
    <nd ref="-353" />
    <nd ref="-350" />
    <tag k="building" v="yes" />
  </way>
  <way id="-1000000082" visible="true">
    <nd ref="-354" />
    <nd ref="-355" />
    <nd ref="-356" />
    <nd ref="-357" />
    <nd ref="-354" />
    <tag k="building" v="yes" />
  </way>
  <way id="-1000000083" visible="true">
    <nd ref="-358" />
    <nd ref="-359" />
    <nd ref="-360" />
    <nd ref="-361" />
    <nd ref="-358" />
    <tag k="building" v="yes" />
  </way>
  <way id="-1000000084" visible="true">
    <nd ref="-362" />
    <nd ref="-363" />
    <nd ref="-364" />
    <nd ref="-365" />
    <nd ref="-362" />
    <tag k="building" v="yes" />
  </way>
  <way id="-1000000085" visible="true">
    <nd ref="-366" />
    <nd ref="-367" />
    <nd ref="-368" />
    <nd ref="-369" />
    <nd ref="-366" />
    <tag k="building" v="yes" />
  </way>
  <way id="-1000000086" visible="true">
    <nd ref="-370" />
    <nd ref="-371" />
    <nd ref="-372" />
    <nd ref="-373" />
    <nd ref="-370" />
    <tag k="building" v="yes" />
  </way>
  <way id="-1000000087" visible="true">
    <nd ref="-374" />
    <nd ref="-375" />
    <nd ref="-376" />
    <nd ref="-377" />
    <nd ref="-374" />
    <tag k="building" v="yes" />
  </way>
  <way id="-1000000088" visible="true">
    <nd ref="-378" />
    <nd ref="-379" />
    <nd ref="-380" />
    <nd ref="-381" />
    <nd ref="-378" />
    <tag k="building" v="yes" />
  </way>
  <way id="-1000000089" visible="true">
    <nd ref="-382" />
    <nd ref="-383" />
    <nd ref="-384" />
    <nd ref="-385" />
    <nd ref="-382" />
    <tag k="building" v="yes" />
  </way>
  <way id="-1000000090" visible="true">
    <nd ref="-386" />
    <nd ref="-387" />
    <nd ref="-388" />
    <nd ref="-389" />
    <nd ref="-386" />
    <tag k="building" v="yes" />
  </way>
  <way id="-1000000091" visible="true">
    <nd ref="-390" />
    <nd ref="-391" />
    <nd ref="-392" />
    <nd ref="-393" />
    <nd ref="-390" />
    <tag k="building" v="yes" />
  </way>
  <way id="-1000000092" visible="true">
    <nd ref="-394" />
    <nd ref="-395" />
    <nd ref="-396" />
    <nd ref="-397" />
    <nd ref="-394" />
    <tag k="building" v="yes" />
  </way>
  <way id="-1000000093" visible="true">
    <nd ref="-398" />
    <nd ref="-399" />
    <nd ref="-400" />
    <nd ref="-401" />
    <nd ref="-398" />
    <tag k="building" v="yes" />
  </way>
  <way id="-1000000094" visible="true">
    <nd ref="-402" />
    <nd ref="-403" />
    <nd ref="-404" />
    <nd ref="-405" />
    <nd ref="-402" />
    <tag k="building" v="yes" />
  </way>
  <way id="-1000000095" visible="true">
    <nd ref="-406" />
    <nd ref="-407" />
    <nd ref="-408" />
    <nd ref="-409" />
    <nd ref="-406" />
    <tag k="building" v="yes" />
  </way>
  <way id="-1000000096" visible="true">
    <nd ref="-410" />
    <nd ref="-411" />
    <nd ref="-412" />
    <nd ref="-413" />
    <nd ref="-410" />
    <tag k="building" v="yes" />
  </way>
  <way id="-1000000097" visible="true">
    <nd ref="-414" />
    <nd ref="-415" />
    <nd ref="-416" />
    <nd ref="-417" />
    <nd ref="-414" />
    <tag k="building" v="yes" />
  </way>
  <way id="-1000000098" visible="true">
    <nd ref="-418" />
    <nd ref="-419" />
    <nd ref="-420" />
    <nd ref="-421" />
    <nd ref="-418" />
    <tag k="building" v="yes" />
  </way>
  <way id="-1000000099" visible="true">
    <nd ref="-422" />
    <nd ref="-423" />
    <nd ref="-424" />
    <nd ref="-425" />
    <nd ref="-422" />
    <tag k="building" v="yes" />
  </way>
  <way id="-1000000100" visible="true">
    <nd ref="-426" />
    <nd ref="-427" />
    <nd ref="-428" />
    <nd ref="-429" />
    <nd ref="-426" />
    <tag k="building" v="yes" />
  </way>
  <way id="-1000000101" visible="true">
    <nd ref="-430" />
    <nd ref="-431" />
    <nd ref="-432" />
    <nd ref="-433" />
    <nd ref="-430" />
    <tag k="building" v="yes" />
  </way>
  <way id="-1000000102" visible="true">
    <nd ref="-434" />
    <nd ref="-435" />
    <nd ref="-436" />
    <nd ref="-437" />
    <nd ref="-434" />
    <tag k="building" v="yes" />
  </way>
  <way id="-1000000103" visible="true">
    <nd ref="-438" />
    <nd ref="-439" />
    <nd ref="-440" />
    <nd ref="-441" />
    <nd ref="-438" />
    <tag k="building" v="yes" />
  </way>
  <way id="-1000000104" visible="true">
    <nd ref="-442" />
    <nd ref="-443" />
    <nd ref="-444" />
    <nd ref="-445" />
    <nd ref="-442" />
    <tag k="building" v="yes" />
  </way>
  <way id="-1000000105" visible="true">
    <nd ref="-446" />
    <nd ref="-447" />
    <nd ref="-448" />
    <nd ref="-449" />
    <nd ref="-446" />
    <tag k="building" v="yes" />
  </way>
  <way id="-1000000106" visible="true">
    <nd ref="-450" />
    <nd ref="-451" />
    <nd ref="-452" />
    <nd ref="-453" />
    <nd ref="-450" />
    <tag k="building" v="yes" />
  </way>
  <way id="-1000000107" visible="true">
    <nd ref="-454" />
    <nd ref="-455" />
    <nd ref="-456" />
    <nd ref="-457" />
    <nd ref="-454" />
    <tag k="building" v="yes" />
  </way>
  <way id="-1000000108" visible="true">
    <nd ref="-458" />
    <nd ref="-459" />
    <nd ref="-460" />
    <nd ref="-461" />
    <nd ref="-458" />
    <tag k="building" v="yes" />
  </way>
  <way id="-1000000109" visible="true">
    <nd ref="-462" />
    <nd ref="-463" />
    <nd ref="-464" />
    <nd ref="-465" />
    <nd ref="-462" />
    <tag k="building" v="yes" />
  </way>
  <way id="-1000000110" visible="true">
    <nd ref="-466" />
    <nd ref="-467" />
    <nd ref="-468" />
    <nd ref="-469" />
    <nd ref="-470" />
    <nd ref="-471" />
    <nd ref="-466" />
    <tag k="building" v="yes" />
  </way>
  <way id="-1000000111" visible="true">
    <nd ref="-472" />
    <nd ref="-473" />
    <nd ref="-474" />
    <nd ref="-475" />
    <nd ref="-472" />
    <tag k="building" v="yes" />
  </way>
  <way id="-1000000112" visible="true">
    <nd ref="-476" />
    <nd ref="-477" />
    <nd ref="-478" />
    <nd ref="-479" />
    <nd ref="-480" />
    <nd ref="-481" />
    <nd ref="-476" />
    <tag k="building" v="yes" />
  </way>
  <way id="-1000000113" visible="true">
    <nd ref="-482" />
    <nd ref="-483" />
    <nd ref="-484" />
    <nd ref="-485" />
    <nd ref="-482" />
    <tag k="building" v="yes" />
  </way>
  <way id="-1000000114" visible="true">
    <nd ref="-486" />
    <nd ref="-487" />
    <nd ref="-488" />
    <nd ref="-489" />
    <nd ref="-486" />
    <tag k="building" v="yes" />
  </way>
  <way id="-1000000115" visible="true">
    <nd ref="-490" />
    <nd ref="-491" />
    <nd ref="-492" />
    <nd ref="-493" />
    <nd ref="-490" />
    <tag k="building" v="yes" />
  </way>
  <way id="-1000000116" visible="true">
    <nd ref="-494" />
    <nd ref="-495" />
    <nd ref="-496" />
    <nd ref="-497" />
    <nd ref="-494" />
    <tag k="building" v="yes" />
  </way>
  <way id="-1000000117" visible="true">
    <nd ref="-498" />
    <nd ref="-499" />
    <nd ref="-500" />
    <nd ref="-501" />
    <nd ref="-498" />
    <tag k="building" v="yes" />
  </way>
  <way id="-1000000118" visible="true">
    <nd ref="-502" />
    <nd ref="-503" />
    <nd ref="-504" />
    <nd ref="-505" />
    <nd ref="-506" />
    <nd ref="-507" />
    <nd ref="-508" />
    <nd ref="-509" />
    <nd ref="-502" />
    <tag k="building" v="yes" />
  </way>
  <way id="-1000000119" visible="true">
    <nd ref="-510" />
    <nd ref="-511" />
    <nd ref="-512" />
    <nd ref="-513" />
    <nd ref="-510" />
    <tag k="building" v="yes" />
  </way>
  <way id="-1000000120" visible="true">
    <nd ref="-514" />
    <nd ref="-515" />
    <nd ref="-516" />
    <nd ref="-517" />
    <nd ref="-514" />
    <tag k="building" v="yes" />
  </way>
  <way id="-1000000121" visible="true">
    <nd ref="-518" />
    <nd ref="-519" />
    <nd ref="-520" />
    <nd ref="-521" />
    <nd ref="-518" />
    <tag k="building" v="yes" />
  </way>
  <way id="-1000000122" visible="true">
    <nd ref="-522" />
    <nd ref="-523" />
    <nd ref="-524" />
    <nd ref="-525" />
    <nd ref="-522" />
    <tag k="building" v="yes" />
  </way>
  <way id="-1000000123" visible="true">
    <nd ref="-526" />
    <nd ref="-527" />
    <nd ref="-528" />
    <nd ref="-529" />
    <nd ref="-526" />
    <tag k="building" v="yes" />
  </way>
  <way id="-1000000124" visible="true">
    <nd ref="-530" />
    <nd ref="-531" />
    <nd ref="-532" />
    <nd ref="-533" />
    <nd ref="-530" />
    <tag k="building" v="yes" />
  </way>
  <way id="-1000000125" visible="true">
    <nd ref="-534" />
    <nd ref="-535" />
    <nd ref="-536" />
    <nd ref="-537" />
    <nd ref="-534" />
    <tag k="building" v="yes" />
  </way>
  <way id="-1000000126" visible="true">
    <nd ref="-538" />
    <nd ref="-539" />
    <nd ref="-540" />
    <nd ref="-541" />
    <nd ref="-538" />
    <tag k="building" v="yes" />
  </way>
  <way id="-1000000127" visible="true">
    <nd ref="-542" />
    <nd ref="-543" />
    <nd ref="-544" />
    <nd ref="-545" />
    <nd ref="-546" />
    <nd ref="-547" />
    <nd ref="-542" />
    <tag k="building" v="yes" />
  </way>
  <way id="-1000000128" visible="true">
    <nd ref="-548" />
    <nd ref="-549" />
    <nd ref="-550" />
    <nd ref="-551" />
    <nd ref="-548" />
    <tag k="building" v="yes" />
  </way>
  <way id="-1000000129" visible="true">
    <nd ref="-552" />
    <nd ref="-553" />
    <nd ref="-554" />
    <nd ref="-555" />
    <nd ref="-552" />
    <tag k="building" v="yes" />
  </way>
  <way id="-1000000130" visible="true">
    <nd ref="-556" />
    <nd ref="-557" />
    <nd ref="-558" />
    <nd ref="-559" />
    <nd ref="-560" />
    <nd ref="-556" />
    <tag k="building" v="yes" />
  </way>
  <way id="-1000000131" visible="true">
    <nd ref="-561" />
    <nd ref="-562" />
    <nd ref="-563" />
    <nd ref="-564" />
    <nd ref="-561" />
    <tag k="building" v="yes" />
  </way>
  <way id="-1000000132" visible="true">
    <nd ref="-565" />
    <nd ref="-566" />
    <nd ref="-567" />
    <nd ref="-568" />
    <nd ref="-565" />
    <tag k="building" v="yes" />
  </way>
  <way id="-1000000133" visible="true">
    <nd ref="-569" />
    <nd ref="-570" />
    <nd ref="-571" />
    <nd ref="-572" />
    <nd ref="-569" />
    <tag k="building" v="yes" />
  </way>
  <way id="-1000000134" visible="true">
    <nd ref="-573" />
    <nd ref="-574" />
    <nd ref="-575" />
    <nd ref="-576" />
    <nd ref="-573" />
    <tag k="building" v="yes" />
  </way>
  <way id="-1000000135" visible="true">
    <nd ref="-577" />
    <nd ref="-578" />
    <nd ref="-579" />
    <nd ref="-580" />
    <nd ref="-577" />
    <tag k="building" v="yes" />
  </way>
  <way id="-1000000136" visible="true">
    <nd ref="-581" />
    <nd ref="-582" />
    <nd ref="-583" />
    <nd ref="-584" />
    <nd ref="-581" />
    <tag k="building" v="yes" />
  </way>
  <way id="-1000000137" visible="true">
    <nd ref="-585" />
    <nd ref="-586" />
    <nd ref="-587" />
    <nd ref="-588" />
    <nd ref="-589" />
    <nd ref="-590" />
    <nd ref="-591" />
    <nd ref="-592" />
    <nd ref="-585" />
    <tag k="building" v="yes" />
  </way>
  <way id="-1000000138" visible="true">
    <nd ref="-593" />
    <nd ref="-594" />
    <nd ref="-595" />
    <nd ref="-596" />
    <nd ref="-593" />
    <tag k="building" v="yes" />
  </way>
  <way id="-1000000139" visible="true">
    <nd ref="-597" />
    <nd ref="-598" />
    <nd ref="-599" />
    <nd ref="-600" />
    <nd ref="-597" />
    <tag k="building" v="yes" />
  </way>
  <way id="-1000000140" visible="true">
    <nd ref="-601" />
    <nd ref="-602" />
    <nd ref="-603" />
    <nd ref="-604" />
    <nd ref="-601" />
    <tag k="building" v="yes" />
  </way>
  <way id="-1000000141" visible="true">
    <nd ref="-605" />
    <nd ref="-606" />
    <nd ref="-607" />
    <nd ref="-608" />
    <nd ref="-605" />
    <tag k="building" v="yes" />
  </way>
  <way id="-1000000142" visible="true">
    <nd ref="-609" />
    <nd ref="-610" />
    <nd ref="-611" />
    <nd ref="-612" />
    <nd ref="-609" />
    <tag k="building" v="yes" />
  </way>
  <way id="-1000000143" visible="true">
    <nd ref="-613" />
    <nd ref="-614" />
    <nd ref="-615" />
    <nd ref="-616" />
    <nd ref="-613" />
    <tag k="building" v="yes" />
  </way>
  <way id="-1000000144" visible="true">
    <nd ref="-617" />
    <nd ref="-618" />
    <nd ref="-619" />
    <nd ref="-620" />
    <nd ref="-617" />
    <tag k="building" v="yes" />
  </way>
  <way id="-1000000145" visible="true">
    <nd ref="-621" />
    <nd ref="-622" />
    <nd ref="-623" />
    <nd ref="-624" />
    <nd ref="-621" />
    <tag k="building" v="garage" />
  </way>
  <way id="-1000000146" visible="true">
    <nd ref="-625" />
    <nd ref="-626" />
    <nd ref="-627" />
    <nd ref="-628" />
    <nd ref="-625" />
    <tag k="building" v="garage" />
  </way>
  <way id="-1000000147" visible="true">
    <nd ref="-629" />
    <nd ref="-630" />
    <nd ref="-631" />
    <nd ref="-632" />
    <nd ref="-633" />
    <nd ref="-634" />
    <nd ref="-629" />
    <tag k="building" v="yes" />
  </way>
  <way id="-1000000148" visible="true">
    <nd ref="-635" />
    <nd ref="-636" />
    <nd ref="-637" />
    <nd ref="-638" />
    <nd ref="-635" />
    <tag k="building" v="yes" />
  </way>
  <way id="-1000000149" visible="true">
    <nd ref="-639" />
    <nd ref="-640" />
    <nd ref="-641" />
    <nd ref="-642" />
    <nd ref="-639" />
    <tag k="building" v="yes" />
  </way>
  <way id="-1000000150" visible="true">
    <nd ref="-643" />
    <nd ref="-644" />
    <nd ref="-645" />
    <nd ref="-646" />
    <nd ref="-643" />
    <tag k="building" v="yes" />
  </way>
  <way id="-1000000151" visible="true">
    <nd ref="-647" />
    <nd ref="-648" />
    <nd ref="-649" />
    <nd ref="-650" />
    <nd ref="-651" />
    <nd ref="-652" />
    <nd ref="-653" />
    <nd ref="-654" />
    <nd ref="-647" />
    <tag k="building" v="yes" />
  </way>
  <way id="-1000000152" visible="true">
    <nd ref="-655" />
    <nd ref="-656" />
    <nd ref="-657" />
    <nd ref="-658" />
    <nd ref="-655" />
    <tag k="building" v="yes" />
  </way>
  <way id="-1000000153" visible="true">
    <nd ref="-659" />
    <nd ref="-660" />
    <nd ref="-661" />
    <nd ref="-662" />
    <nd ref="-659" />
    <tag k="building" v="yes" />
  </way>
  <way id="-1000000154" visible="true">
    <nd ref="-663" />
    <nd ref="-664" />
    <nd ref="-665" />
    <nd ref="-666" />
    <nd ref="-667" />
    <nd ref="-668" />
    <nd ref="-669" />
    <nd ref="-670" />
    <nd ref="-663" />
    <tag k="building" v="yes" />
  </way>
  <way id="-1000000155" visible="true">
    <nd ref="-671" />
    <nd ref="-672" />
    <nd ref="-673" />
    <nd ref="-674" />
    <nd ref="-671" />
    <tag k="building" v="yes" />
  </way>
  <way id="-1000000156" visible="true">
    <nd ref="-675" />
    <nd ref="-676" />
    <nd ref="-677" />
    <nd ref="-678" />
    <nd ref="-675" />
    <tag k="building" v="yes" />
  </way>
  <way id="-1000000157" visible="true">
    <nd ref="-679" />
    <nd ref="-680" />
    <nd ref="-681" />
    <nd ref="-682" />
    <nd ref="-679" />
    <tag k="building" v="yes" />
  </way>
  <way id="-1000000158" visible="true">
    <nd ref="-683" />
    <nd ref="-684" />
    <nd ref="-685" />
    <nd ref="-686" />
    <nd ref="-683" />
    <tag k="building" v="garage" />
  </way>
  <way id="-1000000159" visible="true">
    <nd ref="-687" />
    <nd ref="-688" />
    <nd ref="-689" />
    <nd ref="-690" />
    <nd ref="-687" />
    <tag k="building" v="yes" />
  </way>
  <way id="-1000000160" visible="true">
    <nd ref="-691" />
    <nd ref="-692" />
    <nd ref="-693" />
    <nd ref="-694" />
    <nd ref="-695" />
    <nd ref="-696" />
    <nd ref="-691" />
    <tag k="building" v="yes" />
  </way>
  <way id="-1000000161" visible="true">
    <nd ref="-697" />
    <nd ref="-698" />
    <nd ref="-699" />
    <nd ref="-700" />
    <nd ref="-697" />
    <tag k="building" v="yes" />
  </way>
  <way id="-1000000162" visible="true">
    <nd ref="-701" />
    <nd ref="-702" />
    <nd ref="-703" />
    <nd ref="-704" />
    <nd ref="-701" />
    <tag k="building" v="yes" />
  </way>
  <way id="-1000000163" visible="true">
    <nd ref="-705" />
    <nd ref="-706" />
    <nd ref="-707" />
    <nd ref="-708" />
    <nd ref="-705" />
    <tag k="building" v="yes" />
  </way>
  <way id="-1000000164" visible="true">
    <nd ref="-709" />
    <nd ref="-710" />
    <nd ref="-711" />
    <nd ref="-712" />
    <nd ref="-709" />
    <tag k="building" v="garage" />
  </way>
  <way id="-1000000165" visible="true">
    <nd ref="-713" />
    <nd ref="-714" />
    <nd ref="-694" />
    <nd ref="-695" />
    <nd ref="-713" />
    <tag k="building" v="garage" />
  </way>
  <way id="-1000000166" visible="true">
    <nd ref="-715" />
    <nd ref="-716" />
    <nd ref="-717" />
    <nd ref="-718" />
    <nd ref="-715" />
    <tag k="building" v="yes" />
  </way>
  <way id="-1000000167" visible="true">
    <nd ref="-719" />
    <nd ref="-720" />
    <nd ref="-721" />
    <nd ref="-722" />
    <nd ref="-719" />
    <tag k="building" v="yes" />
  </way>
  <way id="-1000000168" visible="true">
    <nd ref="-723" />
    <nd ref="-724" />
    <nd ref="-209" />
    <nd ref="-725" />
    <nd ref="-723" />
    <tag k="building" v="yes" />
  </way>
  <way id="-1000000169" visible="true">
    <nd ref="-726" />
    <nd ref="-727" />
    <nd ref="-142" />
    <nd ref="-728" />
    <nd ref="-726" />
    <tag k="building" v="yes" />
  </way>
  <way id="-1000000170" visible="true">
    <nd ref="-729" />
    <nd ref="-730" />
    <nd ref="-236" />
    <nd ref="-731" />
    <nd ref="-729" />
    <tag k="building" v="yes" />
  </way>
  <way id="-1000000171" visible="true">
    <nd ref="-732" />
    <nd ref="-733" />
    <nd ref="-202" />
    <nd ref="-734" />
    <nd ref="-732" />
    <tag k="building" v="yes" />
  </way>
  <way id="-1000000172" visible="true">
    <nd ref="-735" />
    <nd ref="-736" />
    <nd ref="-737" />
    <nd ref="-738" />
    <nd ref="-735" />
    <tag k="building" v="yes" />
  </way>
  <way id="-1000000173" visible="true">
    <nd ref="-739" />
    <nd ref="-740" />
    <nd ref="-741" />
    <nd ref="-742" />
    <nd ref="-743" />
    <nd ref="-744" />
    <nd ref="-745" />
    <nd ref="-746" />
    <nd ref="-739" />
    <tag k="building" v="yes" />
  </way>
  <way id="-1000000174" visible="true">
    <nd ref="-747" />
    <nd ref="-748" />
    <nd ref="-749" />
    <nd ref="-750" />
    <nd ref="-747" />
    <tag k="building" v="yes" />
  </way>
  <way id="-1000000175" visible="true">
    <nd ref="-751" />
    <nd ref="-752" />
    <nd ref="-753" />
    <nd ref="-754" />
    <nd ref="-751" />
    <tag k="building" v="yes" />
  </way>
  <way id="-1000000176" visible="true">
    <nd ref="-755" />
    <nd ref="-756" />
    <nd ref="-757" />
    <nd ref="-758" />
    <nd ref="-755" />
    <tag k="building" v="yes" />
  </way>
  <way id="-1000000177" visible="true">
    <nd ref="-759" />
    <nd ref="-760" />
    <nd ref="-761" />
    <nd ref="-762" />
    <nd ref="-759" />
    <tag k="building" v="yes" />
  </way>
  <way id="-1000000178" visible="true">
    <nd ref="-763" />
    <nd ref="-764" />
    <nd ref="-765" />
    <nd ref="-766" />
    <nd ref="-763" />
    <tag k="building" v="yes" />
  </way>
  <way id="-1000000179" visible="true">
    <nd ref="-767" />
    <nd ref="-768" />
    <nd ref="-769" />
    <nd ref="-770" />
    <nd ref="-767" />
    <tag k="building" v="garage" />
  </way>
  <way id="-1000000180" visible="true">
    <nd ref="-771" />
    <nd ref="-772" />
    <nd ref="-773" />
    <nd ref="-774" />
    <nd ref="-771" />
    <tag k="building" v="yes" />
  </way>
  <way id="-1000000181" visible="true">
    <nd ref="-775" />
    <nd ref="-776" />
    <nd ref="-777" />
    <nd ref="-778" />
    <nd ref="-775" />
    <tag k="building" v="yes" />
  </way>
  <way id="-1000000182" visible="true">
    <nd ref="-779" />
    <nd ref="-780" />
    <nd ref="-781" />
    <nd ref="-782" />
    <nd ref="-779" />
    <tag k="building" v="garage" />
  </way>
  <way id="-1000000183" visible="true">
    <nd ref="-783" />
    <nd ref="-784" />
    <nd ref="-785" />
    <nd ref="-786" />
    <nd ref="-783" />
    <tag k="building" v="garage" />
  </way>
  <way id="-1000000184" visible="true">
    <nd ref="-787" />
    <nd ref="-788" />
    <nd ref="-789" />
    <nd ref="-790" />
    <nd ref="-787" />
    <tag k="building" v="yes" />
  </way>
  <way id="-1000000185" visible="true">
    <nd ref="-791" />
    <nd ref="-792" />
    <nd ref="-793" />
    <nd ref="-794" />
    <nd ref="-795" />
    <nd ref="-796" />
    <nd ref="-797" />
    <nd ref="-798" />
    <nd ref="-791" />
    <tag k="building" v="yes" />
  </way>
  <way id="-1000000186" visible="true">
    <nd ref="-799" />
    <nd ref="-800" />
    <nd ref="-801" />
    <nd ref="-802" />
    <nd ref="-799" />
    <tag k="building" v="yes" />
  </way>
  <way id="-1000000187" visible="true">
    <nd ref="-803" />
    <nd ref="-804" />
    <nd ref="-805" />
    <nd ref="-806" />
    <nd ref="-803" />
    <tag k="building" v="yes" />
  </way>
  <way id="-1000000188" visible="true">
    <nd ref="-807" />
    <nd ref="-480" />
    <nd ref="-481" />
    <nd ref="-808" />
    <nd ref="-807" />
    <tag k="building" v="yes" />
  </way>
  <way id="-1000000189" visible="true">
    <nd ref="-477" />
    <nd ref="-809" />
    <nd ref="-810" />
    <nd ref="-478" />
    <nd ref="-477" />
    <tag k="building" v="yes" />
  </way>
  <way id="-1000000190" visible="true">
    <nd ref="-811" />
    <nd ref="-812" />
    <nd ref="-813" />
    <nd ref="-814" />
    <nd ref="-811" />
    <tag k="building" v="yes" />
  </way>
  <way id="-1000000191" visible="true">
    <nd ref="-815" />
    <nd ref="-816" />
    <nd ref="-817" />
    <nd ref="-818" />
    <nd ref="-815" />
    <tag k="building" v="yes" />
  </way>
  <way id="-1000000192" visible="true">
    <nd ref="-819" />
    <nd ref="-820" />
    <nd ref="-821" />
    <nd ref="-822" />
    <nd ref="-819" />
    <tag k="building" v="yes" />
  </way>
</osm>