<?xml version='1.0' encoding='utf-8'?>
<osm version="0.6" generator="tile_fbx_generator.py">
  <node id="-1" lat="48.7500847" lon="11.4747171" visible="true" />
  <node id="-2" lat="48.7498659" lon="11.4735973" visible="true" />
  <node id="-3" lat="48.7502871" lon="11.4734032" visible="true" />
  <node id="-4" lat="48.7502998" lon="11.4734609" visible="true" />
  <node id="-5" lat="48.7504355" lon="11.4735316" visible="true" />
  <node id="-6" lat="48.7505093" lon="11.4738786" visible="true" />
  <node id="-7" lat="48.7503750" lon="11.4739478" visible="true" />
  <node id="-8" lat="48.7502377" lon="11.4740057" visible="true" />
  <node id="-9" lat="48.7503617" lon="11.4745850" visible="true" />
  <node id="-10" lat="48.7557475" lon="11.4760558" visible="true" />
  <node id="-11" lat="48.7557445" lon="11.4761695" visible="true" />
  <node id="-12" lat="48.7558046" lon="11.4761731" visible="true" />
  <node id="-13" lat="48.7557999" lon="11.4763526" visible="true" />
  <node id="-14" lat="48.7559054" lon="11.4763588" visible="true" />
  <node id="-15" lat="48.7559130" lon="11.4760656" visible="true" />
  <node id="-16" lat="48.7555844" lon="11.4765472" visible="true" />
  <node id="-17" lat="48.7559413" lon="11.4765933" visible="true" />
  <node id="-18" lat="48.7559233" lon="11.4769129" visible="true" />
  <node id="-19" lat="48.7555664" lon="11.4768668" visible="true" />
  <node id="-20" lat="48.7559023" lon="11.4769448" visible="true" />
  <node id="-21" lat="48.7558919" lon="11.4771772" visible="true" />
  <node id="-22" lat="48.7555981" lon="11.4771468" visible="true" />
  <node id="-23" lat="48.7556085" lon="11.4769144" visible="true" />
  <node id="-24" lat="48.7553880" lon="11.4767916" visible="true" />
  <node id="-25" lat="48.7552288" lon="11.4767819" visible="true" />
  <node id="-26" lat="48.7552377" lon="11.4764814" visible="true" />
  <node id="-27" lat="48.7553962" lon="11.4764950" visible="true" />
  <node id="-28" lat="48.7554240" lon="11.4757466" visible="true" />
  <node id="-29" lat="48.7552498" lon="11.4761567" visible="true" />
  <node id="-30" lat="48.7551769" lon="11.4761505" visible="true" />
  <node id="-31" lat="48.7551926" lon="11.4757268" visible="true" />
  <node id="-32" lat="48.7552800" lon="11.4746622" visible="true" />
  <node id="-33" lat="48.7550093" lon="11.4746558" visible="true" />
  <node id="-34" lat="48.7550001" lon="11.4755545" visible="true" />
  <node id="-35" lat="48.7552708" lon="11.4755609" visible="true" />
  <node id="-36" lat="48.7556740" lon="11.4754119" visible="true" />
  <node id="-37" lat="48.7553401" lon="11.4754133" visible="true" />
  <node id="-38" lat="48.7553405" lon="11.4756582" visible="true" />
  <node id="-39" lat="48.7556745" lon="11.4756569" visible="true" />
  <node id="-40" lat="48.7557173" lon="11.4747699" visible="true" />
  <node id="-41" lat="48.7556595" lon="11.4750320" visible="true" />
  <node id="-42" lat="48.7553818" lon="11.4748912" visible="true" />
  <node id="-43" lat="48.7554396" lon="11.4746291" visible="true" />
  <node id="-44" lat="48.7548635" lon="11.4747499" visible="true" />
  <node id="-45" lat="48.7548558" lon="11.4749517" visible="true" />
  <node id="-46" lat="48.7546694" lon="11.4749306" visible="true" />
  <node id="-47" lat="48.7546766" lon="11.4747027" visible="true" />
  <node id="-48" lat="48.7545795" lon="11.4746901" visible="true" />
  <node id="-49" lat="48.7545896" lon="11.4745451" visible="true" />
  <node id="-50" lat="48.7547526" lon="11.4745693" visible="true" />
  <node id="-51" lat="48.7547632" lon="11.4760615" visible="true" />
  <node id="-52" lat="48.7542931" lon="11.4760442" visible="true" />
  <node id="-53" lat="48.7542902" lon="11.4762226" visible="true" />
  <node id="-54" lat="48.7542758" lon="11.4769042" visible="true" />
  <node id="-55" lat="48.7545541" lon="11.4769135" visible="true" />
  <node id="-56" lat="48.7545563" lon="11.4767578" visible="true" />
  <node id="-57" lat="48.7547530" lon="11.4767644" visible="true" />
  <node id="-58" lat="48.7541440" lon="11.4765287" visible="true" />
  <node id="-59" lat="48.7540097" lon="11.4765202" visible="true" />
  <node id="-60" lat="48.7540027" lon="11.4767777" visible="true" />
  <node id="-61" lat="48.7541369" lon="11.4767862" visible="true" />
  <node id="-62" lat="48.7540377" lon="11.4762034" visible="true" />
  <node id="-63" lat="48.7539497" lon="11.4762003" visible="true" />
  <node id="-64" lat="48.7539446" lon="11.4763635" visible="true" />
  <node id="-65" lat="48.7537731" lon="11.4763513" visible="true" />
  <node id="-66" lat="48.7537841" lon="11.4759962" visible="true" />
  <node id="-67" lat="48.7540439" lon="11.4760147" visible="true" />
  <node id="-68" lat="48.7534533" lon="11.4747015" visible="true" />
  <node id="-69" lat="48.7531357" lon="11.4748268" visible="true" />
  <node id="-70" lat="48.7534190" lon="11.4764783" visible="true" />
  <node id="-71" lat="48.7537365" lon="11.4763530" visible="true" />
  <node id="-72" lat="48.7528734" lon="11.4749709" visible="true" />
  <node id="-73" lat="48.7530781" lon="11.4760692" visible="true" />
  <node id="-74" lat="48.7526568" lon="11.4762498" visible="true" />
  <node id="-75" lat="48.7525608" lon="11.4757352" visible="true" />
  <node id="-76" lat="48.7526799" lon="11.4756841" visible="true" />
  <node id="-77" lat="48.7525711" lon="11.4751005" visible="true" />
  <node id="-78" lat="48.7542920" lon="11.4760221" visible="true" />
  <node id="-79" lat="48.7540445" lon="11.4760029" visible="true" />
  <node id="-80" lat="48.7523166" lon="11.4749880" visible="true" />
  <node id="-81" lat="48.7525069" lon="11.4762237" visible="true" />
  <node id="-82" lat="48.7524112" lon="11.4762576" visible="true" />
  <node id="-83" lat="48.7523943" lon="11.4761475" visible="true" />
  <node id="-84" lat="48.7523077" lon="11.4761781" visible="true" />
  <node id="-85" lat="48.7522881" lon="11.4760506" visible="true" />
  <node id="-86" lat="48.7521748" lon="11.4760907" visible="true" />
  <node id="-87" lat="48.7519865" lon="11.4748678" visible="true" />
  <node id="-88" lat="48.7520729" lon="11.4748372" visible="true" />
  <node id="-89" lat="48.7520873" lon="11.4749306" visible="true" />
  <node id="-90" lat="48.7521825" lon="11.4748968" visible="true" />
  <node id="-91" lat="48.7522028" lon="11.4750283" visible="true" />
  <node id="-92" lat="48.7520893" lon="11.4758828" visible="true" />
  <node id="-93" lat="48.7519529" lon="11.4759313" visible="true" />
  <node id="-94" lat="48.7519870" lon="11.4761519" visible="true" />
  <node id="-95" lat="48.7521234" lon="11.4761034" visible="true" />
  <node id="-96" lat="48.7518716" lon="11.4758630" visible="true" />
  <node id="-97" lat="48.7519163" lon="11.4760645" visible="true" />
  <node id="-98" lat="48.7517772" lon="11.4761355" visible="true" />
  <node id="-99" lat="48.7517325" lon="11.4759340" visible="true" />
  <node id="-100" lat="48.7520267" lon="11.4753804" visible="true" />
  <node id="-101" lat="48.7517721" lon="11.4754866" visible="true" />
  <node id="-102" lat="48.7517603" lon="11.4754214" visible="true" />
  <node id="-103" lat="48.7517885" lon="11.4754097" visible="true" />
  <node id="-104" lat="48.7517801" lon="11.4753632" visible="true" />
  <node id="-105" lat="48.7519261" lon="11.4753023" visible="true" />
  <node id="-106" lat="48.7519062" lon="11.4751922" visible="true" />
  <node id="-107" lat="48.7519866" lon="11.4751588" visible="true" />
  <node id="-108" lat="48.7517230" lon="11.4749795" visible="true" />
  <node id="-109" lat="48.7517512" lon="11.4751332" visible="true" />
  <node id="-110" lat="48.7516324" lon="11.4751834" visible="true" />
  <node id="-111" lat="48.7516042" lon="11.4750297" visible="true" />
  <node id="-112" lat="48.7517630" lon="11.4752288" visible="true" />
  <node id="-113" lat="48.7516634" lon="11.4752707" visible="true" />
  <node id="-114" lat="48.7516801" lon="11.4753621" visible="true" />
  <node id="-115" lat="48.7516617" lon="11.4753698" visible="true" />
  <node id="-116" lat="48.7516794" lon="11.4754666" visible="true" />
  <node id="-117" lat="48.7517391" lon="11.4754415" visible="true" />
  <node id="-118" lat="48.7517256" lon="11.4753675" visible="true" />
  <node id="-119" lat="48.7517839" lon="11.4753430" visible="true" />
  <node id="-120" lat="48.7516300" lon="11.4746554" visible="true" />
  <node id="-121" lat="48.7515465" lon="11.4746905" visible="true" />
  <node id="-122" lat="48.7515811" lon="11.4748805" visible="true" />
  <node id="-123" lat="48.7516647" lon="11.4748453" visible="true" />
  <node id="-124" lat="48.7512076" lon="11.4746000" visible="true" />
  <node id="-125" lat="48.7510207" lon="11.4746735" visible="true" />
  <node id="-126" lat="48.7510627" lon="11.4749196" visible="true" />
  <node id="-127" lat="48.7512497" lon="11.4748461" visible="true" />
  <node id="-128" lat="48.7512627" lon="11.4750483" visible="true" />
  <node id="-129" lat="48.7511521" lon="11.4750933" visible="true" />
  <node id="-130" lat="48.7512037" lon="11.4753850" visible="true" />
  <node id="-131" lat="48.7513163" lon="11.4753391" visible="true" />
  <node id="-132" lat="48.7513029" lon="11.4752636" visible="true" />
  <node id="-133" lat="48.7513560" lon="11.4752420" visible="true" />
  <node id="-134" lat="48.7513265" lon="11.4750752" visible="true" />
  <node id="-135" lat="48.7512715" lon="11.4750976" visible="true" />
  <node id="-136" lat="48.7514580" lon="11.4754263" visible="true" />
  <node id="-137" lat="48.7513376" lon="11.4754738" visible="true" />
  <node id="-138" lat="48.7513514" lon="11.4755543" visible="true" />
  <node id="-139" lat="48.7513797" lon="11.4755431" visible="true" />
  <node id="-140" lat="48.7513918" lon="11.4756137" visible="true" />
  <node id="-141" lat="48.7514167" lon="11.4757588" visible="true" />
  <node id="-142" lat="48.7514855" lon="11.4757316" visible="true" />
  <node id="-143" lat="48.7514713" lon="11.4756490" visible="true" />
  <node id="-144" lat="48.7515193" lon="11.4756301" visible="true" />
  <node id="-145" lat="48.7515056" lon="11.4755502" visible="true" />
  <node id="-146" lat="48.7514809" lon="11.4755599" visible="true" />
  <node id="-147" lat="48.7509309" lon="11.4745679" visible="true" />
  <node id="-148" lat="48.7511982" lon="11.4760347" visible="true" />
  <node id="-149" lat="48.7509049" lon="11.4761576" visible="true" />
  <node id="-150" lat="48.7508891" lon="11.4760710" visible="true" />
  <node id="-151" lat="48.7508096" lon="11.4761043" visible="true" />
  <node id="-152" lat="48.7507621" lon="11.4758431" visible="true" />
  <node id="-153" lat="48.7508247" lon="11.4758169" visible="true" />
  <node id="-154" lat="48.7507988" lon="11.4756748" visible="true" />
  <node id="-155" lat="48.7506567" lon="11.4756267" visible="true" />
  <node id="-156" lat="48.7506080" lon="11.4753596" visible="true" />
  <node id="-157" lat="48.7506342" lon="11.4753486" visible="true" />
  <node id="-158" lat="48.7505287" lon="11.4747703" visible="true" />
  <node id="-159" lat="48.7505871" lon="11.4747458" visible="true" />
  <node id="-160" lat="48.7505813" lon="11.4747144" visible="true" />
  <node id="-161" lat="48.7505346" lon="11.4753867" visible="true" />
  <node id="-162" lat="48.7503440" lon="11.4754612" visible="true" />
  <node id="-163" lat="48.7504798" lon="11.4762611" visible="true" />
  <node id="-164" lat="48.7506705" lon="11.4761866" visible="true" />
  <node id="-165" lat="48.7501304" lon="11.4756587" visible="true" />
  <node id="-166" lat="48.7499487" lon="11.4757275" visible="true" />
  <node id="-167" lat="48.7500255" lon="11.4761937" visible="true" />
  <node id="-168" lat="48.7502072" lon="11.4761249" visible="true" />
  <node id="-169" lat="48.7500233" lon="11.4751420" visible="true" />
  <node id="-170" lat="48.7500836" lon="11.4754118" visible="true" />
  <node id="-171" lat="48.7497406" lon="11.4755882" visible="true" />
  <node id="-172" lat="48.7496803" lon="11.4753184" visible="true" />
  <node id="-173" lat="48.7538927" lon="11.4770432" visible="true" />
  <node id="-174" lat="48.7535891" lon="11.4769203" visible="true" />
  <node id="-175" lat="48.7535657" lon="11.4770533" visible="true" />
  <node id="-176" lat="48.7538693" lon="11.4771763" visible="true" />
  <node id="-177" lat="48.7516051" lon="11.4763817" visible="true" />
  <node id="-178" lat="48.7514831" lon="11.4764431" visible="true" />
  <node id="-179" lat="48.7513583" lon="11.4765059" visible="true" />
  <node id="-180" lat="48.7514046" lon="11.4767176" visible="true" />
  <node id="-181" lat="48.7516514" lon="11.4765934" visible="true" />
  <node id="-182" lat="48.7511942" lon="11.4766460" visible="true" />
  <node id="-183" lat="48.7511755" lon="11.4766492" visible="true" />
  <node id="-184" lat="48.7511718" lon="11.4766009" visible="true" />
  <node id="-185" lat="48.7511306" lon="11.4766081" visible="true" />
  <node id="-186" lat="48.7510495" lon="11.4766222" visible="true" />
  <node id="-187" lat="48.7510662" lon="11.4768425" visible="true" />
  <node id="-188" lat="48.7510905" lon="11.4768383" visible="true" />
  <node id="-189" lat="48.7510919" lon="11.4768571" visible="true" />
  <node id="-190" lat="48.7512087" lon="11.4768367" visible="true" />
  <node id="-191" lat="48.7509763" lon="11.4767678" visible="true" />
  <node id="-192" lat="48.7508455" lon="11.4768338" visible="true" />
  <node id="-193" lat="48.7508828" lon="11.4770034" visible="true" />
  <node id="-194" lat="48.7510135" lon="11.4769374" visible="true" />
  <node id="-195" lat="48.7507531" lon="11.4738143" visible="true" />
  <node id="-196" lat="48.7505551" lon="11.4739114" visible="true" />
  <node id="-197" lat="48.7505598" lon="11.4739334" visible="true" />
  <node id="-198" lat="48.7504331" lon="11.4739956" visible="true" />
  <node id="-199" lat="48.7504848" lon="11.4742381" visible="true" />
  <node id="-200" lat="48.7508096" lon="11.4740788" visible="true" />
  <node id="-201" lat="48.7502659" lon="11.4763561" visible="true" />
  <node id="-202" lat="48.7501665" lon="11.4763938" visible="true" />
  <node id="-203" lat="48.7501343" lon="11.4761986" visible="true" />
  <node id="-204" lat="48.7502338" lon="11.4761610" visible="true" />
  <node id="-205" lat="48.7572237" lon="11.4781788" visible="true" />
  <node id="-206" lat="48.7571448" lon="11.4781468" visible="true" />
  <node id="-207" lat="48.7571731" lon="11.4779858" visible="true" />
  <node id="-208" lat="48.7572521" lon="11.4780178" visible="true" />
  <node id="-209" lat="48.7564578" lon="11.4773364" visible="true" />
  <node id="-210" lat="48.7563915" lon="11.4773063" visible="true" />
  <node id="-211" lat="48.7564905" lon="11.4768044" visible="true" />
  <node id="-212" lat="48.7565568" lon="11.4768346" visible="true" />
  <node id="-213" lat="48.7558529" lon="11.4758796" visible="true" />
  <node id="-214" lat="48.7558570" lon="11.4757798" visible="true" />
  <node id="-215" lat="48.7560205" lon="11.4757951" visible="true" />
  <node id="-216" lat="48.7560164" lon="11.4758950" visible="true" />
  <node id="-217" lat="48.7562239" lon="11.4770551" visible="true" />
  <node id="-218" lat="48.7561466" lon="11.4770419" visible="true" />
  <node id="-219" lat="48.7561740" lon="11.4766743" visible="true" />
  <node id="-220" lat="48.7562513" lon="11.4766875" visible="true" />
  <node id="-221" lat="48.7567409" lon="11.4771362" visible="true" />
  <node id="-222" lat="48.7566923" lon="11.4774044" visible="true" />
  <node id="-223" lat="48.7566056" lon="11.4773682" visible="true" />
  <node id="-224" lat="48.7566542" lon="11.4771000" visible="true" />
  <node id="-225" lat="48.7563903" lon="11.4767610" visible="true" />
  <node id="-226" lat="48.7563545" lon="11.4771191" visible="true" />
  <node id="-227" lat="48.7562780" lon="11.4771014" visible="true" />
  <node id="-228" lat="48.7563138" lon="11.4767434" visible="true" />
  <node id="-229" lat="48.7562401" lon="11.4775839" visible="true" />
  <node id="-230" lat="48.7561704" lon="11.4783615" visible="true" />
  <node id="-231" lat="48.7560766" lon="11.4783421" visible="true" />
  <node id="-232" lat="48.7561463" lon="11.4775646" visible="true" />
  <node id="-233" lat="48.7568350" lon="11.4777319" visible="true" />
  <node id="-234" lat="48.7566725" lon="11.4776682" visible="true" />
  <node id="-235" lat="48.7566904" lon="11.4775627" visible="true" />
  <node id="-236" lat="48.7568530" lon="11.4776263" visible="true" />
  <node id="-237" lat="48.7545232" lon="11.4772868" visible="true" />
  <node id="-238" lat="48.7545021" lon="11.4774170" visible="true" />
  <node id="-239" lat="48.7541996" lon="11.4773050" visible="true" />
  <node id="-240" lat="48.7542206" lon="11.4771748" visible="true" />
  <node id="-241" lat="48.7513168" lon="11.4749575" visible="true" />
  <node id="-242" lat="48.7510860" lon="11.4750480" visible="true" />
  <node id="-243" lat="48.7510683" lon="11.4749441" visible="true" />
  <node id="-244" lat="48.7512991" lon="11.4748536" visible="true" />
  <node id="-245" lat="48.7512946" lon="11.4745657" visible="true" />
  <node id="-246" lat="48.7513366" lon="11.4748119" visible="true" />
  <node id="-247" lat="48.7514240" lon="11.4758016" visible="true" />
  <node id="-248" lat="48.7512353" lon="11.4758761" visible="true" />
  <node id="-249" lat="48.7512030" lon="11.4756882" visible="true" />
  <node id="-250" lat="48.7515044" lon="11.4758050" visible="true" />
  <node id="-251" lat="48.7515265" lon="11.4759366" visible="true" />
  <node id="-252" lat="48.7513702" lon="11.4759970" visible="true" />
  <node id="-253" lat="48.7513497" lon="11.4758748" visible="true" />
  <node id="-254" lat="48.7513482" lon="11.4758654" visible="true" />
  <node id="-255" lat="48.7512894" lon="11.4761506" visible="true" />
  <node id="-256" lat="48.7512496" lon="11.4759135" visible="true" />
  <node id="-257" lat="48.7513895" lon="11.4761119" visible="true" />
  <node id="-258" lat="48.7551000" lon="11.4767209" visible="true" />
  <node id="-259" lat="48.7551032" lon="11.4768858" visible="true" />
  <node id="-260" lat="48.7550259" lon="11.4768892" visible="true" />
  <node id="-261" lat="48.7550227" lon="11.4767243" visible="true" />
  <node id="-262" lat="48.7531240" lon="11.4767174" visible="true" />
  <node id="-263" lat="48.7531030" lon="11.4768536" visible="true" />
  <node id="-264" lat="48.7529961" lon="11.4768156" visible="true" />
  <node id="-265" lat="48.7530171" lon="11.4766795" visible="true" />
  <node id="-266" lat="48.7551841" lon="11.4756517" visible="true" />
  <node id="-267" lat="48.7551636" lon="11.4760992" visible="true" />
  <node id="-268" lat="48.7549999" lon="11.4760820" visible="true" />
  <node id="-269" lat="48.7550204" lon="11.4756345" visible="true" />
  <node id="-270" lat="48.7505228" lon="11.4743127" visible="true" />
  <node id="-271" lat="48.7507055" lon="11.4742274" visible="true" />
  <node id="-272" lat="48.7507448" lon="11.4744209" visible="true" />
  <node id="-273" lat="48.7505621" lon="11.4745062" visible="true" />
  <node id="-274" lat="48.7541675" lon="11.4746709" visible="true" />
  <node id="-275" lat="48.7541654" lon="11.4748079" visible="true" />
  <node id="-276" lat="48.7541223" lon="11.4748046" visible="true" />
  <node id="-277" lat="48.7540793" lon="11.4758717" visible="true" />
  <node id="-278" lat="48.7537759" lon="11.4758587" visible="true" />
  <node id="-279" lat="48.7538104" lon="11.4747916" visible="true" />
  <node id="-280" lat="48.7537136" lon="11.4747818" visible="true" />
  <node id="-281" lat="48.7537179" lon="11.4746350" visible="true" />
  <node id="-282" lat="48.7548517" lon="11.4751375" visible="true" />
  <node id="-283" lat="48.7548172" lon="11.4759729" visible="true" />
  <node id="-284" lat="48.7542062" lon="11.4759305" visible="true" />
  <node id="-285" lat="48.7542234" lon="11.4750983" visible="true" />
  <node id="-286" lat="48.7544407" lon="11.4751147" visible="true" />
  <node id="-287" lat="48.7544450" lon="11.4750363" visible="true" />
  <node id="-288" lat="48.7546537" lon="11.4750461" visible="true" />
  <node id="-289" lat="48.7546559" lon="11.4751277" visible="true" />
  <node id="-290" lat="48.7544752" lon="11.4745925" visible="true" />
  <node id="-291" lat="48.7544622" lon="11.4749776" visible="true" />
  <node id="-292" lat="48.7543783" lon="11.4749678" visible="true" />
  <node id="-293" lat="48.7543590" lon="11.4747263" visible="true" />
  <node id="-294" lat="48.7544192" lon="11.4747329" visible="true" />
  <node id="-295" lat="48.7544235" lon="11.4745795" visible="true" />
  <node id="-296" lat="48.7507428" lon="11.4766213" visible="true" />
  <node id="-297" lat="48.7507867" lon="11.4768275" visible="true" />
  <node id="-298" lat="48.7504903" lon="11.4769728" visible="true" />
  <node id="-299" lat="48.7504464" lon="11.4767665" visible="true" />
  <node id="-300" lat="48.7545840" lon="11.4774473" visible="true" />
  <node id="-301" lat="48.7546051" lon="11.4773171" visible="true" />
  <node id="-302" lat="48.7573889" lon="11.4781122" visible="true" />
  <node id="-303" lat="48.7574142" lon="11.4781195" visible="true" />
  <node id="-304" lat="48.7574409" lon="11.4781591" visible="true" />
  <node id="-305" lat="48.7574310" lon="11.4782422" visible="true" />
  <node id="-306" lat="48.7573982" lon="11.4782616" visible="true" />
  <node id="-307" lat="48.7573712" lon="11.4782538" visible="true" />
  <node id="-308" lat="48.7519741" lon="11.4768925" visible="true" />
  <node id="-309" lat="48.7520506" lon="11.4772481" visible="true" />
  <node id="-310" lat="48.7520792" lon="11.4773811" visible="true" />
  <node id="-311" lat="48.7521721" lon="11.4778128" visible="true" />
  <node id="-312" lat="48.7527195" lon="11.4775418" visible="true" />
  <node id="-313" lat="48.7525768" lon="11.4768786" visible="true" />
  <node id="-314" lat="48.7523334" lon="11.4769990" visible="true" />
  <node id="-315" lat="48.7523044" lon="11.4770134" visible="true" />
  <node id="-316" lat="48.7522491" lon="11.4767564" visible="true" />
  <node id="-317" lat="48.7526802" lon="11.4787741" visible="true" />
  <node id="-318" lat="48.7524079" lon="11.4789101" visible="true" />
  <node id="-319" lat="48.7526849" lon="11.4801869" visible="true" />
  <node id="-320" lat="48.7529574" lon="11.4800508" visible="true" />
  <node id="-321" lat="48.7512416" lon="11.4787362" visible="true" />
  <node id="-322" lat="48.7511489" lon="11.4783139" visible="true" />
  <node id="-323" lat="48.7509477" lon="11.4784155" visible="true" />
  <node id="-324" lat="48.7510405" lon="11.4788378" visible="true" />
  <node id="-325" lat="48.7511404" lon="11.4787873" visible="true" />
  <node id="-326" lat="48.7499084" lon="11.4773120" visible="true" />
  <node id="-327" lat="48.7499283" lon="11.4774202" visible="true" />
  <node id="-328" lat="48.7500387" lon="11.4773734" visible="true" />
  <node id="-329" lat="48.7500187" lon="11.4772652" visible="true" />
  <node id="-330" lat="48.7534021" lon="11.4784401" visible="true" />
  <node id="-331" lat="48.7532388" lon="11.4785232" visible="true" />
  <node id="-332" lat="48.7532893" lon="11.4787515" visible="true" />
  <node id="-333" lat="48.7534526" lon="11.4786684" visible="true" />
  <node id="-334" lat="48.7531853" lon="11.4785607" visible="true" />
  <node id="-335" lat="48.7529879" lon="11.4786612" visible="true" />
  <node id="-336" lat="48.7530136" lon="11.4787775" visible="true" />
  <node id="-337" lat="48.7530444" lon="11.4787619" visible="true" />
  <node id="-338" lat="48.7530682" lon="11.4788697" visible="true" />
  <node id="-339" lat="48.7532349" lon="11.4787849" visible="true" />
  <node id="-340" lat="48.7516778" lon="11.4746353" visible="true" />
  <node id="-341" lat="48.7517125" lon="11.4748253" visible="true" />
  <node id="-342" lat="48.7507117" lon="11.4785284" visible="true" />
  <node id="-343" lat="48.7507832" lon="11.4788558" visible="true" />
  <node id="-344" lat="48.7507933" lon="11.4789021" visible="true" />
  <node id="-345" lat="48.7508034" lon="11.4789485" visible="true" />
  <node id="-346" lat="48.7508210" lon="11.4790289" visible="true" />
  <node id="-347" lat="48.7508515" lon="11.4791685" visible="true" />
  <node id="-348" lat="48.7506030" lon="11.4792935" visible="true" />
  <node id="-349" lat="48.7503608" lon="11.4794155" visible="true" />
  <node id="-350" lat="48.7503297" lon="11.4792733" visible="true" />
  <node id="-351" lat="48.7503143" lon="11.4792030" visible="true" />
  <node id="-352" lat="48.7503035" lon="11.4791537" visible="true" />
  <node id="-353" lat="48.7502927" lon="11.4791043" visible="true" />
  <node id="-354" lat="48.7502208" lon="11.4787766" visible="true" />
  <node id="-355" lat="48.7503629" lon="11.4787047" visible="true" />
  <node id="-356" lat="48.7505640" lon="11.4786031" visible="true" />
  <node id="-357" lat="48.7512966" lon="11.4782392" visible="true" />
  <node id="-358" lat="48.7513681" lon="11.4785666" visible="true" />
  <node id="-359" lat="48.7513782" lon="11.4786130" visible="true" />
  <node id="-360" lat="48.7513883" lon="11.4786593" visible="true" />
  <node id="-361" lat="48.7514014" lon="11.4787191" visible="true" />
  <node id="-362" lat="48.7514363" lon="11.4788793" visible="true" />
  <node id="-363" lat="48.7511878" lon="11.4790043" visible="true" />
  <node id="-364" lat="48.7509457" lon="11.4791263" visible="true" />
  <node id="-365" lat="48.7509148" lon="11.4789853" visible="true" />
  <node id="-366" lat="48.7508991" lon="11.4789138" visible="true" />
  <node id="-367" lat="48.7508883" lon="11.4788645" visible="true" />
  <node id="-368" lat="48.7508776" lon="11.4788151" visible="true" />
  <node id="-369" lat="48.7508056" lon="11.4784875" visible="true" />
  <node id="-370" lat="48.7506004" lon="11.4775492" visible="true" />
  <node id="-371" lat="48.7508425" lon="11.4774274" visible="true" />
  <node id="-372" lat="48.7510910" lon="11.4773022" visible="true" />
  <node id="-373" lat="48.7511258" lon="11.4774609" visible="true" />
  <node id="-374" lat="48.7511392" lon="11.4775222" visible="true" />
  <node id="-375" lat="48.7511494" lon="11.4775685" visible="true" />
  <node id="-376" lat="48.7511596" lon="11.4776148" visible="true" />
  <node id="-377" lat="48.7512314" lon="11.4779421" visible="true" />
  <node id="-378" lat="48.7510835" lon="11.4780161" visible="true" />
  <node id="-379" lat="48.7508822" lon="11.4781171" visible="true" />
  <node id="-380" lat="48.7507400" lon="11.4781883" visible="true" />
  <node id="-381" lat="48.7506684" lon="11.4778605" visible="true" />
  <node id="-382" lat="48.7506576" lon="11.4778111" visible="true" />
  <node id="-383" lat="48.7506468" lon="11.4777618" visible="true" />
  <node id="-384" lat="48.7506368" lon="11.4777160" visible="true" />
  <node id="-385" lat="48.7505099" lon="11.4775907" visible="true" />
  <node id="-386" lat="48.7505471" lon="11.4777604" visible="true" />
  <node id="-387" lat="48.7505581" lon="11.4778107" visible="true" />
  <node id="-388" lat="48.7505683" lon="11.4778570" visible="true" />
  <node id="-389" lat="48.7505785" lon="11.4779033" visible="true" />
  <node id="-390" lat="48.7506503" lon="11.4782305" visible="true" />
  <node id="-391" lat="48.7505024" lon="11.4783046" visible="true" />
  <node id="-392" lat="48.7503011" lon="11.4784056" visible="true" />
  <node id="-393" lat="48.7501589" lon="11.4784768" visible="true" />
  <node id="-394" lat="48.7500873" lon="11.4781490" visible="true" />
  <node id="-395" lat="48.7500765" lon="11.4780996" visible="true" />
  <node id="-396" lat="48.7500657" lon="11.4780503" visible="true" />
  <node id="-397" lat="48.7500530" lon="11.4779920" visible="true" />
  <node id="-398" lat="48.7500193" lon="11.4778377" visible="true" />
  <node id="-399" lat="48.7502614" lon="11.4777159" visible="true" />
  <node id="-400" lat="48.7531324" lon="11.4776657" visible="true" />
  <node id="-401" lat="48.7530633" lon="11.4776963" visible="true" />
  <node id="-402" lat="48.7530786" lon="11.4777760" visible="true" />
  <node id="-403" lat="48.7530864" lon="11.4778143" visible="true" />
  <node id="-404" lat="48.7531555" lon="11.4777836" visible="true" />
  <node id="-405" lat="48.7530259" lon="11.4777993" visible="true" />
  <node id="-406" lat="48.7530112" lon="11.4777228" visible="true" />
  <node id="-407" lat="48.7529377" lon="11.4773401" visible="true" />
  <node id="-408" lat="48.7529228" lon="11.4772625" visible="true" />
  <node id="-409" lat="48.7530004" lon="11.4772282" visible="true" />
  <node id="-410" lat="48.7530090" lon="11.4772730" visible="true" />
  <node id="-411" lat="48.7530532" lon="11.4772535" visible="true" />
  <node id="-412" lat="48.7531205" lon="11.4776035" visible="true" />
  <node id="-413" lat="48.7550590" lon="11.4784458" visible="true" />
  <node id="-414" lat="48.7555251" lon="11.4805355" visible="true" />
  <node id="-415" lat="48.7561546" lon="11.4802120" visible="true" />
  <node id="-416" lat="48.7559568" lon="11.4792702" visible="true" />
  <node id="-417" lat="48.7557934" lon="11.4788085" visible="true" />
  <node id="-418" lat="48.7556300" lon="11.4785398" visible="true" />
  <node id="-419" lat="48.7554185" lon="11.4783076" visible="true" />
  <node id="-420" lat="48.7553772" lon="11.4782580" visible="true" />
  <way id="-1000000000" visible="true">
    <nd ref="-1" />
    <nd ref="-2" />
    <nd ref="-3" />
    <nd ref="-4" />
    <nd ref="-5" />
    <nd ref="-6" />
    <nd ref="-7" />
    <nd ref="-8" />
    <nd ref="-9" />
    <nd ref="-1" />
    <tag k="access" v="permissive" />
    <tag k="amenity" v="parking" />
    <tag k="building" v="yes" />
    <tag k="fee" v="no" />
    <tag k="parking" v="multi-storey" />
  </way>
  <way id="-1000000001" visible="true">
    <nd ref="-10" />
    <nd ref="-11" />
    <nd ref="-12" />
    <nd ref="-13" />
    <nd ref="-14" />
    <nd ref="-15" />
    <nd ref="-10" />
    <tag k="building" v="yes" />
  </way>
  <way id="-1000000002" visible="true">
    <nd ref="-16" />
    <nd ref="-17" />
    <nd ref="-18" />
    <nd ref="-19" />
    <nd ref="-16" />
    <tag k="building" v="yes" />
  </way>
  <way id="-1000000003" visible="true">
    <nd ref="-20" />
    <nd ref="-21" />
    <nd ref="-22" />
    <nd ref="-23" />
    <nd ref="-20" />
    <tag k="building" v="yes" />
  </way>
  <way id="-1000000004" visible="true">
    <nd ref="-24" />
    <nd ref="-25" />
    <nd ref="-26" />
    <nd ref="-27" />
    <nd ref="-24" />
    <tag k="building" v="yes" />
  </way>
  <way id="-1000000005" visible="true">
    <nd ref="-28" />
    <nd ref="-27" />
    <nd ref="-26" />
    <nd ref="-29" />
    <nd ref="-30" />
    <nd ref="-31" />
    <nd ref="-28" />
    <tag k="building" v="yes" />
  </way>
  <way id="-1000000006" visible="true">
    <nd ref="-32" />
    <nd ref="-33" />
    <nd ref="-34" />
    <nd ref="-35" />
    <nd ref="-32" />
    <tag k="building" v="yes" />
  </way>
  <way id="-1000000007" visible="true">
    <nd ref="-36" />
    <nd ref="-37" />
    <nd ref="-38" />
    <nd ref="-39" />
    <nd ref="-36" />
    <tag k="building" v="yes" />
  </way>
  <way id="-1000000008" visible="true">
    <nd ref="-40" />
    <nd ref="-41" />
    <nd ref="-42" />
    <nd ref="-43" />
    <nd ref="-40" />
    <tag k="building" v="yes" />
  </way>
  <way id="-1000000009" visible="true">
    <nd ref="-44" />
    <nd ref="-45" />
    <nd ref="-46" />
    <nd ref="-47" />
    <nd ref="-48" />
    <nd ref="-49" />
    <nd ref="-50" />
    <nd ref="-44" />
    <tag k="building" v="yes" />
  </way>
  <way id="-1000000010" visible="true">
    <nd ref="-51" />
    <nd ref="-52" />
    <nd ref="-53" />
    <nd ref="-54" />
    <nd ref="-55" />
    <nd ref="-56" />
    <nd ref="-57" />
    <nd ref="-51" />
    <tag k="building" v="warehouse" />
  </way>
  <way id="-1000000011" visible="true">
    <nd ref="-58" />
    <nd ref="-59" />
    <nd ref="-60" />
    <nd ref="-61" />
    <nd ref="-58" />
    <tag k="building" v="industrial" />
  </way>
  <way id="-1000000012" visible="true">
    <nd ref="-62" />
    <nd ref="-63" />
    <nd ref="-64" />
    <nd ref="-65" />
    <nd ref="-66" />
    <nd ref="-67" />
    <nd ref="-62" />
    <tag k="building" v="industrial" />
  </way>
  <way id="-1000000013" visible="true">
    <nd ref="-68" />
    <nd ref="-69" />
    <nd ref="-70" />
    <nd ref="-71" />
    <nd ref="-68" />
    <tag k="building" v="industrial" />
  </way>
  <way id="-1000000014" visible="true">
    <nd ref="-72" />
    <nd ref="-73" />
    <nd ref="-74" />
    <nd ref="-75" />
    <nd ref="-76" />
    <nd ref="-77" />
    <nd ref="-72" />
    <tag k="building" v="industrial" />
  </way>
  <way id="-1000000015" visible="true">
    <nd ref="-78" />
    <nd ref="-52" />
    <nd ref="-53" />
    <nd ref="-62" />
    <nd ref="-67" />
    <nd ref="-79" />
    <nd ref="-78" />
    <tag k="building" v="industrial" />
  </way>
  <way id="-1000000016" visible="true">
    <nd ref="-80" />
    <nd ref="-81" />
    <nd ref="-82" />
    <nd ref="-83" />
    <nd ref="-84" />
    <nd ref="-85" />
    <nd ref="-86" />
    <nd ref="-87" />
    <nd ref="-88" />
    <nd ref="-89" />
    <nd ref="-90" />
    <nd ref="-91" />
    <nd ref="-80" />
    <tag k="building" v="yes" />
  </way>
  <way id="-1000000017" visible="true">
    <nd ref="-92" />
    <nd ref="-93" />
    <nd ref="-94" />
    <nd ref="-95" />
    <nd ref="-92" />
    <tag k="building" v="yes" />
  </way>
  <way id="-1000000018" visible="true">
    <nd ref="-96" />
    <nd ref="-97" />
    <nd ref="-98" />
    <nd ref="-99" />
    <nd ref="-96" />
    <tag k="building" v="yes" />
  </way>
  <way id="-1000000019" visible="true">
    <nd ref="-100" />
    <nd ref="-101" />
    <nd ref="-102" />
    <nd ref="-103" />
    <nd ref="-104" />
    <nd ref="-105" />
    <nd ref="-106" />
    <nd ref="-107" />
    <nd ref="-100" />
    <tag k="building" v="yes" />
  </way>
  <way id="-1000000020" visible="true">
    <nd ref="-108" />
    <nd ref="-109" />
    <nd ref="-110" />
    <nd ref="-111" />
    <nd ref="-108" />
    <tag k="building" v="yes" />
  </way>
  <way id="-1000000021" visible="true">
    <nd ref="-112" />
    <nd ref="-113" />
    <nd ref="-114" />
    <nd ref="-115" />
    <nd ref="-116" />
    <nd ref="-117" />
    <nd ref="-118" />
    <nd ref="-119" />
    <nd ref="-112" />
    <tag k="building" v="yes" />
  </way>
  <way id="-1000000022" visible="true">
    <nd ref="-120" />
    <nd ref="-121" />
    <nd ref="-122" />
    <nd ref="-123" />
    <nd ref="-120" />
    <tag k="building" v="yes" />
  </way>
  <way id="-1000000023" visible="true">
    <nd ref="-124" />
    <nd ref="-125" />
    <nd ref="-126" />
    <nd ref="-127" />
    <nd ref="-124" />
    <tag k="building" v="yes" />
    <tag k="source" v="HiRes aerial imagery" />
  </way>
  <way id="-1000000024" visible="true">
    <nd ref="-128" />
    <nd ref="-129" />
    <nd ref="-130" />
    <nd ref="-131" />
    <nd ref="-132" />
    <nd ref="-133" />
    <nd ref="-134" />
    <nd ref="-135" />
    <nd ref="-128" />
    <tag k="building" v="house" />
    <tag k="source" v="HiRes aerial imagery" />
  </way>
  <way id="-1000000025" visible="true">
    <nd ref="-136" />
    <nd ref="-137" />
    <nd ref="-138" />
    <nd ref="-139" />
    <nd ref="-140" />
    <nd ref="-141" />
    <nd ref="-142" />
    <nd ref="-143" />
    <nd ref="-144" />
    <nd ref="-145" />
    <nd ref="-146" />
    <nd ref="-136" />
    <tag k="building" v="house" />
    <tag k="source" v="HiRes aerial imagery" />
  </way>
  <way id="-1000000026" visible="true">
    <nd ref="-147" />
    <nd ref="-148" />
    <nd ref="-149" />
    <nd ref="-150" />
    <nd ref="-151" />
    <nd ref="-152" />
    <nd ref="-153" />
    <nd ref="-154" />
    <nd ref="-155" />
    <nd ref="-156" />
    <nd ref="-157" />
    <nd ref="-158" />
    <nd ref="-159" />
    <nd ref="-160" />
    <nd ref="-147" />
    <tag k="building" v="yes" />
    <tag k="note" v="ehm. Meisterkauf" />
  </way>
  <way id="-1000000027" visible="true">
    <nd ref="-161" />
    <nd ref="-162" />
    <nd ref="-163" />
    <nd ref="-164" />
    <nd ref="-161" />
    <tag k="building" v="yes" />
    <tag k="note" v="ehm. Reno" />
  </way>
  <way id="-1000000028" visible="true">
    <nd ref="-165" />
    <nd ref="-166" />
    <nd ref="-167" />
    <nd ref="-168" />
    <nd ref="-165" />
    <tag k="addr:city" v="Ingolstadt" />
    <tag k="addr:country" v="DE" />
    <tag k="addr:housenumber" v="2" />
    <tag k="addr:postcode" v="85053" />
    <tag k="addr:street" v="Kälberschüttstraße" />
    <tag k="building" v="yes" />
    <tag k="name" v="Donau Holz Fachmarkt" />
    <tag k="opening_hours" v="Mo-Fr 09:00-19:00; Sa 09:00-16:00" />
    <tag k="operator" v="Donau Holz Fachmarkt GmbH" />
    <tag k="phone" v="+49 841 62148" />
    <tag k="shop" v="furniture" />
    <tag k="website" v="https://donauholz.net/" />
    <tag k="wheelchair" v="yes" />
  </way>
  <way id="-1000000029" visible="true">
    <nd ref="-169" />
    <nd ref="-170" />
    <nd ref="-171" />
    <nd ref="-172" />
    <nd ref="-169" />
    <tag k="building" v="yes" />
  </way>
  <way id="-1000000030" visible="true">
    <nd ref="-173" />
    <nd ref="-174" />
    <nd ref="-175" />
    <nd ref="-176" />
    <nd ref="-173" />
    <tag k="addr:housename" v="Elektro Schranz" />
    <tag k="addr:housenumber" v="11" />
    <tag k="addr:postcode" v="85053" />
    <tag k="addr:street" v="Kälberschüttstraße" />
    <tag k="building" v="industrial" />
    <tag k="fax" v="+49 841 32619" />
    <tag k="name" v="Elektro Schranz" />
    <tag k="phone" v="+49 841 32655" />
    <tag k="source" v="HiRes aerial imagery" />
    <tag k="website" v="https://elektro-schranz.de/" />
  </way>
  <way id="-1000000031" visible="true">
    <nd ref="-177" />
    <nd ref="-178" />
    <nd ref="-179" />
    <nd ref="-180" />
    <nd ref="-181" />
    <nd ref="-177" />
    <tag k="building" v="yes" />
    <tag k="building:levels" v="2" />
    <tag k="roof:shape" v="flat" />
    <tag k="source" v="HiRes aerial imagery" />
  </way>
  <way id="-1000000032" visible="true">
    <nd ref="-182" />
    <nd ref="-183" />
    <nd ref="-184" />
    <nd ref="-185" />
    <nd ref="-186" />
    <nd ref="-187" />
    <nd ref="-188" />
    <nd ref="-189" />
    <nd ref="-190" />
    <nd ref="-182" />
    <tag k="building" v="yes" />
    <tag k="building:levels" v="1" />
  </way>
  <way id="-1000000033" visible="true">
    <nd ref="-191" />
    <nd ref="-192" />
    <nd ref="-193" />
    <nd ref="-194" />
    <nd ref="-191" />
    <tag k="building" v="yes" />
    <tag k="source" v="HiRes aerial imagery" />
  </way>
  <way id="-1000000034" visible="true">
    <nd ref="-195" />
    <nd ref="-196" />
    <nd ref="-197" />
    <nd ref="-198" />
    <nd ref="-199" />
    <nd ref="-200" />
    <nd ref="-195" />
    <tag k="building" v="yes" />
  </way>
  <way id="-1000000035" visible="true">
    <nd ref="-201" />
    <nd ref="-202" />
    <nd ref="-203" />
    <nd ref="-204" />
    <nd ref="-201" />
    <tag k="building" v="yes" />
  </way>
  <way id="-1000000036" visible="true">
    <nd ref="-205" />
    <nd ref="-206" />
    <nd ref="-207" />
    <nd ref="-208" />
    <nd ref="-205" />
    <tag k="building" v="yes" />
    <tag k="source" v="HiRes aerial imagery" />
  </way>
  <way id="-1000000037" visible="true">
    <nd ref="-209" />
    <nd ref="-210" />
    <nd ref="-211" />
    <nd ref="-212" />
    <nd ref="-209" />
    <tag k="building" v="yes" />
  </way>
  <way id="-1000000038" visible="true">
    <nd ref="-213" />
    <nd ref="-214" />
    <nd ref="-215" />
    <nd ref="-216" />
    <nd ref="-213" />
    <tag k="building" v="yes" />
  </way>
  <way id="-1000000039" visible="true">
    <nd ref="-217" />
    <nd ref="-218" />
    <nd ref="-219" />
    <nd ref="-220" />
    <nd ref="-217" />
    <tag k="building" v="yes" />
  </way>
  <way id="-1000000040" visible="true">
    <nd ref="-221" />
    <nd ref="-222" />
    <nd ref="-223" />
    <nd ref="-224" />
    <nd ref="-221" />
    <tag k="building" v="yes" />
  </way>
  <way id="-1000000041" visible="true">
    <nd ref="-225" />
    <nd ref="-226" />
    <nd ref="-227" />
    <nd ref="-228" />
    <nd ref="-225" />
    <tag k="building" v="yes" />
  </way>
  <way id="-1000000042" visible="true">
    <nd ref="-229" />
    <nd ref="-230" />
    <nd ref="-231" />
    <nd ref="-232" />
    <nd ref="-229" />
    <tag k="building" v="yes" />
    <tag k="source" v="HiRes aerial imagery" />
  </way>
  <way id="-1000000043" visible="true">
    <nd ref="-233" />
    <nd ref="-234" />
    <nd ref="-235" />
    <nd ref="-236" />
    <nd ref="-233" />
    <tag k="building" v="yes" />
  </way>
  <way id="-1000000044" visible="true">
    <nd ref="-237" />
    <nd ref="-238" />
    <nd ref="-239" />
    <nd ref="-240" />
    <nd ref="-237" />
    <tag k="building" v="yes" />
  </way>
  <way id="-1000000045" visible="true">
    <nd ref="-241" />
    <nd ref="-242" />
    <nd ref="-243" />
    <nd ref="-244" />
    <nd ref="-241" />
    <tag k="building" v="yes" />
    <tag k="source" v="HiRes aerial imagery" />
  </way>
  <way id="-1000000046" visible="true">
    <nd ref="-245" />
    <nd ref="-246" />
    <nd ref="-127" />
    <nd ref="-124" />
    <nd ref="-245" />
    <tag k="building" v="yes" />
    <tag k="source" v="HiRes aerial imagery" />
  </way>
  <way id="-1000000047" visible="true">
    <nd ref="-140" />
    <nd ref="-141" />
    <nd ref="-247" />
    <nd ref="-248" />
    <nd ref="-249" />
    <nd ref="-140" />
    <tag k="building" v="yes" />
    <tag k="source" v="HiRes aerial imagery" />
  </way>
  <way id="-1000000048" visible="true">
    <nd ref="-250" />
    <nd ref="-251" />
    <nd ref="-252" />
    <nd ref="-253" />
    <nd ref="-254" />
    <nd ref="-250" />
    <tag k="building" v="yes" />
    <tag k="source" v="HiRes aerial imagery" />
  </way>
  <way id="-1000000049" visible="true">
    <nd ref="-255" />
    <nd ref="-256" />
    <nd ref="-253" />
    <nd ref="-252" />
    <nd ref="-257" />
    <nd ref="-255" />
    <tag k="building" v="house" />
    <tag k="source" v="HiRes aerial imagery" />
  </way>
  <way id="-1000000050" visible="true">
    <nd ref="-258" />
    <nd ref="-259" />
    <nd ref="-260" />
    <nd ref="-261" />
    <nd ref="-258" />
    <tag k="building" v="yes" />
  </way>
  <way id="-1000000051" visible="true">
    <nd ref="-262" />
    <nd ref="-263" />
    <nd ref="-264" />
    <nd ref="-265" />
    <nd ref="-262" />
    <tag k="building" v="yes" />
  </way>
  <way id="-1000000052" visible="true">
    <nd ref="-266" />
    <nd ref="-267" />
    <nd ref="-268" />
    <nd ref="-269" />
    <nd ref="-266" />
    <tag k="building" v="yes" />
  </way>
  <way id="-1000000053" visible="true">
    <nd ref="-270" />
    <nd ref="-271" />
    <nd ref="-272" />
    <nd ref="-273" />
    <nd ref="-270" />
    <tag k="building" v="yes" />
  </way>
  <way id="-1000000054" visible="true">
    <nd ref="-274" />
    <nd ref="-275" />
    <nd ref="-276" />
    <nd ref="-277" />
    <nd ref="-278" />
    <nd ref="-279" />
    <nd ref="-280" />
    <nd ref="-281" />
    <nd ref="-274" />
    <tag k="building" v="yes" />
  </way>
  <way id="-1000000055" visible="true">
    <nd ref="-282" />
    <nd ref="-283" />
    <nd ref="-284" />
    <nd ref="-285" />
    <nd ref="-286" />
    <nd ref="-287" />
    <nd ref="-288" />
    <nd ref="-289" />
    <nd ref="-282" />
    <tag k="building" v="yes" />
  </way>
  <way id="-1000000056" visible="true">
    <nd ref="-290" />
    <nd ref="-291" />
    <nd ref="-292" />
    <nd ref="-293" />
    <nd ref="-294" />
    <nd ref="-295" />
    <nd ref="-290" />
    <tag k="building" v="yes" />
  </way>
  <way id="-1000000057" visible="true">
    <nd ref="-296" />
    <nd ref="-297" />
    <nd ref="-298" />
    <nd ref="-299" />
    <nd ref="-296" />
    <tag k="addr:city" v="Ingolstadt" />
    <tag k="addr:housenumber" v="1" />
    <tag k="addr:postcode" v="85053" />
    <tag k="addr:street" v="Kälberschüttstraße" />
    <tag k="building" v="hotel" />
    <tag k="building:levels" v="6" />
    <tag k="name" v="Hotel am Campus" />
    <tag k="phone" v="+49 841 138027-0" />
    <tag k="roof:shape" v="flat" />
    <tag k="rooms" v="79" />
    <tag k="tourism" v="hotel" />
    <tag k="website" v="https://www.hotel-am-campus.de/" />
  </way>
  <way id="-1000000058" visible="true">
    <nd ref="-237" />
    <nd ref="-238" />
    <nd ref="-300" />
    <nd ref="-301" />
    <nd ref="-237" />
    <tag k="building" v="yes" />
  </way>
  <way id="-1000000059" visible="true">
    <nd ref="-302" />
    <nd ref="-303" />
    <nd ref="-304" />
    <nd ref="-305" />
    <nd ref="-306" />
    <nd ref="-307" />
    <nd ref="-302" />
    <tag k="building" v="yes" />
  </way>
  <way id="-1000000060" visible="true">
    <nd ref="-308" />
    <nd ref="-309" />
    <nd ref="-310" />
    <nd ref="-311" />
    <nd ref="-312" />
    <nd ref="-313" />
    <nd ref="-314" />
    <nd ref="-315" />
    <nd ref="-316" />
    <nd ref="-308" />
    <tag k="access" v="customers" />
    <tag k="amenity" v="parking" />
    <tag k="building" v="parking" />
    <tag k="building:levels" v="4" />
    <tag k="fee" v="no" />
    <tag k="name" v="CW34" />
    <tag k="operator" v="Audi AG" />
    <tag k="parking" v="multi-storey" />
  </way>
  <way id="-1000000061" visible="true">
    <nd ref="-317" />
    <nd ref="-318" />
    <nd ref="-319" />
    <nd ref="-320" />
    <nd ref="-317" />
    <tag k="building" v="industrial" />
    <tag k="name" v="CA33" />
    <tag k="operator" v="Audi AG" />
  </way>
  <way id="-1000000062" visible="true">
    <nd ref="-321" />
    <nd ref="-322" />
    <nd ref="-323" />
    <nd ref="-324" />
    <nd ref="-325" />
    <nd ref="-321" />
    <tag k="building" v="yes" />
    <tag k="building:levels" v="1" />
    <tag k="name" v="CW38" />
  </way>
  <way id="-1000000063" visible="true">
    <nd ref="-326" />
    <nd ref="-327" />
    <nd ref="-328" />
    <nd ref="-329" />
    <nd ref="-326" />
    <tag k="building" v="yes" />
  </way>
  <way id="-1000000064" visible="true">
    <nd ref="-330" />
    <nd ref="-331" />
    <nd ref="-332" />
    <nd ref="-333" />
    <nd ref="-330" />
    <tag k="addr:city" v="Ingolstadt" />
    <tag k="addr:postcode" v="80419" />
    <tag k="addr:street" v="IN-Campus Allee" />
    <tag k="building" v="commercial" />
    <tag k="name" v="noris network AG ING1 ITB" />
    <tag k="operator" v="innovIT360 AG" />
    <tag k="telecom" v="data_center" />
    <tag k="website" v="https://www.noris.de/rechenzentren/ingolstadt/" />
  </way>
  <way id="-1000000065" visible="true">
    <nd ref="-334" />
    <nd ref="-335" />
    <nd ref="-336" />
    <nd ref="-337" />
    <nd ref="-338" />
    <nd ref="-339" />
    <nd ref="-334" />
    <tag k="addr:city" v="Ingolstadt" />
    <tag k="addr:postcode" v="80419" />
    <tag k="addr:street" v="IN-Campus Allee" />
    <tag k="building" v="commercial" />
    <tag k="name" v="noris network AG ING1 ITA" />
    <tag k="operator" v="innovIT360 AG" />
    <tag k="telecom" v="data_center" />
    <tag k="website" v="https://www.noris.de/rechenzentren/ingolstadt/" />
  </way>
  <way id="-1000000066" visible="true">
    <nd ref="-120" />
    <nd ref="-340" />
    <nd ref="-341" />
    <nd ref="-123" />
    <nd ref="-120" />
    <tag k="building" v="yes" />
  </way>
  <way id="-1000000067" visible="true">
    <nd ref="-342" />
    <nd ref="-343" />
    <nd ref="-344" />
    <nd ref="-345" />
    <nd ref="-346" />
    <nd ref="-347" />
    <nd ref="-348" />
    <nd ref="-349" />
    <nd ref="-350" />
    <nd ref="-351" />
    <nd ref="-352" />
    <nd ref="-353" />
    <nd ref="-354" />
    <nd ref="-355" />
    <nd ref="-356" />
    <nd ref="-342" />
    <tag k="building" v="office" />
    <tag k="name" v="CW40" />
    <tag k="operator" v="Audi AG" />
  </way>
  <way id="-1000000068" visible="true">
    <nd ref="-357" />
    <nd ref="-358" />
    <nd ref="-359" />
    <nd ref="-360" />
    <nd ref="-361" />
    <nd ref="-362" />
    <nd ref="-363" />
    <nd ref="-364" />
    <nd ref="-365" />
    <nd ref="-366" />
    <nd ref="-367" />
    <nd ref="-368" />
    <nd ref="-369" />
    <nd ref="-323" />
    <nd ref="-322" />
    <nd ref="-357" />
    <tag k="building" v="office" />
    <tag k="name" v="CW38 A" />
  </way>
  <way id="-1000000069" visible="true">
    <nd ref="-370" />
    <nd ref="-371" />
    <nd ref="-372" />
    <nd ref="-373" />
    <nd ref="-374" />
    <nd ref="-375" />
    <nd ref="-376" />
    <nd ref="-377" />
    <nd ref="-378" />
    <nd ref="-379" />
    <nd ref="-380" />
    <nd ref="-381" />
    <nd ref="-382" />
    <nd ref="-383" />
    <nd ref="-384" />
    <nd ref="-370" />
    <tag k="building" v="office" />
    <tag k="name" v="CW37" />
  </way>
  <way id="-1000000070" visible="true">
    <nd ref="-385" />
    <nd ref="-386" />
    <nd ref="-387" />
    <nd ref="-388" />
    <nd ref="-389" />
    <nd ref="-390" />
    <nd ref="-391" />
    <nd ref="-392" />
    <nd ref="-393" />
    <nd ref="-394" />
    <nd ref="-395" />
    <nd ref="-396" />
    <nd ref="-397" />
    <nd ref="-398" />
    <nd ref="-399" />
    <nd ref="-385" />
    <tag k="building" v="office" />
    <tag k="name" v="CW39" />
    <tag k="operator" v="Audi AG" />
  </way>
  <way id="-1000000071" visible="true">
    <nd ref="-400" />
    <nd ref="-401" />
    <nd ref="-402" />
    <nd ref="-403" />
    <nd ref="-404" />
    <nd ref="-400" />
    <tag k="access" v="permissive" />
    <tag k="building" v="commercial" />
    <tag k="building:levels" v="1" />
    <tag k="toilets" v="yes" />
  </way>
  <way id="-1000000072" visible="true">
    <nd ref="-400" />
    <nd ref="-401" />
    <nd ref="-402" />
    <nd ref="-405" />
    <nd ref="-406" />
    <nd ref="-407" />
    <nd ref="-408" />
    <nd ref="-409" />
    <nd ref="-410" />
    <nd ref="-411" />
    <nd ref="-412" />
    <nd ref="-400" />
    <tag k="building" v="industrial" />
    <tag k="layer" v="1" />
    <tag k="name" v="Audi-Mobility-Hub" />
    <tag k="operator" v="Audi AG" />
  </way>
  <way id="-1000000073" visible="true">
    <nd ref="-413" />
    <nd ref="-414" />
    <nd ref="-415" />
    <nd ref="-416" />
    <nd ref="-417" />
    <nd ref="-418" />
    <nd ref="-419" />
    <nd ref="-420" />
    <nd ref="-413" />
    <tag k="building" v="yes" />
    <tag k="name" v="Platz am Donau Essemble" />
  </way>
</osm>