<?xml version='1.0' encoding='UTF-8'?>
<osm version="0.6" generator="tile_fbx_generator.py">
  <node id="-1" lat="48.7733201" lon="11.4308757" visible="true" />
  <node id="-2" lat="48.7732581" lon="11.4306714" visible="true" />
  <node id="-3" lat="48.7732042" lon="11.4306175" visible="true" />
  <node id="-4" lat="48.7731712" lon="11.4306075" visible="true" />
  <node id="-5" lat="48.7730174" lon="11.4306597" visible="true" />
  <node id="-6" lat="48.7729743" lon="11.4306987" visible="true" />
  <node id="-7" lat="48.7729435" lon="11.4307655" visible="true" />
  <node id="-8" lat="48.7729311" lon="11.4308717" visible="true" />
  <node id="-9" lat="48.7729783" lon="11.4312748" visible="true" />
  <node id="-10" lat="48.7729762" lon="11.4312947" visible="true" />
  <node id="-11" lat="48.7729655" lon="11.4313102" visible="true" />
  <node id="-12" lat="48.7729030" lon="11.4313693" visible="true" />
  <node id="-13" lat="48.7728894" lon="11.4313723" visible="true" />
  <node id="-14" lat="48.7728773" lon="11.4313624" visible="true" />
  <node id="-15" lat="48.7727985" lon="11.4309540" visible="true" />
  <node id="-16" lat="48.7727992" lon="11.4309086" visible="true" />
  <node id="-17" lat="48.7728218" lon="11.4308894" visible="true" />
  <node id="-18" lat="48.7728631" lon="11.4308543" visible="true" />
  <node id="-19" lat="48.7728797" lon="11.4307982" visible="true" />
  <node id="-20" lat="48.7728855" lon="11.4307279" visible="true" />
  <node id="-21" lat="48.7727706" lon="11.4297748" visible="true" />
  <node id="-22" lat="48.7727667" lon="11.4297088" visible="true" />
  <node id="-23" lat="48.7727904" lon="11.4296620" visible="true" />
  <node id="-24" lat="48.7728426" lon="11.4296439" visible="true" />
  <node id="-25" lat="48.7731565" lon="11.4295744" visible="true" />
  <node id="-26" lat="48.7732219" lon="11.4295650" visible="true" />
  <node id="-27" lat="48.7732494" lon="11.4295767" visible="true" />
  <node id="-28" lat="48.7732682" lon="11.4296101" visible="true" />
  <node id="-29" lat="48.7732787" lon="11.4296668" visible="true" />
  <node id="-30" lat="48.7734298" lon="11.4308160" visible="true" />
  <node id="-31" lat="48.7734276" lon="11.4308380" visible="true" />
  <node id="-32" lat="48.7734136" lon="11.4308576" visible="true" />
  <node id="-33" lat="48.7733517" lon="11.4309038" visible="true" />
  <node id="-34" lat="48.7733333" lon="11.4309028" visible="true" />
  <node id="-35" lat="48.7726941" lon="11.4290415" visible="true" />
  <node id="-36" lat="48.7726950" lon="11.4291380" visible="true" />
  <node id="-37" lat="48.7726671" lon="11.4291386" visible="true" />
  <node id="-38" lat="48.7726681" lon="11.4292454" visible="true" />
  <node id="-39" lat="48.7728824" lon="11.4292408" visible="true" />
  <node id="-40" lat="48.7728805" lon="11.4290375" visible="true" />
  <node id="-41" lat="48.7739396" lon="11.4292825" visible="true" />
  <node id="-42" lat="48.7739916" lon="11.4294087" visible="true" />
  <node id="-43" lat="48.7741882" lon="11.4292224" visible="true" />
  <node id="-44" lat="48.7741364" lon="11.4290962" visible="true" />
  <node id="-45" lat="48.7734528" lon="11.4270481" visible="true" />
  <node id="-46" lat="48.7734641" lon="11.4272198" visible="true" />
  <node id="-47" lat="48.7735433" lon="11.4272198" visible="true" />
  <node id="-48" lat="48.7735320" lon="11.4270395" visible="true" />
  <node id="-49" lat="48.7743607" lon="11.4250754" visible="true" />
  <node id="-50" lat="48.7744683" lon="11.4255291" visible="true" />
  <node id="-51" lat="48.7745826" lon="11.4254667" visible="true" />
  <node id="-52" lat="48.7744749" lon="11.4250130" visible="true" />
  <node id="-53" lat="48.7741522" lon="11.4252579" visible="true" />
  <node id="-54" lat="48.7742618" lon="11.4257241" visible="true" />
  <node id="-55" lat="48.7743796" lon="11.4256604" visible="true" />
  <node id="-56" lat="48.7742700" lon="11.4251942" visible="true" />
  <node id="-57" lat="48.7743687" lon="11.4330311" visible="true" />
  <node id="-58" lat="48.7743423" lon="11.4329172" visible="true" />
  <node id="-59" lat="48.7743651" lon="11.4329050" visible="true" />
  <node id="-60" lat="48.7743387" lon="11.4327910" visible="true" />
  <node id="-61" lat="48.7743298" lon="11.4326134" visible="true" />
  <node id="-62" lat="48.7737579" lon="11.4329184" visible="true" />
  <node id="-63" lat="48.7737768" lon="11.4330001" visible="true" />
  <node id="-64" lat="48.7736559" lon="11.4330646" visible="true" />
  <node id="-65" lat="48.7737105" lon="11.4333004" visible="true" />
  <node id="-66" lat="48.7738429" lon="11.4332298" visible="true" />
  <node id="-67" lat="48.7738392" lon="11.4332139" visible="true" />
  <node id="-68" lat="48.7739621" lon="11.4331484" visible="true" />
  <node id="-69" lat="48.7739826" lon="11.4332370" visible="true" />
  <node id="-70" lat="48.7741077" lon="11.4331703" visible="true" />
  <node id="-71" lat="48.7741022" lon="11.4331468" visible="true" />
  <node id="-72" lat="48.7742294" lon="11.4330790" visible="true" />
  <node id="-73" lat="48.7742348" lon="11.4331025" visible="true" />
  <node id="-74" lat="48.7747737" lon="11.4257730" visible="true" />
  <node id="-75" lat="48.7748210" lon="11.4258921" visible="true" />
  <node id="-76" lat="48.7742830" lon="11.4263837" visible="true" />
  <node id="-77" lat="48.7742357" lon="11.4262646" visible="true" />
  <node id="-78" lat="48.7741355" lon="11.4257222" visible="true" />
  <node id="-79" lat="48.7741789" lon="11.4259217" visible="true" />
  <node id="-80" lat="48.7737965" lon="11.4261131" visible="true" />
  <node id="-81" lat="48.7737531" lon="11.4259137" visible="true" />
  <node id="-82" lat="48.7736463" lon="11.4254954" visible="true" />
  <node id="-83" lat="48.7736433" lon="11.4260786" visible="true" />
  <node id="-84" lat="48.7735294" lon="11.4260757" visible="true" />
  <node id="-85" lat="48.7735346" lon="11.4254958" visible="true" />
  <node id="-86" lat="48.7737839" lon="11.4237422" visible="true" />
  <node id="-87" lat="48.7738739" lon="11.4239795" visible="true" />
  <node id="-88" lat="48.7737915" lon="11.4240515" visible="true" />
  <node id="-89" lat="48.7737015" lon="11.4238142" visible="true" />
  <node id="-90" lat="48.7738170" lon="11.4234114" visible="true" />
  <node id="-91" lat="48.7738160" lon="11.4236825" visible="true" />
  <node id="-92" lat="48.7737268" lon="11.4236817" visible="true" />
  <node id="-93" lat="48.7737278" lon="11.4234106" visible="true" />
  <node id="-94" lat="48.7736796" lon="11.4249360" visible="true" />
  <node id="-95" lat="48.7737787" lon="11.4249896" visible="true" />
  <node id="-96" lat="48.7736839" lon="11.4253924" visible="true" />
  <node id="-97" lat="48.7735848" lon="11.4253387" visible="true" />
  <node id="-98" lat="48.7735422" lon="11.4243750" visible="true" />
  <node id="-99" lat="48.7736343" lon="11.4242976" visible="true" />
  <node id="-100" lat="48.7737576" lon="11.4246356" visible="true" />
  <node id="-101" lat="48.7736654" lon="11.4247130" visible="true" />
  <node id="-102" lat="48.7734379" lon="11.4239435" visible="true" />
  <node id="-103" lat="48.7735241" lon="11.4238683" visible="true" />
  <node id="-104" lat="48.7736141" lon="11.4241056" visible="true" />
  <node id="-105" lat="48.7735279" lon="11.4241809" visible="true" />
  <node id="-106" lat="48.7734576" lon="11.4243149" visible="true" />
  <node id="-107" lat="48.7735789" lon="11.4242155" visible="true" />
  <node id="-108" lat="48.7736072" lon="11.4242885" visible="true" />
  <node id="-109" lat="48.7734858" lon="11.4243879" visible="true" />
  <node id="-110" lat="48.7738312" lon="11.4240874" visible="true" />
  <node id="-111" lat="48.7739172" lon="11.4240107" visible="true" />
  <node id="-112" lat="48.7740594" lon="11.4243774" visible="true" />
  <node id="-113" lat="48.7739734" lon="11.4244541" visible="true" />
  <node id="-114" lat="48.7739213" lon="11.4234761" visible="true" />
  <node id="-115" lat="48.7740387" lon="11.4234270" visible="true" />
  <node id="-116" lat="48.7741145" lon="11.4238441" visible="true" />
  <node id="-117" lat="48.7739971" lon="11.4238932" visible="true" />
  <node id="-118" lat="48.7744738" lon="11.4247814" visible="true" />
  <node id="-119" lat="48.7744763" lon="11.4249367" visible="true" />
  <node id="-120" lat="48.7741939" lon="11.4249452" visible="true" />
  <node id="-121" lat="48.7741914" lon="11.4247900" visible="true" />
  <node id="-122" lat="48.7741477" lon="11.4248505" visible="true" />
  <node id="-123" lat="48.7741589" lon="11.4250283" visible="true" />
  <node id="-124" lat="48.7739200" lon="11.4250628" visible="true" />
  <node id="-125" lat="48.7739089" lon="11.4248850" visible="true" />
  <node id="-126" lat="48.7738310" lon="11.4267475" visible="true" />
  <node id="-127" lat="48.7738121" lon="11.4268740" visible="true" />
  <node id="-128" lat="48.7737350" lon="11.4268475" visible="true" />
  <node id="-129" lat="48.7737540" lon="11.4267209" visible="true" />
  <node id="-130" lat="48.7738841" lon="11.4264426" visible="true" />
  <node id="-131" lat="48.7738576" lon="11.4265979" visible="true" />
  <node id="-132" lat="48.7737873" lon="11.4265703" visible="true" />
  <node id="-133" lat="48.7738138" lon="11.4264149" visible="true" />
  <node id="-134" lat="48.7739069" lon="11.4276392" visible="true" />
  <node id="-135" lat="48.7739181" lon="11.4277693" visible="true" />
  <node id="-136" lat="48.7737741" lon="11.4277980" visible="true" />
  <node id="-137" lat="48.7737628" lon="11.4276680" visible="true" />
  <node id="-138" lat="48.7736828" lon="11.4284922" visible="true" />
  <node id="-139" lat="48.7736634" lon="11.4284167" visible="true" />
  <node id="-140" lat="48.7737601" lon="11.4283594" visible="true" />
  <node id="-141" lat="48.7737795" lon="11.4284349" visible="true" />
  <node id="-142" lat="48.7735228" lon="11.4288238" visible="true" />
  <node id="-143" lat="48.7735724" lon="11.4287944" visible="true" />
  <node id="-144" lat="48.7736084" lon="11.4289341" visible="true" />
  <node id="-145" lat="48.7735587" lon="11.4289635" visible="true" />
  <node id="-146" lat="48.7733965" lon="11.4283969" visible="true" />
  <node id="-147" lat="48.7733773" lon="11.4283226" visible="true" />
  <node id="-148" lat="48.7734739" lon="11.4282649" visible="true" />
  <node id="-149" lat="48.7734932" lon="11.4283391" visible="true" />
  <node id="-150" lat="48.7734043" lon="11.4283923" visible="true" />
  <node id="-151" lat="48.7732734" lon="11.4284557" visible="true" />
  <node id="-152" lat="48.7733297" lon="11.4286531" visible="true" />
  <node id="-153" lat="48.7732568" lon="11.4287010" visible="true" />
  <node id="-154" lat="48.7732005" lon="11.4285036" visible="true" />
  <node id="-155" lat="48.7731433" lon="11.4284587" visible="true" />
  <node id="-156" lat="48.7731977" lon="11.4286531" visible="true" />
  <node id="-157" lat="48.7731345" lon="11.4286937" visible="true" />
  <node id="-158" lat="48.7730802" lon="11.4284993" visible="true" />
  <node id="-159" lat="48.7730249" lon="11.4284675" visible="true" />
  <node id="-160" lat="48.7730812" lon="11.4286678" visible="true" />
  <node id="-161" lat="48.7730141" lon="11.4287112" visible="true" />
  <node id="-162" lat="48.7729579" lon="11.4285109" visible="true" />
  <node id="-163" lat="48.7728987" lon="11.4284999" visible="true" />
  <node id="-164" lat="48.7729473" lon="11.4286708" visible="true" />
  <node id="-165" lat="48.7728670" lon="11.4287233" visible="true" />
  <node id="-166" lat="48.7728184" lon="11.4285525" visible="true" />
  <node id="-167" lat="48.7725661" lon="11.4292392" visible="true" />
  <node id="-168" lat="48.7725623" lon="11.4293591" visible="true" />
  <node id="-169" lat="48.7725007" lon="11.4293546" visible="true" />
  <node id="-170" lat="48.7724597" lon="11.4293517" visible="true" />
  <node id="-171" lat="48.7724526" lon="11.4293387" visible="true" />
  <node id="-172" lat="48.7724560" lon="11.4292312" visible="true" />
  <node id="-173" lat="48.7732813" lon="11.4269891" visible="true" />
  <node id="-174" lat="48.7732927" lon="11.4274061" visible="true" />
  <node id="-175" lat="48.7731976" lon="11.4274092" visible="true" />
  <node id="-176" lat="48.7731862" lon="11.4269922" visible="true" />
  <node id="-177" lat="48.7731286" lon="11.4283737" visible="true" />
  <node id="-178" lat="48.7731049" lon="11.4282789" visible="true" />
  <node id="-179" lat="48.7731549" lon="11.4282501" visible="true" />
  <node id="-180" lat="48.7731208" lon="11.4281305" visible="true" />
  <node id="-181" lat="48.7731747" lon="11.4280976" visible="true" />
  <node id="-182" lat="48.7732354" lon="11.4283105" visible="true" />
  <node id="-183" lat="48.7725868" lon="11.4270184" visible="true" />
  <node id="-184" lat="48.7726890" lon="11.4270233" visible="true" />
  <node id="-185" lat="48.7726852" lon="11.4272074" visible="true" />
  <node id="-186" lat="48.7725831" lon="11.4272025" visible="true" />
  <node id="-187" lat="48.7731518" lon="11.4262936" visible="true" />
  <node id="-188" lat="48.7731214" lon="11.4264374" visible="true" />
  <node id="-189" lat="48.7730373" lon="11.4263965" visible="true" />
  <node id="-190" lat="48.7730676" lon="11.4262527" visible="true" />
  <node id="-191" lat="48.7729053" lon="11.4270357" visible="true" />
  <node id="-192" lat="48.7729963" lon="11.4270357" visible="true" />
  <node id="-193" lat="48.7729963" lon="11.4272601" visible="true" />
  <node id="-194" lat="48.7729053" lon="11.4272601" visible="true" />
  <node id="-195" lat="48.7727916" lon="11.4264719" visible="true" />
  <node id="-196" lat="48.7727385" lon="11.4266618" visible="true" />
  <node id="-197" lat="48.7726234" lon="11.4265877" visible="true" />
  <node id="-198" lat="48.7726765" lon="11.4263978" visible="true" />
  <node id="-199" lat="48.7728447" lon="11.4261900" visible="true" />
  <node id="-200" lat="48.7727878" lon="11.4263511" visible="true" />
  <node id="-201" lat="48.7727180" lon="11.4262944" visible="true" />
  <node id="-202" lat="48.7727749" lon="11.4261333" visible="true" />
  <node id="-203" lat="48.7730001" lon="11.4264892" visible="true" />
  <node id="-204" lat="48.7730980" lon="11.4265372" visible="true" />
  <node id="-205" lat="48.7730563" lon="11.4267328" visible="true" />
  <node id="-206" lat="48.7729584" lon="11.4266848" visible="true" />
  <node id="-207" lat="48.7729508" lon="11.4267998" visible="true" />
  <node id="-208" lat="48.7730382" lon="11.4268274" visible="true" />
  <node id="-209" lat="48.7730192" lon="11.4269655" visible="true" />
  <node id="-210" lat="48.7729319" lon="11.4269379" visible="true" />
  <node id="-211" lat="48.7733186" lon="11.4265985" visible="true" />
  <node id="-212" lat="48.7732769" lon="11.4268228" visible="true" />
  <node id="-213" lat="48.7731751" lon="11.4267793" visible="true" />
  <node id="-214" lat="48.7732168" lon="11.4265549" visible="true" />
  <node id="-215" lat="48.7733755" lon="11.4263223" visible="true" />
  <node id="-216" lat="48.7733224" lon="11.4265064" visible="true" />
  <node id="-217" lat="48.7732478" lon="11.4264569" visible="true" />
  <node id="-218" lat="48.7733009" lon="11.4262728" visible="true" />
  <node id="-219" lat="48.7735802" lon="11.4263626" visible="true" />
  <node id="-220" lat="48.7736784" lon="11.4264051" visible="true" />
  <node id="-221" lat="48.7736329" lon="11.4266468" visible="true" />
  <node id="-222" lat="48.7735347" lon="11.4266042" visible="true" />
  <node id="-223" lat="48.7735347" lon="11.4267538" visible="true" />
  <node id="-224" lat="48.7736251" lon="11.4267725" visible="true" />
  <node id="-225" lat="48.7736137" lon="11.4268991" visible="true" />
  <node id="-226" lat="48.7735233" lon="11.4268804" visible="true" />
  <node id="-227" lat="48.7730073" lon="11.4283708" visible="true" />
  <node id="-228" lat="48.7729846" lon="11.4282932" visible="true" />
  <node id="-229" lat="48.7730393" lon="11.4282563" visible="true" />
  <node id="-230" lat="48.7730035" lon="11.4281257" visible="true" />
  <node id="-231" lat="48.7730521" lon="11.4280964" visible="true" />
  <node id="-232" lat="48.7731057" lon="11.4283146" visible="true" />
  <node id="-233" lat="48.7728908" lon="11.4283852" visible="true" />
  <node id="-234" lat="48.7728658" lon="11.4283029" visible="true" />
  <node id="-235" lat="48.7729219" lon="11.4282636" visible="true" />
  <node id="-236" lat="48.7728886" lon="11.4281540" visible="true" />
  <node id="-237" lat="48.7729313" lon="11.4281222" visible="true" />
  <node id="-238" lat="48.7729896" lon="11.4283137" visible="true" />
  <node id="-239" lat="48.7725679" lon="11.4276570" visible="true" />
  <node id="-240" lat="48.7726665" lon="11.4276570" visible="true" />
  <node id="-241" lat="48.7726665" lon="11.4278411" visible="true" />
  <node id="-242" lat="48.7725679" lon="11.4278411" visible="true" />
  <node id="-243" lat="48.7725641" lon="11.4273866" visible="true" />
  <node id="-244" lat="48.7726581" lon="11.4274000" visible="true" />
  <node id="-245" lat="48.7726467" lon="11.4275841" visible="true" />
  <node id="-246" lat="48.7725527" lon="11.4275707" visible="true" />
  <node id="-247" lat="48.7729925" lon="11.4273694" visible="true" />
  <node id="-248" lat="48.7730001" lon="11.4275420" visible="true" />
  <node id="-249" lat="48.7729100" lon="11.4275511" visible="true" />
  <node id="-250" lat="48.7729024" lon="11.4273785" visible="true" />
  <node id="-251" lat="48.7730039" lon="11.4276743" visible="true" />
  <node id="-252" lat="48.7730115" lon="11.4278354" visible="true" />
  <node id="-253" lat="48.7729134" lon="11.4278460" visible="true" />
  <node id="-254" lat="48.7729058" lon="11.4276849" visible="true" />
  <node id="-255" lat="48.7736111" lon="11.4277082" visible="true" />
  <node id="-256" lat="48.7736228" lon="11.4278440" visible="true" />
  <node id="-257" lat="48.7734484" lon="11.4278785" visible="true" />
  <node id="-258" lat="48.7734367" lon="11.4277428" visible="true" />
  <node id="-259" lat="48.7733002" lon="11.4277485" visible="true" />
  <node id="-260" lat="48.7732982" lon="11.4278750" visible="true" />
  <node id="-261" lat="48.7731427" lon="11.4278692" visible="true" />
  <node id="-262" lat="48.7731448" lon="11.4277428" visible="true" />
  <node id="-263" lat="48.7734816" lon="11.4273118" visible="true" />
  <node id="-264" lat="48.7735759" lon="11.4272934" visible="true" />
  <node id="-265" lat="48.7735911" lon="11.4274717" visible="true" />
  <node id="-266" lat="48.7734968" lon="11.4274902" visible="true" />
  <node id="-267" lat="48.7723675" lon="11.4293325" visible="true" />
  <node id="-268" lat="48.7724536" lon="11.4295434" visible="true" />
  <node id="-269" lat="48.7723611" lon="11.4295367" visible="true" />
  <node id="-270" lat="48.7730138" lon="11.4289751" visible="true" />
  <node id="-271" lat="48.7730157" lon="11.4291975" visible="true" />
  <node id="-272" lat="48.7729449" lon="11.4291989" visible="true" />
  <node id="-273" lat="48.7729429" lon="11.4289765" visible="true" />
  <node id="-274" lat="48.7731346" lon="11.4293043" visible="true" />
  <node id="-275" lat="48.7731360" lon="11.4294068" visible="true" />
  <node id="-276" lat="48.7730598" lon="11.4294092" visible="true" />
  <node id="-277" lat="48.7730585" lon="11.4293067" visible="true" />
  <node id="-278" lat="48.7728491" lon="11.4288774" visible="true" />
  <node id="-279" lat="48.7728494" lon="11.4288661" visible="true" />
  <node id="-280" lat="48.7728498" lon="11.4287639" visible="true" />
  <node id="-281" lat="48.7733719" lon="11.4287529" visible="true" />
  <node id="-282" lat="48.7735151" lon="11.4293116" visible="true" />
  <node id="-283" lat="48.7734467" lon="11.4293512" visible="true" />
  <node id="-284" lat="48.7733204" lon="11.4288692" visible="true" />
  <node id="-285" lat="48.7726637" lon="11.4287624" visible="true" />
  <node id="-286" lat="48.7726634" lon="11.4288646" visible="true" />
  <node id="-287" lat="48.7738576" lon="11.4280822" visible="true" />
  <node id="-288" lat="48.7739829" lon="11.4280087" visible="true" />
  <node id="-289" lat="48.7741497" lon="11.4286875" visible="true" />
  <node id="-290" lat="48.7740244" lon="11.4287610" visible="true" />
  <node id="-291" lat="48.7741059" lon="11.4280109" visible="true" />
  <node id="-292" lat="48.7742248" lon="11.4279469" visible="true" />
  <node id="-293" lat="48.7743651" lon="11.4285510" visible="true" />
  <node id="-294" lat="48.7742462" lon="11.4286149" visible="true" />
  <node id="-295" lat="48.7743429" lon="11.4279499" visible="true" />
  <node id="-296" lat="48.7744541" lon="11.4278855" visible="true" />
  <node id="-297" lat="48.7745906" lon="11.4284781" visible="true" />
  <node id="-298" lat="48.7744794" lon="11.4285424" visible="true" />
  <node id="-299" lat="48.7740320" lon="11.4265058" visible="true" />
  <node id="-300" lat="48.7741301" lon="11.4265431" visible="true" />
  <node id="-301" lat="48.7740922" lon="11.4267732" visible="true" />
  <node id="-302" lat="48.7739941" lon="11.4267360" visible="true" />
  <node id="-303" lat="48.7738272" lon="11.4269949" visible="true" />
  <node id="-304" lat="48.7739289" lon="11.4269833" visible="true" />
  <node id="-305" lat="48.7739403" lon="11.4272134" visible="true" />
  <node id="-306" lat="48.7738386" lon="11.4272250" visible="true" />
  <node id="-307" lat="48.7741419" lon="11.4275817" visible="true" />
  <node id="-308" lat="48.7741543" lon="11.4277354" visible="true" />
  <node id="-309" lat="48.7739988" lon="11.4277642" visible="true" />
  <node id="-310" lat="48.7739865" lon="11.4276104" visible="true" />
  <node id="-311" lat="48.7745470" lon="11.4273579" visible="true" />
  <node id="-312" lat="48.7745903" lon="11.4274890" visible="true" />
  <node id="-313" lat="48.7744613" lon="11.4275868" visible="true" />
  <node id="-314" lat="48.7744181" lon="11.4274557" visible="true" />
  <node id="-315" lat="48.7743423" lon="11.4275017" visible="true" />
  <node id="-316" lat="48.7743703" lon="11.4276197" visible="true" />
  <node id="-317" lat="48.7742755" lon="11.4276714" visible="true" />
  <node id="-318" lat="48.7742475" lon="11.4275535" visible="true" />
  <node id="-319" lat="48.7743082" lon="11.4268631" visible="true" />
  <node id="-320" lat="48.7743347" lon="11.4270990" visible="true" />
  <node id="-321" lat="48.7742414" lon="11.4271232" visible="true" />
  <node id="-322" lat="48.7742148" lon="11.4268873" visible="true" />
  <node id="-323" lat="48.7744333" lon="11.4270184" visible="true" />
  <node id="-324" lat="48.7744371" lon="11.4271335" visible="true" />
  <node id="-325" lat="48.7743647" lon="11.4271390" visible="true" />
  <node id="-326" lat="48.7743609" lon="11.4270239" visible="true" />
  <node id="-327" lat="48.7744818" lon="11.4264390" visible="true" />
  <node id="-328" lat="48.7747129" lon="11.4269198" visible="true" />
  <node id="-329" lat="48.7746246" lon="11.4270176" visible="true" />
  <node id="-330" lat="48.7743935" lon="11.4265367" visible="true" />
  <node id="-331" lat="48.7742999" lon="11.4289611" visible="true" />
  <node id="-332" lat="48.7744517" lon="11.4288868" visible="true" />
  <node id="-333" lat="48.7745654" lon="11.4294218" visible="true" />
  <node id="-334" lat="48.7744137" lon="11.4294961" visible="true" />
  <node id="-335" lat="48.7743884" lon="11.4296483" visible="true" />
  <node id="-336" lat="48.7744708" lon="11.4298372" visible="true" />
  <node id="-337" lat="48.7742762" lon="11.4300326" visible="true" />
  <node id="-338" lat="48.7741902" lon="11.4298355" visible="true" />
  <node id="-339" lat="48.7742018" lon="11.4298239" visible="true" />
  <node id="-340" lat="48.7741666" lon="11.4297431" visible="true" />
  <node id="-341" lat="48.7742843" lon="11.4296249" visible="true" />
  <node id="-342" lat="48.7743231" lon="11.4297138" visible="true" />
  <node id="-343" lat="48.7722472" lon="11.4324958" visible="true" />
  <node id="-344" lat="48.7723095" lon="11.4326402" visible="true" />
  <node id="-345" lat="48.7721213" lon="11.4328273" visible="true" />
  <node id="-346" lat="48.7720590" lon="11.4326829" visible="true" />
  <node id="-347" lat="48.7722515" lon="11.4322791" visible="true" />
  <node id="-348" lat="48.7723397" lon="11.4321894" visible="true" />
  <node id="-349" lat="48.7724003" lon="11.4323266" visible="true" />
  <node id="-350" lat="48.7724649" lon="11.4324729" visible="true" />
  <node id="-351" lat="48.7723309" lon="11.4326092" visible="true" />
  <node id="-352" lat="48.7722743" lon="11.4324810" visible="true" />
  <node id="-353" lat="48.7723201" lon="11.4324344" visible="true" />
  <node id="-354" lat="48.7731130" lon="11.4311479" visible="true" />
  <node id="-355" lat="48.7731115" lon="11.4311423" visible="true" />
  <node id="-356" lat="48.7731122" lon="11.4311351" visible="true" />
  <node id="-357" lat="48.7731157" lon="11.4311310" visible="true" />
  <node id="-358" lat="48.7732416" lon="11.4310071" visible="true" />
  <node id="-359" lat="48.7732465" lon="11.4310032" visible="true" />
  <node id="-360" lat="48.7732526" lon="11.4310040" visible="true" />
  <node id="-361" lat="48.7732570" lon="11.4310131" visible="true" />
  <node id="-362" lat="48.7732578" lon="11.4310197" visible="true" />
  <node id="-363" lat="48.7732570" lon="11.4310258" visible="true" />
  <node id="-364" lat="48.7732539" lon="11.4310317" visible="true" />
  <node id="-365" lat="48.7731287" lon="11.4311523" visible="true" />
  <node id="-366" lat="48.7731244" lon="11.4311550" visible="true" />
  <node id="-367" lat="48.7731194" lon="11.4311560" visible="true" />
  <node id="-368" lat="48.7731154" lon="11.4311525" visible="true" />
  <node id="-369" lat="48.7737810" lon="11.4230848" visible="true" />
  <node id="-370" lat="48.7737820" lon="11.4229624" visible="true" />
  <node id="-371" lat="48.7738708" lon="11.4229641" visible="true" />
  <node id="-372" lat="48.7738699" lon="11.4230777" visible="true" />
  <node id="-373" lat="48.7739941" lon="11.4230667" visible="true" />
  <node id="-374" lat="48.7740054" lon="11.4230668" visible="true" />
  <node id="-375" lat="48.7740040" lon="11.4229055" visible="true" />
  <node id="-376" lat="48.7741179" lon="11.4229032" visible="true" />
  <node id="-377" lat="48.7741193" lon="11.4230683" visible="true" />
  <node id="-378" lat="48.7742051" lon="11.4230694" visible="true" />
  <node id="-379" lat="48.7742045" lon="11.4229897" visible="true" />
  <node id="-380" lat="48.7742545" lon="11.4229888" visible="true" />
  <node id="-381" lat="48.7742530" lon="11.4228643" visible="true" />
  <node id="-382" lat="48.7743523" lon="11.4228616" visible="true" />
  <node id="-383" lat="48.7743538" lon="11.4229870" visible="true" />
  <node id="-384" lat="48.7743776" lon="11.4229865" visible="true" />
  <node id="-385" lat="48.7743790" lon="11.4231658" visible="true" />
  <node id="-386" lat="48.7742406" lon="11.4231684" visible="true" />
  <node id="-387" lat="48.7742403" lon="11.4232140" visible="true" />
  <node id="-388" lat="48.7740132" lon="11.4232111" visible="true" />
  <node id="-389" lat="48.7740144" lon="11.4232460" visible="true" />
  <node id="-390" lat="48.7737737" lon="11.4232653" visible="true" />
  <node id="-391" lat="48.7737675" lon="11.4230858" visible="true" />
  <node id="-392" lat="48.7734025" lon="11.4246521" visible="true" />
  <node id="-393" lat="48.7734489" lon="11.4248065" visible="true" />
  <node id="-394" lat="48.7732584" lon="11.4249317" visible="true" />
  <node id="-395" lat="48.7731195" lon="11.4248378" visible="true" />
  <node id="-396" lat="48.7731637" lon="11.4246874" visible="true" />
  <node id="-397" lat="48.7732549" lon="11.4247491" visible="true" />
  <node id="-398" lat="48.7744218" lon="11.4225326" visible="true" />
  <node id="-399" lat="48.7744242" lon="11.4226255" visible="true" />
  <node id="-400" lat="48.7743213" lon="11.4226316" visible="true" />
  <node id="-401" lat="48.7743190" lon="11.4225387" visible="true" />
  <node id="-402" lat="48.7742415" lon="11.4223845" visible="true" />
  <node id="-403" lat="48.7742382" lon="11.4225749" visible="true" />
  <node id="-404" lat="48.7741088" lon="11.4225696" visible="true" />
  <node id="-405" lat="48.7741121" lon="11.4223792" visible="true" />
  <node id="-406" lat="48.7731429" lon="11.4252978" visible="true" />
  <node id="-407" lat="48.7730934" lon="11.4254230" visible="true" />
  <node id="-408" lat="48.7730195" lon="11.4253556" visible="true" />
  <node id="-409" lat="48.7730689" lon="11.4252305" visible="true" />
  <node id="-410" lat="48.7734609" lon="11.4229887" visible="true" />
  <node id="-411" lat="48.7736905" lon="11.4229689" visible="true" />
  <node id="-412" lat="48.7737023" lon="11.4232835" visible="true" />
  <node id="-413" lat="48.7734727" lon="11.4233034" visible="true" />
  <node id="-414" lat="48.7735873" lon="11.4233869" visible="true" />
  <node id="-415" lat="48.7736899" lon="11.4233834" visible="true" />
  <node id="-416" lat="48.7736926" lon="11.4235641" visible="true" />
  <node id="-417" lat="48.7735900" lon="11.4235677" visible="true" />
  <node id="-418" lat="48.7743116" lon="11.4239847" visible="true" />
  <node id="-419" lat="48.7744093" lon="11.4239798" visible="true" />
  <node id="-420" lat="48.7744079" lon="11.4241176" visible="true" />
  <node id="-421" lat="48.7744452" lon="11.4241176" visible="true" />
  <node id="-422" lat="48.7744452" lon="11.4242329" visible="true" />
  <node id="-423" lat="48.7744916" lon="11.4242329" visible="true" />
  <node id="-424" lat="48.7744916" lon="11.4243290" visible="true" />
  <node id="-425" lat="48.7743924" lon="11.4243290" visible="true" />
  <node id="-426" lat="48.7743886" lon="11.4242732" visible="true" />
  <node id="-427" lat="48.7743177" lon="11.4242771" visible="true" />
  <node id="-428" lat="48.7729893" lon="11.4257700" visible="true" />
  <node id="-429" lat="48.7729464" lon="11.4259102" visible="true" />
  <node id="-430" lat="48.7728616" lon="11.4258504" visible="true" />
  <node id="-431" lat="48.7729045" lon="11.4257102" visible="true" />
  <node id="-432" lat="48.7740984" lon="11.4221188" visible="true" />
  <node id="-433" lat="48.7740917" lon="11.4223015" visible="true" />
  <node id="-434" lat="48.7739826" lon="11.4222922" visible="true" />
  <node id="-435" lat="48.7739893" lon="11.4221096" visible="true" />
  <node id="-436" lat="48.7737017" lon="11.4220700" visible="true" />
  <node id="-437" lat="48.7736972" lon="11.4223253" visible="true" />
  <node id="-438" lat="48.7735800" lon="11.4223205" visible="true" />
  <node id="-439" lat="48.7735845" lon="11.4220652" visible="true" />
  <node id="-440" lat="48.7733157" lon="11.4224154" visible="true" />
  <node id="-441" lat="48.7734225" lon="11.4224198" visible="true" />
  <node id="-442" lat="48.7734181" lon="11.4226701" visible="true" />
  <node id="-443" lat="48.7733112" lon="11.4226657" visible="true" />
  <node id="-444" lat="48.7730652" lon="11.4254846" visible="true" />
  <node id="-445" lat="48.7730157" lon="11.4256198" visible="true" />
  <node id="-446" lat="48.7729508" lon="11.4255651" visible="true" />
  <node id="-447" lat="48.7730002" lon="11.4254299" visible="true" />
  <node id="-448" lat="48.7734347" lon="11.4251442" visible="true" />
  <node id="-449" lat="48.7733819" lon="11.4252894" visible="true" />
  <node id="-450" lat="48.7733022" lon="11.4252226" visible="true" />
  <node id="-451" lat="48.7733550" lon="11.4250774" visible="true" />
  <node id="-452" lat="48.7730982" lon="11.4257900" visible="true" />
  <node id="-453" lat="48.7732038" lon="11.4257900" visible="true" />
  <node id="-454" lat="48.7732038" lon="11.4259552" visible="true" />
  <node id="-455" lat="48.7730982" lon="11.4259552" visible="true" />
  <node id="-456" lat="48.7744832" lon="11.4245469" visible="true" />
  <node id="-457" lat="48.7741791" lon="11.4245757" visible="true" />
  <node id="-458" lat="48.7741729" lon="11.4244259" visible="true" />
  <node id="-459" lat="48.7744770" lon="11.4243971" visible="true" />
  <node id="-460" lat="48.7747399" lon="11.4326498" visible="true" />
  <node id="-461" lat="48.7744360" lon="11.4326694" visible="true" />
  <node id="-462" lat="48.7744399" lon="11.4327740" visible="true" />
  <node id="-463" lat="48.7744588" lon="11.4327713" visible="true" />
  <node id="-464" lat="48.7744725" lon="11.4328212" visible="true" />
  <node id="-465" lat="48.7744622" lon="11.4328461" visible="true" />
  <node id="-466" lat="48.7744944" lon="11.4329112" visible="true" />
  <node id="-467" lat="48.7745345" lon="11.4328861" visible="true" />
  <node id="-468" lat="48.7745707" lon="11.4328907" visible="true" />
  <node id="-469" lat="48.7746063" lon="11.4329199" visible="true" />
  <node id="-470" lat="48.7746297" lon="11.4329660" visible="true" />
  <node id="-471" lat="48.7746411" lon="11.4330199" visible="true" />
  <node id="-472" lat="48.7746399" lon="11.4330750" visible="true" />
  <node id="-473" lat="48.7746148" lon="11.4331170" visible="true" />
  <node id="-474" lat="48.7745796" lon="11.4331475" visible="true" />
  <node id="-475" lat="48.7745519" lon="11.4331475" visible="true" />
  <node id="-476" lat="48.7745242" lon="11.4331361" visible="true" />
  <node id="-477" lat="48.7744852" lon="11.4330865" visible="true" />
  <node id="-478" lat="48.7744324" lon="11.4331399" visible="true" />
  <node id="-479" lat="48.7744488" lon="11.4331704" visible="true" />
  <node id="-480" lat="48.7744375" lon="11.4331838" visible="true" />
  <node id="-481" lat="48.7744651" lon="11.4332162" visible="true" />
  <node id="-482" lat="48.7744288" lon="11.4333419" visible="true" />
  <node id="-483" lat="48.7745297" lon="11.4333738" visible="true" />
  <node id="-484" lat="48.7746140" lon="11.4333877" visible="true" />
  <node id="-485" lat="48.7746697" lon="11.4333956" visible="true" />
  <node id="-486" lat="48.7746699" lon="11.4333741" visible="true" />
  <node id="-487" lat="48.7746866" lon="11.4333748" visible="true" />
  <node id="-488" lat="48.7746880" lon="11.4334648" visible="true" />
  <node id="-489" lat="48.7747585" lon="11.4334560" visible="true" />
  <node id="-490" lat="48.7733852" lon="11.4331446" visible="true" />
  <node id="-491" lat="48.7732261" lon="11.4332547" visible="true" />
  <node id="-492" lat="48.7731926" lon="11.4331433" visible="true" />
  <node id="-493" lat="48.7733517" lon="11.4330332" visible="true" />
  <node id="-494" lat="48.7726921" lon="11.4311849" visible="true" />
  <node id="-495" lat="48.7726968" lon="11.4311954" visible="true" />
  <node id="-496" lat="48.7726503" lon="11.4312435" visible="true" />
  <node id="-497" lat="48.7726448" lon="11.4312312" visible="true" />
  <node id="-498" lat="48.7724053" lon="11.4314792" visible="true" />
  <node id="-499" lat="48.7723953" lon="11.4314570" visible="true" />
  <node id="-500" lat="48.7723750" lon="11.4314781" visible="true" />
  <node id="-501" lat="48.7723320" lon="11.4313825" visible="true" />
  <node id="-502" lat="48.7723529" lon="11.4313608" visible="true" />
  <node id="-503" lat="48.7723442" lon="11.4313413" visible="true" />
  <node id="-504" lat="48.7726479" lon="11.4310267" visible="true" />
  <node id="-505" lat="48.7726555" lon="11.4310435" visible="true" />
  <node id="-506" lat="48.7726662" lon="11.4310324" visible="true" />
  <node id="-507" lat="48.7726964" lon="11.4310995" visible="true" />
  <node id="-508" lat="48.7726885" lon="11.4311077" visible="true" />
  <node id="-509" lat="48.7727133" lon="11.4311629" visible="true" />
  <node id="-510" lat="48.7725518" lon="11.4288771" visible="true" />
  <node id="-511" lat="48.7725513" lon="11.4290444" visible="true" />
  <node id="-512" lat="48.7724569" lon="11.4290438" visible="true" />
  <node id="-513" lat="48.7724574" lon="11.4288765" visible="true" />
  <node id="-514" lat="48.7724931" lon="11.4307162" visible="true" />
  <node id="-515" lat="48.7724834" lon="11.4309154" visible="true" />
  <node id="-516" lat="48.7723924" lon="11.4309052" visible="true" />
  <node id="-517" lat="48.7724021" lon="11.4307060" visible="true" />
  <node id="-518" lat="48.7724946" lon="11.4295464" visible="true" />
  <node id="-519" lat="48.7727602" lon="11.4313364" visible="true" />
  <node id="-520" lat="48.7726609" lon="11.4314392" visible="true" />
  <node id="-521" lat="48.7726374" lon="11.4313868" visible="true" />
  <node id="-522" lat="48.7725975" lon="11.4312982" visible="true" />
  <node id="-523" lat="48.7742920" lon="11.4341131" visible="true" />
  <node id="-524" lat="48.7743210" lon="11.4339442" visible="true" />
  <node id="-525" lat="48.7746919" lon="11.4340908" visible="true" />
  <node id="-526" lat="48.7746699" lon="11.4342187" visible="true" />
  <node id="-527" lat="48.7746518" lon="11.4342115" visible="true" />
  <node id="-528" lat="48.7746267" lon="11.4343580" visible="true" />
  <node id="-529" lat="48.7745576" lon="11.4343307" visible="true" />
  <node id="-530" lat="48.7745757" lon="11.4342253" visible="true" />
  <node id="-531" lat="48.7733410" lon="11.4254032" visible="true" />
  <node id="-532" lat="48.7733038" lon="11.4255434" visible="true" />
  <node id="-533" lat="48.7734161" lon="11.4256269" visible="true" />
  <node id="-534" lat="48.7734633" lon="11.4254939" visible="true" />
  <node id="-535" lat="48.7734076" lon="11.4242972" visible="true" />
  <node id="-536" lat="48.7733693" lon="11.4244168" visible="true" />
  <node id="-537" lat="48.7734049" lon="11.4244394" visible="true" />
  <node id="-538" lat="48.7733808" lon="11.4245268" visible="true" />
  <node id="-539" lat="48.7732986" lon="11.4244756" visible="true" />
  <node id="-540" lat="48.7732830" lon="11.4245248" visible="true" />
  <node id="-541" lat="48.7732133" lon="11.4244740" visible="true" />
  <node id="-542" lat="48.7732403" lon="11.4243887" visible="true" />
  <node id="-543" lat="48.7732727" lon="11.4244123" visible="true" />
  <node id="-544" lat="48.7733282" lon="11.4242387" visible="true" />
  <node id="-545" lat="48.7730982" lon="11.4255300" visible="true" />
  <node id="-546" lat="48.7731157" lon="11.4254666" visible="true" />
  <node id="-547" lat="48.7732267" lon="11.4255368" visible="true" />
  <node id="-548" lat="48.7732093" lon="11.4256002" visible="true" />
  <node id="-549" lat="48.7731861" lon="11.4253015" visible="true" />
  <node id="-550" lat="48.7731489" lon="11.4254417" visible="true" />
  <node id="-551" lat="48.7732612" lon="11.4255252" visible="true" />
  <node id="-552" lat="48.7733084" lon="11.4253922" visible="true" />
  <node id="-553" lat="48.7730436" lon="11.4259097" visible="true" />
  <node id="-554" lat="48.7730390" lon="11.4259940" visible="true" />
  <node id="-555" lat="48.7729654" lon="11.4259849" visible="true" />
  <node id="-556" lat="48.7729699" lon="11.4259005" visible="true" />
  <node id="-557" lat="48.7734403" lon="11.4258300" visible="true" />
  <node id="-558" lat="48.7734229" lon="11.4260536" visible="true" />
  <node id="-559" lat="48.7732570" lon="11.4260239" visible="true" />
  <node id="-560" lat="48.7732744" lon="11.4258003" visible="true" />
  <node id="-561" lat="48.7736808" lon="11.4247382" visible="true" />
  <node id="-562" lat="48.7737990" lon="11.4247529" visible="true" />
  <node id="-563" lat="48.7737920" lon="11.4248826" visible="true" />
  <node id="-564" lat="48.7736738" lon="11.4248679" visible="true" />
  <node id="-565" lat="48.7727941" lon="11.4267834" visible="true" />
  <node id="-566" lat="48.7727922" lon="11.4269588" visible="true" />
  <node id="-567" lat="48.7727466" lon="11.4269576" visible="true" />
  <node id="-568" lat="48.7727485" lon="11.4267823" visible="true" />
  <node id="-569" lat="48.7735878" lon="11.4275826" visible="true" />
  <node id="-570" lat="48.7736289" lon="11.4274743" visible="true" />
  <node id="-571" lat="48.7736257" lon="11.4275851" visible="true" />
  <node id="-572" lat="48.7738201" lon="11.4273544" visible="true" />
  <node id="-573" lat="48.7737524" lon="11.4273609" visible="true" />
  <node id="-574" lat="48.7737492" lon="11.4272833" visible="true" />
  <node id="-575" lat="48.7738169" lon="11.4272769" visible="true" />
  <node id="-576" lat="48.7743358" lon="11.4334736" visible="true" />
  <node id="-577" lat="48.7743182" lon="11.4335936" visible="true" />
  <node id="-578" lat="48.7742472" lon="11.4335697" visible="true" />
  <node id="-579" lat="48.7742648" lon="11.4334497" visible="true" />
  <node id="-580" lat="48.7738832" lon="11.4293675" visible="true" />
  <node id="-581" lat="48.7738418" lon="11.4294081" visible="true" />
  <node id="-582" lat="48.7737933" lon="11.4292939" visible="true" />
  <node id="-583" lat="48.7738346" lon="11.4292534" visible="true" />
  <node id="-584" lat="48.7739158" lon="11.4233340" visible="true" />
  <node id="-585" lat="48.7739174" lon="11.4234106" visible="true" />
  <node id="-586" lat="48.7738379" lon="11.4234145" visible="true" />
  <node id="-587" lat="48.7738363" lon="11.4233379" visible="true" />
  <node id="-588" lat="48.7743798" lon="11.4233807" visible="true" />
  <node id="-589" lat="48.7743894" lon="11.4235708" visible="true" />
  <node id="-590" lat="48.7742881" lon="11.4235825" visible="true" />
  <node id="-591" lat="48.7742786" lon="11.4233924" visible="true" />
  <node id="-592" lat="48.7723619" lon="11.4297637" visible="true" />
  <node id="-593" lat="48.7723663" lon="11.4298033" visible="true" />
  <node id="-594" lat="48.7723093" lon="11.4298179" visible="true" />
  <node id="-595" lat="48.7723049" lon="11.4297783" visible="true" />
  <node id="-596" lat="48.7725433" lon="11.4296995" visible="true" />
  <node id="-597" lat="48.7725382" lon="11.4298153" visible="true" />
  <node id="-598" lat="48.7725006" lon="11.4298114" visible="true" />
  <node id="-599" lat="48.7725057" lon="11.4296957" visible="true" />
  <node id="-600" lat="48.7724632" lon="11.4301912" visible="true" />
  <node id="-601" lat="48.7724663" lon="11.4301037" visible="true" />
  <node id="-602" lat="48.7725851" lon="11.4301133" visible="true" />
  <node id="-603" lat="48.7725820" lon="11.4302008" visible="true" />
  <node id="-604" lat="48.7736407" lon="11.4304750" visible="true" />
  <node id="-605" lat="48.7737002" lon="11.4306204" visible="true" />
  <node id="-606" lat="48.7735424" lon="11.4307691" visible="true" />
  <node id="-607" lat="48.7734829" lon="11.4306238" visible="true" />
  <node id="-608" lat="48.7741843" lon="11.4287270" visible="true" />
  <node id="-609" lat="48.7741706" lon="11.4286595" visible="true" />
  <node id="-610" lat="48.7743834" lon="11.4285603" visible="true" />
  <node id="-611" lat="48.7743971" lon="11.4286278" visible="true" />
  <node id="-612" lat="48.7727072" lon="11.4304705" visible="true" />
  <node id="-613" lat="48.7727071" lon="11.4307491" visible="true" />
  <node id="-614" lat="48.7726274" lon="11.4307490" visible="true" />
  <node id="-615" lat="48.7726276" lon="11.4304704" visible="true" />
  <node id="-616" lat="48.7738304" lon="11.4288687" visible="true" />
  <node id="-617" lat="48.7738486" lon="11.4289365" visible="true" />
  <node id="-618" lat="48.7735336" lon="11.4291322" visible="true" />
  <node id="-619" lat="48.7735153" lon="11.4290644" visible="true" />
  <node id="-620" lat="48.7725032" lon="11.4298282" visible="true" />
  <node id="-621" lat="48.7724927" lon="11.4300579" visible="true" />
  <node id="-622" lat="48.7724031" lon="11.4300485" visible="true" />
  <node id="-623" lat="48.7724136" lon="11.4298188" visible="true" />
  <node id="-624" lat="48.7740548" lon="11.4288845" visible="true" />
  <node id="-625" lat="48.7744202" lon="11.4287134" visible="true" />
  <node id="-626" lat="48.7744311" lon="11.4287669" visible="true" />
  <node id="-627" lat="48.7740657" lon="11.4289381" visible="true" />
  <node id="-628" lat="48.7739376" lon="11.4237892" visible="true" />
  <node id="-629" lat="48.7739642" lon="11.4238576" visible="true" />
  <node id="-630" lat="48.7739014" lon="11.4239140" visible="true" />
  <node id="-631" lat="48.7738748" lon="11.4238456" visible="true" />
  <node id="-632" lat="48.7744003" lon="11.4236725" visible="true" />
  <node id="-633" lat="48.7744151" lon="11.4238690" visible="true" />
  <node id="-634" lat="48.7742805" lon="11.4238923" visible="true" />
  <node id="-635" lat="48.7742657" lon="11.4236958" visible="true" />
  <node id="-636" lat="48.7735717" lon="11.4294721" visible="true" />
  <node id="-637" lat="48.7736137" lon="11.4294309" visible="true" />
  <node id="-638" lat="48.7736622" lon="11.4295449" visible="true" />
  <node id="-639" lat="48.7736202" lon="11.4295860" visible="true" />
  <node id="-640" lat="48.7727072" lon="11.4297085" visible="true" />
  <node id="-641" lat="48.7726945" lon="11.4301033" visible="true" />
  <node id="-642" lat="48.7725409" lon="11.4300919" visible="true" />
  <node id="-643" lat="48.7725536" lon="11.4296972" visible="true" />
  <node id="-644" lat="48.7735482" lon="11.4296909" visible="true" />
  <node id="-645" lat="48.7734067" lon="11.4298295" visible="true" />
  <node id="-646" lat="48.7733605" lon="11.4297209" visible="true" />
  <node id="-647" lat="48.7735020" lon="11.4295823" visible="true" />
  <node id="-648" lat="48.7727426" lon="11.4301721" visible="true" />
  <node id="-649" lat="48.7727344" lon="11.4303674" visible="true" />
  <node id="-650" lat="48.7726298" lon="11.4303573" visible="true" />
  <node id="-651" lat="48.7726379" lon="11.4301620" visible="true" />
  <node id="-652" lat="48.7722680" lon="11.4303370" visible="true" />
  <node id="-653" lat="48.7722783" lon="11.4301125" visible="true" />
  <node id="-654" lat="48.7724045" lon="11.4301258" visible="true" />
  <node id="-655" lat="48.7723995" lon="11.4302355" visible="true" />
  <node id="-656" lat="48.7724481" lon="11.4302406" visible="true" />
  <node id="-657" lat="48.7724432" lon="11.4303490" visible="true" />
  <node id="-658" lat="48.7738763" lon="11.4223162" visible="true" />
  <node id="-659" lat="48.7738789" lon="11.4224462" visible="true" />
  <node id="-660" lat="48.7738365" lon="11.4224481" visible="true" />
  <node id="-661" lat="48.7738340" lon="11.4223181" visible="true" />
  <node id="-662" lat="48.7740074" lon="11.4224959" visible="true" />
  <node id="-663" lat="48.7740074" lon="11.4226450" visible="true" />
  <node id="-664" lat="48.7738915" lon="11.4226450" visible="true" />
  <node id="-665" lat="48.7738915" lon="11.4224959" visible="true" />
  <node id="-666" lat="48.7733106" lon="11.4327939" visible="true" />
  <node id="-667" lat="48.7733454" lon="11.4328740" visible="true" />
  <node id="-668" lat="48.7737190" lon="11.4325007" visible="true" />
  <node id="-669" lat="48.7736842" lon="11.4324205" visible="true" />
  <node id="-670" lat="48.7731625" lon="11.4324570" visible="true" />
  <node id="-671" lat="48.7731976" lon="11.4325384" visible="true" />
  <node id="-672" lat="48.7733899" lon="11.4323469" visible="true" />
  <node id="-673" lat="48.7738248" lon="11.4319114" visible="true" />
  <node id="-674" lat="48.7737897" lon="11.4318300" visible="true" />
  <node id="-675" lat="48.7732929" lon="11.4323262" visible="true" />
  <node id="-676" lat="48.7735077" lon="11.4292383" visible="true" />
  <node id="-677" lat="48.7738818" lon="11.4290062" visible="true" />
  <node id="-678" lat="48.7739012" lon="11.4290784" visible="true" />
  <node id="-679" lat="48.7735271" lon="11.4293105" visible="true" />
  <node id="-680" lat="48.7735424" lon="11.4295427" visible="true" />
  <node id="-681" lat="48.7735783" lon="11.4296271" visible="true" />
  <node id="-682" lat="48.7735886" lon="11.4296513" visible="true" />
  <node id="-683" lat="48.7735298" lon="11.4295131" visible="true" />
  <node id="-684" lat="48.7736558" lon="11.4293897" visible="true" />
  <node id="-685" lat="48.7736982" lon="11.4293481" visible="true" />
  <node id="-686" lat="48.7737099" lon="11.4293756" visible="true" />
  <node id="-687" lat="48.7737467" lon="11.4294621" visible="true" />
  <node id="-688" lat="48.7737042" lon="11.4295037" visible="true" />
  <node id="-689" lat="48.7738005" lon="11.4294486" visible="true" />
  <node id="-690" lat="48.7737584" lon="11.4294898" visible="true" />
  <node id="-691" lat="48.7737519" lon="11.4293345" visible="true" />
  <node id="-692" lat="48.7735958" lon="11.4281932" visible="true" />
  <node id="-693" lat="48.7735743" lon="11.4281095" visible="true" />
  <node id="-694" lat="48.7736715" lon="11.4280519" visible="true" />
  <node id="-695" lat="48.7736930" lon="11.4281356" visible="true" />
  <node id="-696" lat="48.7737130" lon="11.4282132" visible="true" />
  <node id="-697" lat="48.7736245" lon="11.4282657" visible="true" />
  <node id="-698" lat="48.7736158" lon="11.4282708" visible="true" />
  <node id="-699" lat="48.7736439" lon="11.4283412" visible="true" />
  <node id="-700" lat="48.7737212" lon="11.4282084" visible="true" />
  <node id="-701" lat="48.7737406" lon="11.4282839" visible="true" />
  <node id="-702" lat="48.7733580" lon="11.4282484" visible="true" />
  <node id="-703" lat="48.7733387" lon="11.4281741" visible="true" />
  <node id="-704" lat="48.7734354" lon="11.4281164" visible="true" />
  <node id="-705" lat="48.7734547" lon="11.4281906" visible="true" />
  <node id="-706" lat="48.7735413" lon="11.4284903" visible="true" />
  <node id="-707" lat="48.7735615" lon="11.4285682" visible="true" />
  <node id="-708" lat="48.7734649" lon="11.4286259" visible="true" />
  <node id="-709" lat="48.7734447" lon="11.4285480" visible="true" />
  <node id="-710" lat="48.7735211" lon="11.4284124" visible="true" />
  <node id="-711" lat="48.7734245" lon="11.4284701" visible="true" />
  <node id="-712" lat="48.7735008" lon="11.4283346" visible="true" />
  <node id="-713" lat="48.7731603" lon="11.4331894" visible="true" />
  <node id="-714" lat="48.7731238" lon="11.4332137" visible="true" />
  <node id="-715" lat="48.7731450" lon="11.4332874" visible="true" />
  <node id="-716" lat="48.7731816" lon="11.4332632" visible="true" />
  <node id="-717" lat="48.7734584" lon="11.4287833" visible="true" />
  <node id="-718" lat="48.7734758" lon="11.4288508" visible="true" />
  <node id="-719" lat="48.7734301" lon="11.4288779" visible="true" />
  <node id="-720" lat="48.7734127" lon="11.4288104" visible="true" />
  <node id="-721" lat="48.7735145" lon="11.4289897" visible="true" />
  <node id="-722" lat="48.7734786" lon="11.4288501" visible="true" />
  <node id="-723" lat="48.7737710" lon="11.4286767" visible="true" />
  <node id="-724" lat="48.7738206" lon="11.4286472" visible="true" />
  <node id="-725" lat="48.7738566" lon="11.4287869" visible="true" />
  <node id="-726" lat="48.7738069" lon="11.4288164" visible="true" />
  <node id="-727" lat="48.7737213" lon="11.4287061" visible="true" />
  <node id="-728" lat="48.7737573" lon="11.4288458" visible="true" />
  <node id="-729" lat="48.7737554" lon="11.4288384" visible="true" />
  <node id="-730" lat="48.7736698" lon="11.4287281" visible="true" />
  <node id="-731" lat="48.7737194" lon="11.4286987" visible="true" />
  <node id="-732" lat="48.7737057" lon="11.4288678" visible="true" />
  <node id="-733" lat="48.7736201" lon="11.4287575" visible="true" />
  <node id="-734" lat="48.7736561" lon="11.4288972" visible="true" />
  <node id="-735" lat="48.7736220" lon="11.4287650" visible="true" />
  <node id="-736" lat="48.7736580" lon="11.4289047" visible="true" />
  <node id="-737" lat="48.7738562" lon="11.4288527" visible="true" />
  <node id="-738" lat="48.7738744" lon="11.4289205" visible="true" />
  <node id="-739" lat="48.7728869" lon="11.4316890" visible="true" />
  <node id="-740" lat="48.7725276" lon="11.4320453" visible="true" />
  <node id="-741" lat="48.7726844" lon="11.4324094" visible="true" />
  <node id="-742" lat="48.7727283" lon="11.4325111" visible="true" />
  <node id="-743" lat="48.7727365" lon="11.4325303" visible="true" />
  <node id="-744" lat="48.7727578" lon="11.4325798" visible="true" />
  <node id="-745" lat="48.7727712" lon="11.4326108" visible="true" />
  <node id="-746" lat="48.7731304" lon="11.4322546" visible="true" />
  <node id="-747" lat="48.7730907" lon="11.4321623" visible="true" />
  <node id="-748" lat="48.7730515" lon="11.4320714" visible="true" />
  <node id="-749" lat="48.7729544" lon="11.4323255" visible="true" />
  <node id="-750" lat="48.7729072" lon="11.4322158" visible="true" />
  <node id="-751" lat="48.7728886" lon="11.4321725" visible="true" />
  <node id="-752" lat="48.7728085" lon="11.4322518" visible="true" />
  <node id="-753" lat="48.7728254" lon="11.4322911" visible="true" />
  <node id="-754" lat="48.7728742" lon="11.4324047" visible="true" />
  <node id="-755" lat="48.7732315" lon="11.4326133" visible="true" />
  <node id="-756" lat="48.7732666" lon="11.4326948" visible="true" />
  <node id="-757" lat="48.7732897" lon="11.4326717" visible="true" />
  <node id="-758" lat="48.7733971" lon="11.4325643" visible="true" />
  <node id="-759" lat="48.7738938" lon="11.4320678" visible="true" />
  <node id="-760" lat="48.7738587" lon="11.4319863" visible="true" />
  <node id="-761" lat="48.7734182" lon="11.4324295" visible="true" />
  <way id="-1000000000" visible="true">
    <nd ref="-1" />
    <nd ref="-2" />
    <nd ref="-3" />
    <nd ref="-4" />
    <nd ref="-5" />
    <nd ref="-6" />
    <nd ref="-7" />
    <nd ref="-8" />
    <nd ref="-9" />
    <nd ref="-10" />
    <nd ref="-11" />
    <nd ref="-12" />
    <nd ref="-13" />
    <nd ref="-14" />
    <nd ref="-15" />
    <nd ref="-16" />
    <nd ref="-17" />
    <nd ref="-18" />
    <nd ref="-19" />
    <nd ref="-20" />
    <nd ref="-21" />
    <nd ref="-22" />
    <nd ref="-23" />
    <nd ref="-24" />
    <nd ref="-25" />
    <nd ref="-26" />
    <nd ref="-27" />
    <nd ref="-28" />
    <nd ref="-29" />
    <nd ref="-30" />
    <nd ref="-31" />
    <nd ref="-32" />
    <nd ref="-33" />
    <nd ref="-34" />
    <nd ref="-1" />
    <tag k="addr:city" v="Ingolstadt" />
    <tag k="addr:country" v="DE" />
    <tag k="addr:housenumber" v="1" />
    <tag k="addr:postcode" v="85057" />
    <tag k="addr:street" v="Hindenburgstraße" />
    <tag k="building" v="yes" />
    <tag k="operator" v="Stadtbus Ingolstadt GmbH" />
    <tag k="source" v="Bing(2012)" />
  </way>
  <way id="-1000000001" visible="true">
    <nd ref="-35" />
    <nd ref="-36" />
    <nd ref="-37" />
    <nd ref="-38" />
    <nd ref="-39" />
    <nd ref="-40" />
    <nd ref="-35" />
    <tag k="building" v="yes" />
    <tag k="source" v="HiRes aerial imagery" />
  </way>
  <way id="-1000000002" visible="true">
    <nd ref="-41" />
    <nd ref="-42" />
    <nd ref="-43" />
    <nd ref="-44" />
    <nd ref="-41" />
    <tag k="addr:city" v="Ingolstadt" />
    <tag k="addr:country" v="DE" />
    <tag k="addr:housenumber" v="17a" />
    <tag k="addr:postcode" v="85057" />
    <tag k="addr:street" v="Hindenburgstraße" />
    <tag k="building" v="yes" />
  </way>
  <way id="-1000000003" visible="true">
    <nd ref="-45" />
    <nd ref="-46" />
    <nd ref="-47" />
    <nd ref="-48" />
    <nd ref="-45" />
    <tag k="building" v="yes" />
  </way>
  <way id="-1000000004" visible="true">
    <nd ref="-49" />
    <nd ref="-50" />
    <nd ref="-51" />
    <nd ref="-52" />
    <nd ref="-49" />
    <tag k="building" v="apartments" />
    <tag k="created_by" v="Potlatch 0.10f" />
  </way>
  <way id="-1000000005" visible="true">
    <nd ref="-53" />
    <nd ref="-54" />
    <nd ref="-55" />
    <nd ref="-56" />
    <nd ref="-53" />
    <tag k="building" v="yes" />
    <tag k="created_by" v="Potlatch 0.10f" />
  </way>
  <way id="-1000000006" visible="true">
    <nd ref="-57" />
    <nd ref="-58" />
    <nd ref="-59" />
    <nd ref="-60" />
    <nd ref="-61" />
    <nd ref="-62" />
    <nd ref="-63" />
    <nd ref="-64" />
    <nd ref="-65" />
    <nd ref="-66" />
    <nd ref="-67" />
    <nd ref="-68" />
    <nd ref="-69" />
    <nd ref="-70" />
    <nd ref="-71" />
    <nd ref="-72" />
    <nd ref="-73" />
    <nd ref="-57" />
    <tag k="addr:city" v="Ingolstadt" />
    <tag k="addr:country" v="DE" />
    <tag k="addr:housenumber" v="30a" />
    <tag k="addr:postcode" v="85055" />
    <tag k="addr:street" v="Nürnberger Straße" />
    <tag k="brand" v="Netto Marken-Discount" />
    <tag k="brand:wikidata" v="Q879858" />
    <tag k="brand:wikipedia" v="de:Netto Marken-Discount" />
    <tag k="building" v="yes" />
    <tag k="check_date:opening_hours" v="2026-05-21" />
    <tag k="name" v="Netto Marken-Discount" />
    <tag k="opening_hours" v="Mo-Sa 07:00-20:00; PH off" />
    <tag k="shop" v="supermarket" />
    <tag k="website" v="https://www.netto-online.de/filialen/Ingolstadt/Nuernberger-Str-30/4004/" />
    <tag k="wheelchair" v="yes" />
  </way>
  <way id="-1000000007" visible="true">
    <nd ref="-74" />
    <nd ref="-75" />
    <nd ref="-76" />
    <nd ref="-77" />
    <nd ref="-74" />
    <tag k="building" v="yes" />
    <tag k="source" v="HiRes aerial imagery" />
  </way>
  <way id="-1000000008" visible="true">
    <nd ref="-78" />
    <nd ref="-79" />
    <nd ref="-80" />
    <nd ref="-81" />
    <nd ref="-78" />
    <tag k="building" v="apartments" />
  </way>
  <way id="-1000000009" visible="true">
    <nd ref="-82" />
    <nd ref="-83" />
    <nd ref="-84" />
    <nd ref="-85" />
    <nd ref="-82" />
    <tag k="building" v="apartments" />
  </way>
  <way id="-1000000010" visible="true">
    <nd ref="-86" />
    <nd ref="-87" />
    <nd ref="-88" />
    <nd ref="-89" />
    <nd ref="-86" />
    <tag k="building" v="yes" />
  </way>
  <way id="-1000000011" visible="true">
    <nd ref="-90" />
    <nd ref="-91" />
    <nd ref="-92" />
    <nd ref="-93" />
    <nd ref="-90" />
    <tag k="building" v="yes" />
  </way>
  <way id="-1000000012" visible="true">
    <nd ref="-94" />
    <nd ref="-95" />
    <nd ref="-96" />
    <nd ref="-97" />
    <nd ref="-94" />
    <tag k="building" v="yes" />
  </way>
  <way id="-1000000013" visible="true">
    <nd ref="-98" />
    <nd ref="-99" />
    <nd ref="-100" />
    <nd ref="-101" />
    <nd ref="-98" />
    <tag k="building" v="yes" />
  </way>
  <way id="-1000000014" visible="true">
    <nd ref="-102" />
    <nd ref="-103" />
    <nd ref="-104" />
    <nd ref="-105" />
    <nd ref="-102" />
    <tag k="building" v="yes" />
  </way>
  <way id="-1000000015" visible="true">
    <nd ref="-106" />
    <nd ref="-107" />
    <nd ref="-108" />
    <nd ref="-109" />
    <nd ref="-106" />
    <tag k="building" v="garage" />
  </way>
  <way id="-1000000016" visible="true">
    <nd ref="-110" />
    <nd ref="-111" />
    <nd ref="-112" />
    <nd ref="-113" />
    <nd ref="-110" />
    <tag k="building" v="yes" />
  </way>
  <way id="-1000000017" visible="true">
    <nd ref="-114" />
    <nd ref="-115" />
    <nd ref="-116" />
    <nd ref="-117" />
    <nd ref="-114" />
    <tag k="building" v="apartments" />
  </way>
  <way id="-1000000018" visible="true">
    <nd ref="-118" />
    <nd ref="-119" />
    <nd ref="-120" />
    <nd ref="-121" />
    <nd ref="-118" />
    <tag k="building" v="garages" />
    <tag k="building:use" v="garage" />
  </way>
  <way id="-1000000019" visible="true">
    <nd ref="-122" />
    <nd ref="-123" />
    <nd ref="-124" />
    <nd ref="-125" />
    <nd ref="-122" />
    <tag k="building" v="yes" />
  </way>
  <way id="-1000000020" visible="true">
    <nd ref="-126" />
    <nd ref="-127" />
    <nd ref="-128" />
    <nd ref="-129" />
    <nd ref="-126" />
    <tag k="building" v="yes" />
  </way>
  <way id="-1000000021" visible="true">
    <nd ref="-130" />
    <nd ref="-131" />
    <nd ref="-132" />
    <nd ref="-133" />
    <nd ref="-130" />
    <tag k="building" v="yes" />
  </way>
  <way id="-1000000022" visible="true">
    <nd ref="-134" />
    <nd ref="-135" />
    <nd ref="-136" />
    <nd ref="-137" />
    <nd ref="-134" />
    <tag k="building" v="yes" />
  </way>
  <way id="-1000000023" visible="true">
    <nd ref="-138" />
    <nd ref="-139" />
    <nd ref="-140" />
    <nd ref="-141" />
    <nd ref="-138" />
    <tag k="building" v="yes" />
  </way>
  <way id="-1000000024" visible="true">
    <nd ref="-142" />
    <nd ref="-143" />
    <nd ref="-144" />
    <nd ref="-145" />
    <nd ref="-142" />
    <tag k="building" v="residential" />
  </way>
  <way id="-1000000025" visible="true">
    <nd ref="-146" />
    <nd ref="-147" />
    <nd ref="-148" />
    <nd ref="-149" />
    <nd ref="-150" />
    <nd ref="-146" />
    <tag k="building" v="yes" />
  </way>
  <way id="-1000000026" visible="true">
    <nd ref="-151" />
    <nd ref="-152" />
    <nd ref="-153" />
    <nd ref="-154" />
    <nd ref="-151" />
    <tag k="building" v="yes" />
  </way>
  <way id="-1000000027" visible="true">
    <nd ref="-155" />
    <nd ref="-156" />
    <nd ref="-157" />
    <nd ref="-158" />
    <nd ref="-155" />
    <tag k="building" v="yes" />
  </way>
  <way id="-1000000028" visible="true">
    <nd ref="-159" />
    <nd ref="-160" />
    <nd ref="-161" />
    <nd ref="-162" />
    <nd ref="-159" />
    <tag k="building" v="yes" />
  </way>
  <way id="-1000000029" visible="true">
    <nd ref="-163" />
    <nd ref="-164" />
    <nd ref="-165" />
    <nd ref="-166" />
    <nd ref="-163" />
    <tag k="building" v="yes" />
  </way>
  <way id="-1000000030" visible="true">
    <nd ref="-167" />
    <nd ref="-168" />
    <nd ref="-169" />
    <nd ref="-170" />
    <nd ref="-171" />
    <nd ref="-172" />
    <nd ref="-167" />
    <tag k="building" v="yes" />
    <tag k="source" v="HiRes aerial imagery" />
  </way>
  <way id="-1000000031" visible="true">
    <nd ref="-173" />
    <nd ref="-174" />
    <nd ref="-175" />
    <nd ref="-176" />
    <nd ref="-173" />
    <tag k="building" v="yes" />
  </way>
  <way id="-1000000032" visible="true">
    <nd ref="-177" />
    <nd ref="-178" />
    <nd ref="-179" />
    <nd ref="-180" />
    <nd ref="-181" />
    <nd ref="-182" />
    <nd ref="-177" />
    <tag k="building" v="yes" />
  </way>
  <way id="-1000000033" visible="true">
    <nd ref="-183" />
    <nd ref="-184" />
    <nd ref="-185" />
    <nd ref="-186" />
    <nd ref="-183" />
    <tag k="building" v="yes" />
  </way>
  <way id="-1000000034" visible="true">
    <nd ref="-187" />
    <nd ref="-188" />
    <nd ref="-189" />
    <nd ref="-190" />
    <nd ref="-187" />
    <tag k="building" v="yes" />
  </way>
  <way id="-1000000035" visible="true">
    <nd ref="-191" />
    <nd ref="-192" />
    <nd ref="-193" />
    <nd ref="-194" />
    <nd ref="-191" />
    <tag k="building" v="yes" />
  </way>
  <way id="-1000000036" visible="true">
    <nd ref="-195" />
    <nd ref="-196" />
    <nd ref="-197" />
    <nd ref="-198" />
    <nd ref="-195" />
    <tag k="building" v="yes" />
  </way>
  <way id="-1000000037" visible="true">
    <nd ref="-199" />
    <nd ref="-200" />
    <nd ref="-201" />
    <nd ref="-202" />
    <nd ref="-199" />
    <tag k="building" v="yes" />
  </way>
  <way id="-1000000038" visible="true">
    <nd ref="-203" />
    <nd ref="-204" />
    <nd ref="-205" />
    <nd ref="-206" />
    <nd ref="-203" />
    <tag k="building" v="yes" />
  </way>
  <way id="-1000000039" visible="true">
    <nd ref="-207" />
    <nd ref="-208" />
    <nd ref="-209" />
    <nd ref="-210" />
    <nd ref="-207" />
    <tag k="building" v="yes" />
  </way>
  <way id="-1000000040" visible="true">
    <nd ref="-211" />
    <nd ref="-212" />
    <nd ref="-213" />
    <nd ref="-214" />
    <nd ref="-211" />
    <tag k="building" v="yes" />
  </way>
  <way id="-1000000041" visible="true">
    <nd ref="-215" />
    <nd ref="-216" />
    <nd ref="-217" />
    <nd ref="-218" />
    <nd ref="-215" />
    <tag k="building" v="yes" />
  </way>
  <way id="-1000000042" visible="true">
    <nd ref="-219" />
    <nd ref="-220" />
    <nd ref="-221" />
    <nd ref="-222" />
    <nd ref="-219" />
    <tag k="building" v="yes" />
  </way>
  <way id="-1000000043" visible="true">
    <nd ref="-223" />
    <nd ref="-224" />
    <nd ref="-225" />
    <nd ref="-226" />
    <nd ref="-223" />
    <tag k="building" v="yes" />
  </way>
  <way id="-1000000044" visible="true">
    <nd ref="-227" />
    <nd ref="-228" />
    <nd ref="-229" />
    <nd ref="-230" />
    <nd ref="-231" />
    <nd ref="-232" />
    <nd ref="-227" />
    <tag k="building" v="yes" />
  </way>
  <way id="-1000000045" visible="true">
    <nd ref="-233" />
    <nd ref="-234" />
    <nd ref="-235" />
    <nd ref="-236" />
    <nd ref="-237" />
    <nd ref="-238" />
    <nd ref="-233" />
    <tag k="building" v="yes" />
  </way>
  <way id="-1000000046" visible="true">
    <nd ref="-239" />
    <nd ref="-240" />
    <nd ref="-241" />
    <nd ref="-242" />
    <nd ref="-239" />
    <tag k="building" v="yes" />
  </way>
  <way id="-1000000047" visible="true">
    <nd ref="-243" />
    <nd ref="-244" />
    <nd ref="-245" />
    <nd ref="-246" />
    <nd ref="-243" />
    <tag k="building" v="yes" />
  </way>
  <way id="-1000000048" visible="true">
    <nd ref="-247" />
    <nd ref="-248" />
    <nd ref="-249" />
    <nd ref="-250" />
    <nd ref="-247" />
    <tag k="building" v="yes" />
  </way>
  <way id="-1000000049" visible="true">
    <nd ref="-251" />
    <nd ref="-252" />
    <nd ref="-253" />
    <nd ref="-254" />
    <nd ref="-251" />
    <tag k="building" v="yes" />
  </way>
  <way id="-1000000050" visible="true">
    <nd ref="-255" />
    <nd ref="-256" />
    <nd ref="-257" />
    <nd ref="-258" />
    <nd ref="-255" />
    <tag k="building" v="yes" />
  </way>
  <way id="-1000000051" visible="true">
    <nd ref="-259" />
    <nd ref="-260" />
    <nd ref="-261" />
    <nd ref="-262" />
    <nd ref="-259" />
    <tag k="building" v="yes" />
  </way>
  <way id="-1000000052" visible="true">
    <nd ref="-263" />
    <nd ref="-264" />
    <nd ref="-265" />
    <nd ref="-266" />
    <nd ref="-263" />
    <tag k="building" v="yes" />
  </way>
  <way id="-1000000053" visible="true">
    <nd ref="-267" />
    <nd ref="-171" />
    <nd ref="-170" />
    <nd ref="-268" />
    <nd ref="-269" />
    <nd ref="-267" />
    <tag k="building" v="yes" />
    <tag k="source" v="HiRes aerial imagery" />
  </way>
  <way id="-1000000054" visible="true">
    <nd ref="-270" />
    <nd ref="-271" />
    <nd ref="-272" />
    <nd ref="-273" />
    <nd ref="-270" />
    <tag k="building" v="yes" />
    <tag k="source" v="HiRes aerial imagery" />
  </way>
  <way id="-1000000055" visible="true">
    <nd ref="-274" />
    <nd ref="-275" />
    <nd ref="-276" />
    <nd ref="-277" />
    <nd ref="-274" />
    <tag k="building" v="yes" />
    <tag k="source" v="HiRes aerial imagery" />
  </way>
  <way id="-1000000056" visible="true">
    <nd ref="-278" />
    <nd ref="-279" />
    <nd ref="-280" />
    <nd ref="-281" />
    <nd ref="-282" />
    <nd ref="-283" />
    <nd ref="-284" />
    <nd ref="-278" />
    <tag k="building" v="yes" />
    <tag k="source" v="HiRes aerial imagery" />
  </way>
  <way id="-1000000057" visible="true">
    <nd ref="-285" />
    <nd ref="-280" />
    <nd ref="-279" />
    <nd ref="-286" />
    <nd ref="-285" />
    <tag k="building" v="yes" />
    <tag k="source" v="HiRes aerial imagery" />
  </way>
  <way id="-1000000058" visible="true">
    <nd ref="-287" />
    <nd ref="-288" />
    <nd ref="-289" />
    <nd ref="-290" />
    <nd ref="-287" />
    <tag k="building" v="yes" />
  </way>
  <way id="-1000000059" visible="true">
    <nd ref="-291" />
    <nd ref="-292" />
    <nd ref="-293" />
    <nd ref="-294" />
    <nd ref="-291" />
    <tag k="building" v="yes" />
  </way>
  <way id="-1000000060" visible="true">
    <nd ref="-295" />
    <nd ref="-296" />
    <nd ref="-297" />
    <nd ref="-298" />
    <nd ref="-295" />
    <tag k="building" v="yes" />
  </way>
  <way id="-1000000061" visible="true">
    <nd ref="-299" />
    <nd ref="-300" />
    <nd ref="-301" />
    <nd ref="-302" />
    <nd ref="-299" />
    <tag k="building" v="yes" />
  </way>
  <way id="-1000000062" visible="true">
    <nd ref="-303" />
    <nd ref="-304" />
    <nd ref="-305" />
    <nd ref="-306" />
    <nd ref="-303" />
    <tag k="building" v="yes" />
  </way>
  <way id="-1000000063" visible="true">
    <nd ref="-307" />
    <nd ref="-308" />
    <nd ref="-309" />
    <nd ref="-310" />
    <nd ref="-307" />
    <tag k="building" v="yes" />
  </way>
  <way id="-1000000064" visible="true">
    <nd ref="-311" />
    <nd ref="-312" />
    <nd ref="-313" />
    <nd ref="-314" />
    <nd ref="-311" />
    <tag k="building" v="yes" />
  </way>
  <way id="-1000000065" visible="true">
    <nd ref="-315" />
    <nd ref="-316" />
    <nd ref="-317" />
    <nd ref="-318" />
    <nd ref="-315" />
    <tag k="building" v="yes" />
  </way>
  <way id="-1000000066" visible="true">
    <nd ref="-319" />
    <nd ref="-320" />
    <nd ref="-321" />
    <nd ref="-322" />
    <nd ref="-319" />
    <tag k="building" v="yes" />
  </way>
  <way id="-1000000067" visible="true">
    <nd ref="-323" />
    <nd ref="-324" />
    <nd ref="-325" />
    <nd ref="-326" />
    <nd ref="-323" />
    <tag k="building" v="yes" />
  </way>
  <way id="-1000000068" visible="true">
    <nd ref="-327" />
    <nd ref="-328" />
    <nd ref="-329" />
    <nd ref="-330" />
    <nd ref="-327" />
    <tag k="building" v="yes" />
    <tag k="source" v="HiRes aerial imagery" />
  </way>
  <way id="-1000000069" visible="true">
    <nd ref="-331" />
    <nd ref="-332" />
    <nd ref="-333" />
    <nd ref="-334" />
    <nd ref="-331" />
    <tag k="addr:city" v="Ingolstadt" />
    <tag k="addr:country" v="DE" />
    <tag k="addr:housenumber" v="21" />
    <tag k="addr:postcode" v="85057" />
    <tag k="addr:street" v="Hindenburgstraße" />
    <tag k="building" v="yes" />
    <tag k="name" v="Istanbul Market" />
    <tag k="shop" v="greengrocer" />
  </way>
  <way id="-1000000070" visible="true">
    <nd ref="-335" />
    <nd ref="-336" />
    <nd ref="-337" />
    <nd ref="-338" />
    <nd ref="-339" />
    <nd ref="-340" />
    <nd ref="-341" />
    <nd ref="-342" />
    <nd ref="-335" />
    <tag k="addr:housenumber" v="17" />
    <tag k="addr:street" v="Hindenburgstraße" />
    <tag k="building" v="yes" />
  </way>
  <way id="-1000000071" visible="true">
    <nd ref="-343" />
    <nd ref="-344" />
    <nd ref="-345" />
    <nd ref="-346" />
    <nd ref="-343" />
    <tag k="building" v="yes" />
    <tag k="source" v="HiRes aerial imagery" />
  </way>
  <way id="-1000000072" visible="true">
    <nd ref="-347" />
    <nd ref="-348" />
    <nd ref="-349" />
    <nd ref="-350" />
    <nd ref="-351" />
    <nd ref="-352" />
    <nd ref="-353" />
    <nd ref="-347" />
    <tag k="addr:city" v="Ingolstadt" />
    <tag k="addr:country" v="DE" />
    <tag k="addr:housenumber" v="4" />
    <tag k="addr:postcode" v="85049" />
    <tag k="addr:street" v="Am Nordbahnhof" />
    <tag k="building" v="yes" />
    <tag k="source" v="HiRes aerial imagery" />
  </way>
  <way id="-1000000073" visible="true">
    <nd ref="-354" />
    <nd ref="-355" />
    <nd ref="-356" />
    <nd ref="-357" />
    <nd ref="-358" />
    <nd ref="-359" />
    <nd ref="-360" />
    <nd ref="-361" />
    <nd ref="-362" />
    <nd ref="-363" />
    <nd ref="-364" />
    <nd ref="-365" />
    <nd ref="-366" />
    <nd ref="-367" />
    <nd ref="-368" />
    <nd ref="-354" />
    <tag k="building" v="yes" />
    <tag k="source" v="Bing(2012)" />
  </way>
  <way id="-1000000074" visible="true">
    <nd ref="-369" />
    <nd ref="-370" />
    <nd ref="-371" />
    <nd ref="-372" />
    <nd ref="-373" />
    <nd ref="-374" />
    <nd ref="-375" />
    <nd ref="-376" />
    <nd ref="-377" />
    <nd ref="-378" />
    <nd ref="-379" />
    <nd ref="-380" />
    <nd ref="-381" />
    <nd ref="-382" />
    <nd ref="-383" />
    <nd ref="-384" />
    <nd ref="-385" />
    <nd ref="-386" />
    <nd ref="-387" />
    <nd ref="-388" />
    <nd ref="-389" />
    <nd ref="-390" />
    <nd ref="-391" />
    <nd ref="-369" />
    <tag k="building" v="apartments" />
  </way>
  <way id="-1000000075" visible="true">
    <nd ref="-392" />
    <nd ref="-393" />
    <nd ref="-394" />
    <nd ref="-395" />
    <nd ref="-396" />
    <nd ref="-397" />
    <nd ref="-392" />
    <tag k="building" v="yes" />
  </way>
  <way id="-1000000076" visible="true">
    <nd ref="-398" />
    <nd ref="-399" />
    <nd ref="-400" />
    <nd ref="-401" />
    <nd ref="-398" />
    <tag k="building" v="yes" />
  </way>
  <way id="-1000000077" visible="true">
    <nd ref="-402" />
    <nd ref="-403" />
    <nd ref="-404" />
    <nd ref="-405" />
    <nd ref="-402" />
    <tag k="building" v="yes" />
  </way>
  <way id="-1000000078" visible="true">
    <nd ref="-406" />
    <nd ref="-407" />
    <nd ref="-408" />
    <nd ref="-409" />
    <nd ref="-406" />
    <tag k="building" v="yes" />
  </way>
  <way id="-1000000079" visible="true">
    <nd ref="-410" />
    <nd ref="-411" />
    <nd ref="-412" />
    <nd ref="-413" />
    <nd ref="-410" />
    <tag k="building" v="yes" />
    <tag k="building:levels" v="3" />
  </way>
  <way id="-1000000080" visible="true">
    <nd ref="-414" />
    <nd ref="-415" />
    <nd ref="-416" />
    <nd ref="-417" />
    <nd ref="-414" />
    <tag k="building" v="yes" />
  </way>
  <way id="-1000000081" visible="true">
    <nd ref="-418" />
    <nd ref="-419" />
    <nd ref="-420" />
    <nd ref="-421" />
    <nd ref="-422" />
    <nd ref="-423" />
    <nd ref="-424" />
    <nd ref="-425" />
    <nd ref="-426" />
    <nd ref="-427" />
    <nd ref="-418" />
    <tag k="building" v="house" />
  </way>
  <way id="-1000000082" visible="true">
    <nd ref="-428" />
    <nd ref="-429" />
    <nd ref="-430" />
    <nd ref="-431" />
    <nd ref="-428" />
    <tag k="building" v="yes" />
  </way>
  <way id="-1000000083" visible="true">
    <nd ref="-432" />
    <nd ref="-433" />
    <nd ref="-434" />
    <nd ref="-435" />
    <nd ref="-432" />
    <tag k="building" v="yes" />
  </way>
  <way id="-1000000084" visible="true">
    <nd ref="-436" />
    <nd ref="-437" />
    <nd ref="-438" />
    <nd ref="-439" />
    <nd ref="-436" />
    <tag k="building" v="yes" />
  </way>
  <way id="-1000000085" visible="true">
    <nd ref="-440" />
    <nd ref="-441" />
    <nd ref="-442" />
    <nd ref="-443" />
    <nd ref="-440" />
    <tag k="building" v="yes" />
  </way>
  <way id="-1000000086" visible="true">
    <nd ref="-444" />
    <nd ref="-445" />
    <nd ref="-446" />
    <nd ref="-447" />
    <nd ref="-444" />
    <tag k="building" v="yes" />
  </way>
  <way id="-1000000087" visible="true">
    <nd ref="-448" />
    <nd ref="-449" />
    <nd ref="-450" />
    <nd ref="-451" />
    <nd ref="-448" />
    <tag k="building" v="yes" />
  </way>
  <way id="-1000000088" visible="true">
    <nd ref="-452" />
    <nd ref="-453" />
    <nd ref="-454" />
    <nd ref="-455" />
    <nd ref="-452" />
    <tag k="building" v="yes" />
  </way>
  <way id="-1000000089" visible="true">
    <nd ref="-456" />
    <nd ref="-457" />
    <nd ref="-458" />
    <nd ref="-459" />
    <nd ref="-456" />
    <tag k="building" v="yes" />
  </way>
  <way id="-1000000090" visible="true">
    <nd ref="-460" />
    <nd ref="-461" />
    <nd ref="-462" />
    <nd ref="-463" />
    <nd ref="-464" />
    <nd ref="-465" />
    <nd ref="-466" />
    <nd ref="-467" />
    <nd ref="-468" />
    <nd ref="-469" />
    <nd ref="-470" />
    <nd ref="-471" />
    <nd ref="-472" />
    <nd ref="-473" />
    <nd ref="-474" />
    <nd ref="-475" />
    <nd ref="-476" />
    <nd ref="-477" />
    <nd ref="-478" />
    <nd ref="-479" />
    <nd ref="-480" />
    <nd ref="-481" />
    <nd ref="-482" />
    <nd ref="-483" />
    <nd ref="-484" />
    <nd ref="-485" />
    <nd ref="-486" />
    <nd ref="-487" />
    <nd ref="-488" />
    <nd ref="-489" />
    <nd ref="-460" />
    <tag k="addr:city" v="Ingolstadt" />
    <tag k="addr:country" v="DE" />
    <tag k="addr:housenumber" v="32a" />
    <tag k="addr:postcode" v="85055" />
    <tag k="addr:street" v="Nürnberger Straße" />
    <tag k="amenity" v="social_facility" />
    <tag k="brand" v="Arbeiterwohlfahrt" />
    <tag k="brand:wikidata" v="Q627256" />
    <tag k="building" v="yes" />
    <tag k="capacity" v="56" />
    <tag k="email" v="info@sz-in.awo-obb.de" />
    <tag k="fax" v="+49 841 993 332 11" />
    <tag k="name" v="AWO Seniorenzentrum Katharinengarten" />
    <tag k="operator" v="AWO Oberbayern e.V" />
    <tag k="phone" v="+49 841 993332-00" />
    <tag k="social_facility" v="group_home" />
    <tag k="social_facility:for" v="senior" />
    <tag k="source" v="HiRes aerial imagery" />
    <tag k="website" v="https://www.awo-obb-senioren.de/unsere-einrichtungen/ingolstadt/awo-seniorenzentrum-katharinengarten-ingolstadt/" />
  </way>
  <way id="-1000000091" visible="true">
    <nd ref="-490" />
    <nd ref="-491" />
    <nd ref="-492" />
    <nd ref="-493" />
    <nd ref="-490" />
    <tag k="building" v="industrial" />
  </way>
  <way id="-1000000092" visible="true">
    <nd ref="-494" />
    <nd ref="-495" />
    <nd ref="-496" />
    <nd ref="-497" />
    <nd ref="-498" />
    <nd ref="-499" />
    <nd ref="-500" />
    <nd ref="-501" />
    <nd ref="-502" />
    <nd ref="-503" />
    <nd ref="-504" />
    <nd ref="-505" />
    <nd ref="-506" />
    <nd ref="-507" />
    <nd ref="-508" />
    <nd ref="-509" />
    <nd ref="-494" />
    <tag k="addr:city" v="Ingolstadt" />
    <tag k="addr:country" v="DE" />
    <tag k="addr:housenumber" v="1" />
    <tag k="addr:postcode" v="85049" />
    <tag k="addr:street" v="Am Nordbahnhof" />
    <tag k="building" v="yes" />
    <tag k="source" v="HiRes aerial imagery" />
  </way>
  <way id="-1000000093" visible="true">
    <nd ref="-510" />
    <nd ref="-511" />
    <nd ref="-512" />
    <nd ref="-513" />
    <nd ref="-510" />
    <tag k="building" v="yes" />
    <tag k="source" v="HiRes aerial imagery" />
  </way>
  <way id="-1000000094" visible="true">
    <nd ref="-514" />
    <nd ref="-515" />
    <nd ref="-516" />
    <nd ref="-517" />
    <nd ref="-514" />
    <tag k="building" v="yes" />
    <tag k="source" v="HiRes aerial imagery" />
  </way>
  <way id="-1000000095" visible="true">
    <nd ref="-518" />
    <nd ref="-268" />
    <nd ref="-170" />
    <nd ref="-169" />
    <nd ref="-518" />
    <tag k="building" v="garage" />
    <tag k="source" v="HiRes aerial imagery" />
  </way>
  <way id="-1000000096" visible="true">
    <nd ref="-519" />
    <nd ref="-520" />
    <nd ref="-521" />
    <nd ref="-522" />
    <nd ref="-496" />
    <nd ref="-495" />
    <nd ref="-519" />
    <tag k="building" v="yes" />
    <tag k="source" v="HiRes aerial imagery" />
  </way>
  <way id="-1000000097" visible="true">
    <nd ref="-523" />
    <nd ref="-524" />
    <nd ref="-525" />
    <nd ref="-526" />
    <nd ref="-527" />
    <nd ref="-528" />
    <nd ref="-529" />
    <nd ref="-530" />
    <nd ref="-523" />
    <tag k="building" v="apartments" />
  </way>
  <way id="-1000000098" visible="true">
    <nd ref="-531" />
    <nd ref="-532" />
    <nd ref="-533" />
    <nd ref="-534" />
    <nd ref="-531" />
    <tag k="building" v="yes" />
  </way>
  <way id="-1000000099" visible="true">
    <nd ref="-535" />
    <nd ref="-536" />
    <nd ref="-537" />
    <nd ref="-538" />
    <nd ref="-539" />
    <nd ref="-540" />
    <nd ref="-541" />
    <nd ref="-542" />
    <nd ref="-543" />
    <nd ref="-544" />
    <nd ref="-535" />
    <tag k="building" v="yes" />
  </way>
  <way id="-1000000100" visible="true">
    <nd ref="-545" />
    <nd ref="-546" />
    <nd ref="-547" />
    <nd ref="-548" />
    <nd ref="-545" />
    <tag k="building" v="garage" />
  </way>
  <way id="-1000000101" visible="true">
    <nd ref="-549" />
    <nd ref="-550" />
    <nd ref="-551" />
    <nd ref="-552" />
    <nd ref="-549" />
    <tag k="building" v="yes" />
  </way>
  <way id="-1000000102" visible="true">
    <nd ref="-553" />
    <nd ref="-554" />
    <nd ref="-555" />
    <nd ref="-556" />
    <nd ref="-553" />
    <tag k="building" v="garage" />
  </way>
  <way id="-1000000103" visible="true">
    <nd ref="-557" />
    <nd ref="-558" />
    <nd ref="-559" />
    <nd ref="-560" />
    <nd ref="-557" />
    <tag k="building" v="apartments" />
  </way>
  <way id="-1000000104" visible="true">
    <nd ref="-561" />
    <nd ref="-562" />
    <nd ref="-563" />
    <nd ref="-564" />
    <nd ref="-561" />
    <tag k="building" v="yes" />
  </way>
  <way id="-1000000105" visible="true">
    <nd ref="-565" />
    <nd ref="-566" />
    <nd ref="-567" />
    <nd ref="-568" />
    <nd ref="-565" />
    <tag k="building" v="garage" />
  </way>
  <way id="-1000000106" visible="true">
    <nd ref="-569" />
    <nd ref="-265" />
    <nd ref="-570" />
    <nd ref="-571" />
    <nd ref="-569" />
    <tag k="building" v="garage" />
  </way>
  <way id="-1000000107" visible="true">
    <nd ref="-572" />
    <nd ref="-573" />
    <nd ref="-574" />
    <nd ref="-575" />
    <nd ref="-572" />
    <tag k="building" v="yes" />
  </way>
  <way id="-1000000108" visible="true">
    <nd ref="-576" />
    <nd ref="-577" />
    <nd ref="-578" />
    <nd ref="-579" />
    <nd ref="-576" />
    <tag k="building" v="detached" />
  </way>
  <way id="-1000000109" visible="true">
    <nd ref="-580" />
    <nd ref="-581" />
    <nd ref="-582" />
    <nd ref="-583" />
    <nd ref="-580" />
    <tag k="building" v="yes" />
  </way>
  <way id="-1000000110" visible="true">
    <nd ref="-584" />
    <nd ref="-585" />
    <nd ref="-586" />
    <nd ref="-587" />
    <nd ref="-584" />
    <tag k="building" v="garage" />
  </way>
  <way id="-1000000111" visible="true">
    <nd ref="-588" />
    <nd ref="-589" />
    <nd ref="-590" />
    <nd ref="-591" />
    <nd ref="-588" />
    <tag k="building" v="yes" />
  </way>
  <way id="-1000000112" visible="true">
    <nd ref="-592" />
    <nd ref="-593" />
    <nd ref="-594" />
    <nd ref="-595" />
    <nd ref="-592" />
    <tag k="building" v="yes" />
  </way>
  <way id="-1000000113" visible="true">
    <nd ref="-596" />
    <nd ref="-597" />
    <nd ref="-598" />
    <nd ref="-599" />
    <nd ref="-596" />
    <tag k="building" v="yes" />
  </way>
  <way id="-1000000114" visible="true">
    <nd ref="-600" />
    <nd ref="-601" />
    <nd ref="-602" />
    <nd ref="-603" />
    <nd ref="-600" />
    <tag k="building" v="yes" />
  </way>
  <way id="-1000000115" visible="true">
    <nd ref="-604" />
    <nd ref="-605" />
    <nd ref="-606" />
    <nd ref="-607" />
    <nd ref="-604" />
    <tag k="building" v="yes" />
  </way>
  <way id="-1000000116" visible="true">
    <nd ref="-608" />
    <nd ref="-609" />
    <nd ref="-610" />
    <nd ref="-611" />
    <nd ref="-608" />
    <tag k="building" v="garages" />
    <tag k="building:levels" v="1" />
  </way>
  <way id="-1000000117" visible="true">
    <nd ref="-612" />
    <nd ref="-613" />
    <nd ref="-614" />
    <nd ref="-615" />
    <nd ref="-612" />
    <tag k="building" v="yes" />
  </way>
  <way id="-1000000118" visible="true">
    <nd ref="-616" />
    <nd ref="-617" />
    <nd ref="-618" />
    <nd ref="-619" />
    <nd ref="-616" />
    <tag k="building" v="garages" />
    <tag k="building:levels" v="1" />
    <tag k="building:use" v="garage" />
    <tag k="roof:shape" v="flat" />
  </way>
  <way id="-1000000119" visible="true">
    <nd ref="-620" />
    <nd ref="-621" />
    <nd ref="-622" />
    <nd ref="-623" />
    <nd ref="-620" />
    <tag k="building" v="yes" />
  </way>
  <way id="-1000000120" visible="true">
    <nd ref="-624" />
    <nd ref="-625" />
    <nd ref="-626" />
    <nd ref="-627" />
    <nd ref="-624" />
    <tag k="building" v="garages" />
    <tag k="building:levels" v="1" />
    <tag k="building:use" v="garage" />
  </way>
  <way id="-1000000121" visible="true">
    <nd ref="-628" />
    <nd ref="-629" />
    <nd ref="-630" />
    <nd ref="-631" />
    <nd ref="-628" />
    <tag k="building" v="garage" />
  </way>
  <way id="-1000000122" visible="true">
    <nd ref="-632" />
    <nd ref="-633" />
    <nd ref="-634" />
    <nd ref="-635" />
    <nd ref="-632" />
    <tag k="building" v="yes" />
  </way>
  <way id="-1000000123" visible="true">
    <nd ref="-636" />
    <nd ref="-637" />
    <nd ref="-638" />
    <nd ref="-639" />
    <nd ref="-636" />
    <tag k="building" v="yes" />
  </way>
  <way id="-1000000124" visible="true">
    <nd ref="-640" />
    <nd ref="-641" />
    <nd ref="-642" />
    <nd ref="-643" />
    <nd ref="-640" />
    <tag k="building" v="yes" />
  </way>
  <way id="-1000000125" visible="true">
    <nd ref="-644" />
    <nd ref="-645" />
    <nd ref="-646" />
    <nd ref="-647" />
    <nd ref="-644" />
    <tag k="building" v="yes" />
  </way>
  <way id="-1000000126" visible="true">
    <nd ref="-648" />
    <nd ref="-649" />
    <nd ref="-650" />
    <nd ref="-651" />
    <nd ref="-648" />
    <tag k="building" v="yes" />
  </way>
  <way id="-1000000127" visible="true">
    <nd ref="-652" />
    <nd ref="-653" />
    <nd ref="-654" />
    <nd ref="-655" />
    <nd ref="-656" />
    <nd ref="-657" />
    <nd ref="-652" />
    <tag k="building" v="yes" />
  </way>
  <way id="-1000000128" visible="true">
    <nd ref="-658" />
    <nd ref="-659" />
    <nd ref="-660" />
    <nd ref="-661" />
    <nd ref="-658" />
    <tag k="building" v="yes" />
  </way>
  <way id="-1000000129" visible="true">
    <nd ref="-662" />
    <nd ref="-663" />
    <nd ref="-664" />
    <nd ref="-665" />
    <nd ref="-662" />
    <tag k="building" v="yes" />
  </way>
  <way id="-1000000130" visible="true">
    <nd ref="-666" />
    <nd ref="-667" />
    <nd ref="-668" />
    <nd ref="-669" />
    <nd ref="-666" />
    <tag k="building" v="roof" />
    <tag k="layer" v="1" />
  </way>
  <way id="-1000000131" visible="true">
    <nd ref="-670" />
    <nd ref="-671" />
    <nd ref="-672" />
    <nd ref="-673" />
    <nd ref="-674" />
    <nd ref="-675" />
    <nd ref="-670" />
    <tag k="building" v="roof" />
    <tag k="layer" v="1" />
  </way>
  <way id="-1000000132" visible="true">
    <nd ref="-676" />
    <nd ref="-677" />
    <nd ref="-678" />
    <nd ref="-679" />
    <nd ref="-676" />
    <tag k="building" v="garages" />
    <tag k="building:levels" v="1" />
    <tag k="roof:shape" v="flat" />
  </way>
  <way id="-1000000133" visible="true">
    <nd ref="-647" />
    <nd ref="-680" />
    <nd ref="-681" />
    <nd ref="-682" />
    <nd ref="-644" />
    <nd ref="-647" />
    <tag k="building" v="yes" />
  </way>
  <way id="-1000000134" visible="true">
    <nd ref="-636" />
    <nd ref="-639" />
    <nd ref="-681" />
    <nd ref="-680" />
    <nd ref="-683" />
    <nd ref="-636" />
    <tag k="building" v="yes" />
  </way>
  <way id="-1000000135" visible="true">
    <nd ref="-684" />
    <nd ref="-685" />
    <nd ref="-686" />
    <nd ref="-687" />
    <nd ref="-688" />
    <nd ref="-684" />
    <tag k="building" v="yes" />
  </way>
  <way id="-1000000136" visible="true">
    <nd ref="-637" />
    <nd ref="-684" />
    <nd ref="-688" />
    <nd ref="-638" />
    <nd ref="-637" />
    <tag k="building" v="yes" />
  </way>
  <way id="-1000000137" visible="true">
    <nd ref="-689" />
    <nd ref="-690" />
    <nd ref="-687" />
    <nd ref="-686" />
    <nd ref="-691" />
    <nd ref="-689" />
    <tag k="building" v="yes" />
  </way>
  <way id="-1000000138" visible="true">
    <nd ref="-581" />
    <nd ref="-689" />
    <nd ref="-691" />
    <nd ref="-582" />
    <nd ref="-581" />
    <tag k="building" v="yes" />
  </way>
  <way id="-1000000139" visible="true">
    <nd ref="-692" />
    <nd ref="-693" />
    <nd ref="-694" />
    <nd ref="-695" />
    <nd ref="-692" />
    <tag k="building" v="yes" />
  </way>
  <way id="-1000000140" visible="true">
    <nd ref="-692" />
    <nd ref="-695" />
    <nd ref="-696" />
    <nd ref="-697" />
    <nd ref="-698" />
    <nd ref="-692" />
    <tag k="building" v="yes" />
  </way>
  <way id="-1000000141" visible="true">
    <nd ref="-699" />
    <nd ref="-697" />
    <nd ref="-696" />
    <nd ref="-700" />
    <nd ref="-701" />
    <nd ref="-699" />
    <tag k="building" v="yes" />
  </way>
  <way id="-1000000142" visible="true">
    <nd ref="-139" />
    <nd ref="-699" />
    <nd ref="-701" />
    <nd ref="-140" />
    <nd ref="-139" />
    <tag k="building" v="yes" />
  </way>
  <way id="-1000000143" visible="true">
    <nd ref="-702" />
    <nd ref="-703" />
    <nd ref="-704" />
    <nd ref="-705" />
    <nd ref="-702" />
    <tag k="building" v="yes" />
  </way>
  <way id="-1000000144" visible="true">
    <nd ref="-147" />
    <nd ref="-702" />
    <nd ref="-705" />
    <nd ref="-148" />
    <nd ref="-147" />
    <tag k="building" v="yes" />
  </way>
  <way id="-1000000145" visible="true">
    <nd ref="-706" />
    <nd ref="-707" />
    <nd ref="-708" />
    <nd ref="-709" />
    <nd ref="-706" />
    <tag k="building" v="yes" />
  </way>
  <way id="-1000000146" visible="true">
    <nd ref="-710" />
    <nd ref="-706" />
    <nd ref="-709" />
    <nd ref="-711" />
    <nd ref="-710" />
    <tag k="building" v="yes" />
  </way>
  <way id="-1000000147" visible="true">
    <nd ref="-712" />
    <nd ref="-710" />
    <nd ref="-711" />
    <nd ref="-150" />
    <nd ref="-149" />
    <nd ref="-712" />
    <tag k="building" v="yes" />
  </way>
  <way id="-1000000148" visible="true">
    <nd ref="-713" />
    <nd ref="-714" />
    <nd ref="-715" />
    <nd ref="-716" />
    <nd ref="-713" />
    <tag k="building" v="yes" />
  </way>
  <way id="-1000000149" visible="true">
    <nd ref="-717" />
    <nd ref="-718" />
    <nd ref="-719" />
    <nd ref="-720" />
    <nd ref="-717" />
    <tag k="building" v="garages" />
    <tag k="building:levels" v="1" />
    <tag k="roof:shape" v="flat" />
  </way>
  <way id="-1000000150" visible="true">
    <nd ref="-142" />
    <nd ref="-145" />
    <nd ref="-721" />
    <nd ref="-722" />
    <nd ref="-142" />
    <tag k="building" v="garages" />
    <tag k="building:levels" v="1" />
    <tag k="roof:shape" v="flat" />
  </way>
  <way id="-1000000151" visible="true">
    <nd ref="-723" />
    <nd ref="-724" />
    <nd ref="-725" />
    <nd ref="-726" />
    <nd ref="-723" />
    <tag k="building" v="residential" />
  </way>
  <way id="-1000000152" visible="true">
    <nd ref="-727" />
    <nd ref="-723" />
    <nd ref="-726" />
    <nd ref="-728" />
    <nd ref="-729" />
    <nd ref="-727" />
    <tag k="building" v="residential" />
  </way>
  <way id="-1000000153" visible="true">
    <nd ref="-730" />
    <nd ref="-731" />
    <nd ref="-727" />
    <nd ref="-729" />
    <nd ref="-732" />
    <nd ref="-730" />
    <tag k="building" v="residential" />
  </way>
  <way id="-1000000154" visible="true">
    <nd ref="-733" />
    <nd ref="-730" />
    <nd ref="-732" />
    <nd ref="-734" />
    <nd ref="-735" />
    <nd ref="-733" />
    <tag k="building" v="residential" />
  </way>
  <way id="-1000000155" visible="true">
    <nd ref="-143" />
    <nd ref="-735" />
    <nd ref="-734" />
    <nd ref="-736" />
    <nd ref="-144" />
    <nd ref="-143" />
    <tag k="building" v="residential" />
  </way>
  <way id="-1000000156" visible="true">
    <nd ref="-616" />
    <nd ref="-737" />
    <nd ref="-738" />
    <nd ref="-617" />
    <nd ref="-616" />
    <tag k="building" v="service" />
    <tag k="building:levels" v="1" />
    <tag k="roof:shape" v="flat" />
  </way>
  <way id="-1000000157" visible="true">
    <nd ref="-739" />
    <nd ref="-740" />
    <nd ref="-741" />
    <nd ref="-742" />
    <nd ref="-743" />
    <nd ref="-744" />
    <nd ref="-745" />
    <nd ref="-746" />
    <nd ref="-747" />
    <nd ref="-748" />
    <nd ref="-739" />
  </way>
  <way id="-1000000158" visible="true">
    <nd ref="-749" />
    <nd ref="-750" />
    <nd ref="-751" />
    <nd ref="-752" />
    <nd ref="-753" />
    <nd ref="-754" />
    <nd ref="-749" />
  </way>
  <way id="-1000000159" visible="true">
    <nd ref="-755" />
    <nd ref="-756" />
    <nd ref="-757" />
    <nd ref="-758" />
    <nd ref="-759" />
    <nd ref="-760" />
    <nd ref="-761" />
    <nd ref="-755" />
    <tag k="building" v="roof" />
    <tag k="layer" v="1" />
    <tag k="type" v="multipolygon" />
  </way>
  <relation id="-1001000000" visible="true">
    <member type="way" ref="-1000000157" role="outer" />
    <member type="way" ref="-1000000158" role="inner" />
    <tag k="type" v="multipolygon" />
    <tag k="amenity" v="parking_space" />
    <tag k="building" v="yes" />
    <tag k="fee" v="yes" />
    <tag k="layer" v="1" />
    <tag k="name" v="Nordbahnhof" />
    <tag k="parking" v="multi-storey" />
    <tag k="ref" v="P9" />
    <tag k="type" v="multipolygon" />
  </relation>
</osm>