<?xml version='1.0' encoding='UTF-8'?>
<osm version="0.6" generator="tile_fbx_generator.py">
  <node id="-1" lat="48.7504629" lon="11.4621547" visible="true" />
  <node id="-2" lat="48.7500790" lon="11.4617825" visible="true" />
  <node id="-3" lat="48.7499579" lon="11.4620699" visible="true" />
  <node id="-4" lat="48.7503418" lon="11.4624421" visible="true" />
  <node id="-5" lat="48.7502752" lon="11.4625074" visible="true" />
  <node id="-6" lat="48.7501680" lon="11.4627715" visible="true" />
  <node id="-7" lat="48.7497653" lon="11.4623955" visible="true" />
  <node id="-8" lat="48.7498725" lon="11.4621314" visible="true" />
  <node id="-9" lat="48.7502451" lon="11.4606970" visible="true" />
  <node id="-10" lat="48.7500718" lon="11.4605351" visible="true" />
  <node id="-11" lat="48.7499655" lon="11.4607970" visible="true" />
  <node id="-12" lat="48.7499101" lon="11.4607453" visible="true" />
  <node id="-13" lat="48.7498063" lon="11.4610009" visible="true" />
  <node id="-14" lat="48.7500349" lon="11.4612144" visible="true" />
  <node id="-15" lat="48.7498315" lon="11.4616674" visible="true" />
  <node id="-16" lat="48.7496697" lon="11.4615257" visible="true" />
  <node id="-17" lat="48.7496940" lon="11.4614619" visible="true" />
  <node id="-18" lat="48.7495607" lon="11.4613452" visible="true" />
  <node id="-19" lat="48.7494698" lon="11.4615840" visible="true" />
  <node id="-20" lat="48.7495765" lon="11.4616774" visible="true" />
  <node id="-21" lat="48.7495615" lon="11.4617167" visible="true" />
  <node id="-22" lat="48.7497499" lon="11.4618817" visible="true" />
  <node id="-23" lat="48.7495280" lon="11.4618217" visible="true" />
  <node id="-24" lat="48.7494144" lon="11.4617287" visible="true" />
  <node id="-25" lat="48.7493690" lon="11.4618562" visible="true" />
  <node id="-26" lat="48.7494825" lon="11.4619492" visible="true" />
  <node id="-27" lat="48.7497231" lon="11.4620615" visible="true" />
  <node id="-28" lat="48.7496126" lon="11.4619804" visible="true" />
  <node id="-29" lat="48.7495659" lon="11.4621268" visible="true" />
  <node id="-30" lat="48.7496763" lon="11.4622079" visible="true" />
  <node id="-31" lat="48.7506082" lon="11.4611248" visible="true" />
  <node id="-32" lat="48.7503168" lon="11.4618078" visible="true" />
  <node id="-33" lat="48.7501123" lon="11.4616071" visible="true" />
  <node id="-34" lat="48.7504037" lon="11.4609240" visible="true" />
  <node id="-35" lat="48.7508588" lon="11.4613725" visible="true" />
  <node id="-36" lat="48.7505680" lon="11.4620512" visible="true" />
  <node id="-37" lat="48.7503580" lon="11.4618442" visible="true" />
  <node id="-38" lat="48.7506488" lon="11.4611654" visible="true" />
  <way id="-1000000000" visible="true">
    <nd ref="-1" />
    <nd ref="-2" />
    <nd ref="-3" />
    <nd ref="-4" />
    <nd ref="-1" />
    <tag k="addr:city" v="Ingolstadt" />
    <tag k="addr:country" v="DE" />
    <tag k="addr:housename" v="Mechanischer Werkstätte" />
    <tag k="addr:housenumber" v="6" />
    <tag k="addr:postcode" v="85053" />
    <tag k="addr:street" v="Schütterlettenweg" />
    <tag k="building" v="yes" />
    <tag k="contact:email" v="info@riemensperger.de" />
    <tag k="contact:phone" v="+49 841 62330" />
    <tag k="contact:website" v="http://www.riemensperger.de" />
    <tag k="man_made" v="works" />
    <tag k="name" v="Mechanische Werkstätte" />
    <tag k="operator" v="Riemensperger" />
  </way>
  <way id="-1000000001" visible="true">
    <nd ref="-5" />
    <nd ref="-6" />
    <nd ref="-7" />
    <nd ref="-8" />
    <nd ref="-5" />
    <tag k="building" v="yes" />
    <tag k="name" v="Mechanische Werkstätte" />
  </way>
  <way id="-1000000002" visible="true">
    <nd ref="-9" />
    <nd ref="-10" />
    <nd ref="-11" />
    <nd ref="-12" />
    <nd ref="-13" />
    <nd ref="-14" />
    <nd ref="-9" />
    <tag k="addr:city" v="Ingolstadt" />
    <tag k="addr:country" v="DE" />
    <tag k="addr:housenumber" v="1" />
    <tag k="addr:postcode" v="85053" />
    <tag k="addr:street" v="Schütterlettenweg" />
    <tag k="brand" v="Seat" />
    <tag k="brand:wikidata" v="Q188217" />
    <tag k="building" v="yes" />
    <tag k="name" v="Seat Zentrum Ingolstadt" />
    <tag k="opening_hours" v="Mo-Fr 07:30+; Sa 09:00-13:00" />
    <tag k="parts" v="brand" />
    <tag k="repair" v="brand" />
    <tag k="sale" v="yes" />
    <tag k="shop" v="car" />
  </way>
  <way id="-1000000003" visible="true">
    <nd ref="-15" />
    <nd ref="-16" />
    <nd ref="-17" />
    <nd ref="-18" />
    <nd ref="-19" />
    <nd ref="-20" />
    <nd ref="-21" />
    <nd ref="-22" />
    <nd ref="-15" />
    <tag k="addr:city" v="Ingolstadt" />
    <tag k="addr:country" v="DE" />
    <tag k="addr:housenumber" v="4" />
    <tag k="addr:postcode" v="85053" />
    <tag k="addr:street" v="Schütterlettenweg" />
    <tag k="building" v="yes" />
  </way>
  <way id="-1000000004" visible="true">
    <nd ref="-23" />
    <nd ref="-24" />
    <nd ref="-25" />
    <nd ref="-26" />
    <nd ref="-23" />
    <tag k="building" v="yes" />
    <tag k="note" v="Musterhaus" />
  </way>
  <way id="-1000000005" visible="true">
    <nd ref="-27" />
    <nd ref="-28" />
    <nd ref="-29" />
    <nd ref="-30" />
    <nd ref="-27" />
    <tag k="addr:city" v="Ingolstadt" />
    <tag k="addr:country" v="DE" />
    <tag k="addr:housenumber" v="2a" />
    <tag k="addr:postcode" v="85053" />
    <tag k="addr:street" v="Schütterlettenweg" />
    <tag k="building" v="yes" />
  </way>
  <way id="-1000000006" visible="true">
    <nd ref="-31" />
    <nd ref="-32" />
    <nd ref="-33" />
    <nd ref="-34" />
    <nd ref="-31" />
    <tag k="building" v="yes" />
  </way>
  <way id="-1000000007" visible="true">
    <nd ref="-35" />
    <nd ref="-36" />
    <nd ref="-37" />
    <nd ref="-38" />
    <nd ref="-35" />
    <tag k="building" v="yes" />
  </way>
</osm>